{"type":"FeatureCollection","features":[{"type":"Feature","properties":{"name":"Appenzell","cantonId":"appenzell-innerrhoden","municipalityId":"appenzell-3101"},"geometry":{"type":"Polygon","coordinates":[[[9.43546,47.36027],[9.43794,47.3565],[9.44478,47.35696],[9.46575,47.34642],[9.47924,47.34721],[9.45103,47.34298],[9.43635,47.33854],[9.42704,47.33906],[9.41678,47.33404],[9.4112,47.33432],[9.41372,47.33137],[9.41055,47.32882],[9.41327,47.32133],[9.40676,47.31809],[9.40509,47.31152],[9.38137,47.30427],[9.38246,47.31464],[9.3719,47.3253],[9.37901,47.32992],[9.37978,47.33427],[9.39332,47.33704],[9.39608,47.33997],[9.39474,47.34258],[9.39758,47.34387],[9.39601,47.34742],[9.40011,47.35079],[9.42505,47.36074],[9.43174,47.36003],[9.43546,47.36027]]]}},{"type":"Feature","properties":{"name":"Gonten","cantonId":"appenzell-innerrhoden","municipalityId":"gonten-3102"},"geometry":{"type":"Polygon","coordinates":[[[9.3436,47.34474],[9.34412,47.34317],[9.36178,47.34155],[9.3726,47.34578],[9.39575,47.34709],[9.39758,47.34387],[9.39474,47.34258],[9.39608,47.33997],[9.39332,47.33704],[9.37978,47.33427],[9.37901,47.32992],[9.3719,47.32543],[9.38246,47.31464],[9.38121,47.30548],[9.36227,47.30339],[9.32891,47.29155],[9.32908,47.28652],[9.32513,47.28308],[9.31965,47.28509],[9.3186,47.28826],[9.31356,47.29145],[9.31302,47.29615],[9.31711,47.30174],[9.31496,47.30625],[9.31832,47.30953],[9.314,47.3215],[9.30988,47.32272],[9.31606,47.32733],[9.32897,47.33081],[9.33339,47.34078],[9.34299,47.34467],[9.3436,47.34474]]]}},{"type":"Feature","properties":{"name":"Oberegg","cantonId":"appenzell-innerrhoden","municipalityId":"oberegg-3111"},"geometry":{"type":"MultiPolygon","coordinates":[[[[9.55529,47.39643],[9.55327,47.39401],[9.5476,47.39317],[9.54318,47.395],[9.54536,47.39846],[9.54258,47.40026],[9.50821,47.39551],[9.51231,47.39749],[9.51072,47.40246],[9.53274,47.41032],[9.52787,47.41036],[9.52292,47.414],[9.52707,47.41501],[9.52337,47.42142],[9.53743,47.42578],[9.5404,47.43183],[9.55476,47.42683],[9.55404,47.42336],[9.55696,47.41908],[9.57625,47.41582],[9.57219,47.41319],[9.57372,47.40737],[9.57042,47.40638],[9.56492,47.4053],[9.56265,47.4085],[9.55323,47.40774],[9.55129,47.40998],[9.54239,47.4082],[9.55529,47.39645],[9.55529,47.39643]]],[[[9.61783,47.43767],[9.60735,47.43166],[9.58825,47.42542],[9.58969,47.42089],[9.60482,47.41437],[9.59632,47.41154],[9.58044,47.41037],[9.58584,47.41309],[9.58166,47.41513],[9.58316,47.42014],[9.56838,47.42107],[9.5673,47.4223],[9.57533,47.42571],[9.56993,47.42905],[9.56241,47.429],[9.55854,47.43174],[9.55883,47.43396],[9.5664,47.43867],[9.56876,47.43851],[9.57063,47.43434],[9.57932,47.43361],[9.61734,47.43759],[9.61783,47.43767]]],[[[9.61262,47.44358],[9.61271,47.44358],[9.61311,47.44369],[9.61319,47.44357],[9.61321,47.44357],[9.61323,47.44354],[9.61322,47.44354],[9.61328,47.44343],[9.61304,47.44337],[9.61298,47.44317],[9.61222,47.44328],[9.6121,47.44338],[9.61224,47.4435],[9.61235,47.44343],[9.61251,47.44356],[9.61255,47.44353],[9.61262,47.44358]]]]}},{"type":"Feature","properties":{"name":"Schlatt-Haslen","cantonId":"appenzell-innerrhoden","municipalityId":"schlatt-haslen-3104"},"geometry":{"type":"MultiPolygon","coordinates":[[[[9.43095,47.37087],[9.43065,47.36711],[9.43546,47.36027],[9.42712,47.36124],[9.41503,47.35768],[9.39605,47.34703],[9.3726,47.34578],[9.36178,47.34155],[9.34412,47.34317],[9.3436,47.34474],[9.34625,47.34493],[9.34368,47.35218],[9.36537,47.35836],[9.35686,47.37131],[9.35947,47.3734],[9.3587,47.37814],[9.35021,47.38311],[9.35452,47.38423],[9.37184,47.384],[9.37703,47.38717],[9.37941,47.38643],[9.37813,47.38081],[9.38554,47.3792],[9.38617,47.37705],[9.39363,47.38024],[9.39889,47.37737],[9.40105,47.37833],[9.40321,47.3734],[9.41189,47.36876],[9.42266,47.36804],[9.43051,47.37077],[9.43095,47.37087]]],[[[9.36218,47.38678],[9.36224,47.38683],[9.36232,47.3869],[9.36276,47.3867],[9.36324,47.3864],[9.36275,47.38601],[9.36217,47.38624],[9.36178,47.38638],[9.36204,47.38673],[9.36218,47.38678]]]]}},{"type":"Feature","properties":{"name":"Schwende-Rüte","cantonId":"appenzell-innerrhoden","municipalityId":"schwende-ruete-3112"},"geometry":{"type":"Polygon","coordinates":[[[9.34327,47.2494],[9.33413,47.26272],[9.33275,47.26995],[9.32326,47.28306],[9.32908,47.28652],[9.32891,47.29155],[9.36227,47.30339],[9.38236,47.30438],[9.40509,47.31152],[9.40676,47.31809],[9.41327,47.32133],[9.41055,47.32882],[9.41372,47.33137],[9.41043,47.33384],[9.41678,47.33404],[9.42514,47.33857],[9.43635,47.33854],[9.45103,47.34298],[9.46962,47.34442],[9.48715,47.35025],[9.50292,47.34743],[9.50217,47.32971],[9.50032,47.3295],[9.49814,47.31821],[9.49252,47.3129],[9.49626,47.30601],[9.48887,47.3018],[9.49069,47.30077],[9.48684,47.29071],[9.48776,47.28829],[9.47295,47.27121],[9.46435,47.26584],[9.45111,47.26003],[9.4378,47.25073],[9.42624,47.24711],[9.41481,47.24653],[9.40244,47.23769],[9.38201,47.23399],[9.36489,47.24331],[9.351,47.24436],[9.34309,47.24906],[9.34327,47.2494]]]}}]}
