{"type":"FeatureCollection","features":[{"type":"Feature","properties":{"name":"Bühler","cantonId":"appenzell-ausserrhoden","municipalityId":"buehler-3021"},"geometry":{"type":"Polygon","coordinates":[[[9.45147,47.39322],[9.45423,47.38585],[9.43522,47.37834],[9.43548,47.37676],[9.42734,47.37261],[9.43095,47.37087],[9.42219,47.36799],[9.40604,47.37125],[9.40206,47.37489],[9.40352,47.37612],[9.40033,47.37732],[9.40339,47.38019],[9.40836,47.37994],[9.41278,47.38526],[9.41971,47.38502],[9.43419,47.39196],[9.44298,47.39015],[9.45113,47.39321],[9.45147,47.39322]]]}},{"type":"Feature","properties":{"name":"Gais","cantonId":"appenzell-ausserrhoden","municipalityId":"gais-3022"},"geometry":{"type":"Polygon","coordinates":[[[9.43095,47.37087],[9.42734,47.37261],[9.43548,47.37676],[9.43522,47.37834],[9.46573,47.39039],[9.47355,47.39095],[9.47488,47.38821],[9.48211,47.38645],[9.4878,47.39005],[9.50793,47.39296],[9.50261,47.38403],[9.50414,47.38262],[9.50304,47.37499],[9.50541,47.37446],[9.49901,47.36933],[9.50108,47.36813],[9.49897,47.36168],[9.50104,47.36086],[9.50292,47.34743],[9.48715,47.35025],[9.47924,47.34721],[9.46575,47.34642],[9.44478,47.35696],[9.43794,47.3565],[9.43065,47.36711],[9.43113,47.37063],[9.43095,47.37087]]]}},{"type":"Feature","properties":{"name":"Grub (AR)","cantonId":"appenzell-ausserrhoden","municipalityId":"grub-ar-3031"},"geometry":{"type":"Polygon","coordinates":[[[9.46814,47.43804],[9.4951,47.4423],[9.50846,47.44925],[9.52422,47.45154],[9.52522,47.4473],[9.51846,47.44314],[9.51923,47.43266],[9.51189,47.42856],[9.50909,47.42891],[9.50578,47.43457],[9.50799,47.43676],[9.49487,47.43401],[9.48646,47.43677],[9.47198,47.43263],[9.46849,47.43793],[9.46814,47.43804]]]}},{"type":"Feature","properties":{"name":"Heiden","cantonId":"appenzell-ausserrhoden","municipalityId":"heiden-3032"},"geometry":{"type":"Polygon","coordinates":[[[9.55854,47.43174],[9.54718,47.42983],[9.53891,47.43174],[9.53899,47.42727],[9.53641,47.42525],[9.51801,47.42298],[9.51457,47.42918],[9.51923,47.43266],[9.51866,47.44372],[9.52522,47.4473],[9.52543,47.45293],[9.53104,47.45434],[9.52746,47.45648],[9.52706,47.46034],[9.53392,47.46305],[9.53727,47.46137],[9.54277,47.46431],[9.54656,47.4629],[9.55284,47.46454],[9.54588,47.46121],[9.54002,47.44928],[9.54132,47.44728],[9.53759,47.44473],[9.55276,47.43814],[9.5545,47.43588],[9.55302,47.43398],[9.55748,47.43482],[9.5589,47.43193],[9.55854,47.43174]]]}},{"type":"Feature","properties":{"name":"Herisau","cantonId":"appenzell-ausserrhoden","municipalityId":"herisau-3001"},"geometry":{"type":"Polygon","coordinates":[[[9.3088,47.36845],[9.30513,47.36896],[9.30237,47.37221],[9.30189,47.37029],[9.30014,47.3725],[9.29362,47.3723],[9.29535,47.37147],[9.29394,47.36994],[9.29061,47.37076],[9.28619,47.36705],[9.27903,47.36788],[9.27986,47.36578],[9.27441,47.36282],[9.27024,47.36347],[9.26194,47.35947],[9.25597,47.36124],[9.25783,47.36375],[9.25559,47.36503],[9.25596,47.36751],[9.24893,47.36506],[9.24653,47.36586],[9.24697,47.36897],[9.24042,47.36797],[9.24044,47.37001],[9.23804,47.37054],[9.24056,47.37383],[9.2358,47.37153],[9.22305,47.37234],[9.2198,47.376],[9.22201,47.37829],[9.21873,47.38476],[9.22299,47.38762],[9.23249,47.38841],[9.23229,47.39599],[9.23055,47.39708],[9.2365,47.39619],[9.2519,47.40071],[9.25817,47.39877],[9.26474,47.40125],[9.30199,47.39515],[9.32623,47.40037],[9.32546,47.39516],[9.32801,47.39086],[9.32521,47.38679],[9.32653,47.38095],[9.32405,47.37978],[9.3242,47.37489],[9.30898,47.36856],[9.3088,47.36845]]]}},{"type":"Feature","properties":{"name":"Hundwil","cantonId":"appenzell-ausserrhoden","municipalityId":"hundwil-3002"},"geometry":{"type":"Polygon","coordinates":[[[9.30798,47.25961],[9.31458,47.2716],[9.30406,47.27252],[9.31729,47.28244],[9.30447,47.28836],[9.30645,47.29176],[9.30546,47.30158],[9.31043,47.30772],[9.30583,47.32039],[9.29556,47.32196],[9.29599,47.32734],[9.29116,47.33221],[9.29834,47.35202],[9.29734,47.35948],[9.3063,47.36246],[9.30836,47.36389],[9.30694,47.36769],[9.32087,47.37423],[9.32275,47.3696],[9.33522,47.36584],[9.3404,47.35744],[9.34918,47.35641],[9.35111,47.35464],[9.34329,47.35115],[9.34625,47.34493],[9.33339,47.34078],[9.32897,47.33081],[9.31606,47.32733],[9.31128,47.32511],[9.30972,47.32188],[9.314,47.3215],[9.31832,47.30953],[9.31496,47.30625],[9.31711,47.30174],[9.31302,47.29615],[9.31356,47.29145],[9.32363,47.28291],[9.34327,47.24939],[9.31864,47.24787],[9.30785,47.2553],[9.30804,47.25956],[9.30798,47.25961]]]}},{"type":"Feature","properties":{"name":"Lutzenberg","cantonId":"appenzell-ausserrhoden","municipalityId":"lutzenberg-3033"},"geometry":{"type":"MultiPolygon","coordinates":[[[[9.57663,47.46289],[9.58879,47.45966],[9.58757,47.45267],[9.581,47.4568],[9.56271,47.45602],[9.55941,47.45781],[9.56199,47.4629],[9.5756,47.46281],[9.57663,47.46289]]],[[[9.52635,47.45991],[9.52564,47.46137],[9.53249,47.46784],[9.54286,47.46904],[9.5472,47.467],[9.54625,47.46427],[9.52684,47.46016],[9.52635,47.45991]]]]}},{"type":"Feature","properties":{"name":"Rehetobel","cantonId":"appenzell-ausserrhoden","municipalityId":"rehetobel-3034"},"geometry":{"type":"Polygon","coordinates":[[[9.51574,47.42627],[9.50856,47.42247],[9.49826,47.4219],[9.49153,47.4241],[9.46896,47.41703],[9.45851,47.41998],[9.45622,47.42858],[9.45192,47.43112],[9.46814,47.43804],[9.47198,47.43263],[9.48646,47.43677],[9.49487,47.43401],[9.50799,47.43676],[9.50578,47.43457],[9.50909,47.42891],[9.51482,47.42941],[9.5155,47.42658],[9.51574,47.42627]]]}},{"type":"Feature","properties":{"name":"Reute (AR)","cantonId":"appenzell-ausserrhoden","municipalityId":"reute-ar-3035"},"geometry":{"type":"Polygon","coordinates":[[[9.58295,47.4089],[9.57443,47.40563],[9.57643,47.40419],[9.55655,47.39634],[9.54239,47.4082],[9.54878,47.41001],[9.55324,47.40774],[9.55845,47.4091],[9.56369,47.408],[9.56492,47.4053],[9.57372,47.40738],[9.5722,47.41319],[9.57625,47.41583],[9.55696,47.41908],[9.55404,47.42337],[9.55476,47.42684],[9.54696,47.42887],[9.54852,47.43086],[9.5572,47.43207],[9.57533,47.42571],[9.5673,47.4223],[9.56839,47.42107],[9.58317,47.42014],[9.58166,47.41513],[9.58584,47.41309],[9.5803,47.41053],[9.58294,47.40895],[9.58295,47.4089]]]}},{"type":"Feature","properties":{"name":"Schönengrund","cantonId":"appenzell-ausserrhoden","municipalityId":"schoenengrund-3003"},"geometry":{"type":"Polygon","coordinates":[[[9.23332,47.33197],[9.2365,47.33272],[9.24512,47.32823],[9.25391,47.32953],[9.25476,47.32618],[9.24968,47.32125],[9.25058,47.31939],[9.23628,47.31183],[9.21776,47.30801],[9.21301,47.3197],[9.20983,47.3209],[9.23317,47.33182],[9.23332,47.33197]]]}},{"type":"Feature","properties":{"name":"Schwellbrunn","cantonId":"appenzell-ausserrhoden","municipalityId":"schwellbrunn-3004"},"geometry":{"type":"Polygon","coordinates":[[[9.26935,47.34276],[9.26684,47.34201],[9.26819,47.34044],[9.26573,47.3366],[9.25942,47.33512],[9.25386,47.33238],[9.25391,47.32953],[9.24882,47.32833],[9.2365,47.33272],[9.23332,47.33197],[9.22233,47.34334],[9.20629,47.33913],[9.20569,47.3423],[9.19864,47.34778],[9.20747,47.3561],[9.20473,47.35761],[9.19563,47.35346],[9.1911,47.36254],[9.21017,47.36305],[9.2139,47.36652],[9.21323,47.36823],[9.22123,47.37327],[9.23554,47.37151],[9.24056,47.37383],[9.23804,47.37054],[9.24044,47.37001],[9.24042,47.36797],[9.24697,47.36897],[9.24653,47.36586],[9.24893,47.36506],[9.25596,47.36751],[9.25559,47.36503],[9.25783,47.36375],[9.25597,47.36124],[9.26482,47.35891],[9.2693,47.34281],[9.26935,47.34276]]]}},{"type":"Feature","properties":{"name":"Speicher","cantonId":"appenzell-ausserrhoden","municipalityId":"speicher-3023"},"geometry":{"type":"Polygon","coordinates":[[[9.45147,47.39322],[9.44298,47.39015],[9.43405,47.39199],[9.43273,47.39337],[9.43604,47.39721],[9.43472,47.40026],[9.42793,47.40068],[9.42855,47.40396],[9.4254,47.40539],[9.42989,47.40961],[9.42788,47.41045],[9.42853,47.4126],[9.43054,47.41149],[9.43297,47.41397],[9.42998,47.41784],[9.43504,47.42083],[9.43252,47.42951],[9.43501,47.43429],[9.44687,47.4334],[9.45622,47.42858],[9.45851,47.41998],[9.46268,47.41736],[9.45765,47.41401],[9.4588,47.4097],[9.45411,47.40657],[9.45479,47.40319],[9.45111,47.39937],[9.45142,47.39467],[9.45147,47.39322]]]}},{"type":"Feature","properties":{"name":"Stein (AR)","cantonId":"appenzell-ausserrhoden","municipalityId":"stein-ar-3005"},"geometry":{"type":"Polygon","coordinates":[[[9.33968,47.3996],[9.34273,47.39817],[9.34845,47.38408],[9.3587,47.37814],[9.35947,47.3734],[9.35686,47.37131],[9.36537,47.35836],[9.35111,47.35464],[9.34343,47.35822],[9.3404,47.35744],[9.33522,47.36584],[9.32275,47.3696],[9.32182,47.37295],[9.3242,47.37489],[9.32405,47.37978],[9.32653,47.38095],[9.32487,47.38485],[9.32801,47.39086],[9.32585,47.39338],[9.32534,47.40054],[9.3395,47.3997],[9.33968,47.3996]]]}},{"type":"Feature","properties":{"name":"Teufen (AR)","cantonId":"appenzell-ausserrhoden","municipalityId":"teufen-ar-3024"},"geometry":{"type":"Polygon","coordinates":[[[9.33968,47.3996],[9.35434,47.40342],[9.35857,47.40204],[9.37168,47.40771],[9.38693,47.4056],[9.39193,47.40127],[9.39745,47.40059],[9.42578,47.40727],[9.4254,47.40539],[9.42858,47.40388],[9.42793,47.40068],[9.43424,47.40099],[9.43604,47.39721],[9.43273,47.39337],[9.43328,47.3905],[9.41971,47.38502],[9.41278,47.38526],[9.40836,47.37994],[9.40339,47.38019],[9.39922,47.37736],[9.39363,47.38024],[9.38617,47.37705],[9.38554,47.3792],[9.37813,47.38081],[9.3794,47.38643],[9.37703,47.38717],[9.37184,47.384],[9.34921,47.38349],[9.34273,47.39817],[9.33978,47.39951],[9.33968,47.3996]],[[9.36218,47.38678],[9.36204,47.38673],[9.36178,47.38638],[9.36217,47.38624],[9.36275,47.38601],[9.36324,47.3864],[9.36276,47.3867],[9.36232,47.38691],[9.36224,47.38683],[9.36218,47.38678]]]}},{"type":"Feature","properties":{"name":"Trogen","cantonId":"appenzell-ausserrhoden","municipalityId":"trogen-3025"},"geometry":{"type":"Polygon","coordinates":[[[9.45147,47.39322],[9.45111,47.39937],[9.45477,47.40314],[9.45411,47.40657],[9.45868,47.40945],[9.45833,47.41528],[9.46264,47.41751],[9.47178,47.41789],[9.47696,47.41259],[9.48628,47.41262],[9.48553,47.41078],[9.48958,47.4102],[9.49723,47.40442],[9.50236,47.40433],[9.50038,47.40282],[9.51149,47.40215],[9.51231,47.39749],[9.50827,47.39562],[9.50793,47.39296],[9.4878,47.39005],[9.48211,47.38645],[9.47488,47.38821],[9.47355,47.39095],[9.46573,47.39039],[9.45423,47.38585],[9.45141,47.39287],[9.45147,47.39322]]]}},{"type":"Feature","properties":{"name":"Urnäsch","cantonId":"appenzell-ausserrhoden","municipalityId":"urnaesch-3006"},"geometry":{"type":"Polygon","coordinates":[[[9.30798,47.25961],[9.29718,47.25741],[9.28971,47.26033],[9.2841,47.26565],[9.27511,47.26574],[9.2791,47.26667],[9.27378,47.27001],[9.25733,47.26322],[9.2475,47.26608],[9.23357,47.26537],[9.20626,47.27639],[9.20822,47.28014],[9.21711,47.2845],[9.22432,47.29287],[9.21705,47.29969],[9.21776,47.30801],[9.23628,47.31183],[9.25,47.31889],[9.24968,47.32125],[9.25476,47.32618],[9.25386,47.33238],[9.26573,47.3366],[9.26729,47.34236],[9.27947,47.34151],[9.29607,47.34788],[9.29391,47.33582],[9.29116,47.33221],[9.29599,47.32734],[9.29556,47.32196],[9.30583,47.32039],[9.31043,47.30772],[9.30546,47.30158],[9.30645,47.29176],[9.30413,47.28913],[9.31729,47.28244],[9.30406,47.27252],[9.31458,47.2716],[9.30798,47.25963],[9.30798,47.25961]]]}},{"type":"Feature","properties":{"name":"Wald (AR)","cantonId":"appenzell-ausserrhoden","municipalityId":"wald-ar-3036"},"geometry":{"type":"Polygon","coordinates":[[[9.51072,47.40246],[9.50038,47.40282],[9.50236,47.40433],[9.49723,47.40442],[9.48958,47.4102],[9.48553,47.41078],[9.48628,47.41262],[9.47696,47.41259],[9.47182,47.41788],[9.49199,47.42418],[9.49826,47.4219],[9.50989,47.42282],[9.5127,47.42624],[9.51755,47.42561],[9.51801,47.42298],[9.52555,47.42399],[9.52656,47.42291],[9.52337,47.42143],[9.52707,47.41501],[9.52292,47.414],[9.52787,47.41036],[9.53274,47.41033],[9.51105,47.40263],[9.51072,47.40246]]]}},{"type":"Feature","properties":{"name":"Waldstatt","cantonId":"appenzell-ausserrhoden","municipalityId":"waldstatt-3007"},"geometry":{"type":"Polygon","coordinates":[[[9.26935,47.34276],[9.26566,47.35175],[9.26771,47.35294],[9.26482,47.35891],[9.26194,47.35947],[9.26414,47.36156],[9.27441,47.36282],[9.27966,47.36557],[9.27809,47.36653],[9.27954,47.36801],[9.28619,47.36705],[9.29061,47.37076],[9.29502,47.37067],[9.29362,47.3723],[9.30014,47.3725],[9.30189,47.37029],[9.30237,47.37221],[9.30513,47.36896],[9.3088,47.36845],[9.30603,47.36661],[9.30836,47.36389],[9.29753,47.35974],[9.29838,47.3523],[9.29628,47.34783],[9.27947,47.34151],[9.26957,47.34268],[9.26935,47.34276]]]}},{"type":"Feature","properties":{"name":"Walzenhausen","cantonId":"appenzell-ausserrhoden","municipalityId":"walzenhausen-3037"},"geometry":{"type":"Polygon","coordinates":[[[9.61784,47.43768],[9.59322,47.43397],[9.59315,47.43563],[9.57932,47.43361],[9.56993,47.4347],[9.56876,47.43851],[9.56496,47.43983],[9.56691,47.44093],[9.56439,47.44386],[9.58532,47.44485],[9.58866,47.4577],[9.59325,47.45863],[9.61298,47.44878],[9.62971,47.44437],[9.62974,47.43984],[9.6182,47.43774],[9.61784,47.43768]],[[9.61263,47.44359],[9.61255,47.44353],[9.61251,47.44356],[9.61235,47.44344],[9.61224,47.4435],[9.6121,47.44339],[9.61222,47.44329],[9.61298,47.44317],[9.61304,47.44337],[9.61328,47.44344],[9.61322,47.44354],[9.61323,47.44354],[9.61321,47.44357],[9.61319,47.44357],[9.61311,47.44369],[9.61271,47.44358],[9.61263,47.44359]]]}},{"type":"Feature","properties":{"name":"Wolfhalden","cantonId":"appenzell-ausserrhoden","municipalityId":"wolfhalden-3038"},"geometry":{"type":"Polygon","coordinates":[[[9.56642,47.43867],[9.56025,47.43425],[9.55327,47.43383],[9.55444,47.43653],[9.55276,47.43814],[9.53765,47.44445],[9.54132,47.44728],[9.54002,47.44928],[9.54588,47.46121],[9.55804,47.46478],[9.56221,47.46325],[9.55941,47.45781],[9.56146,47.45626],[9.581,47.4568],[9.58757,47.45267],[9.58532,47.44485],[9.56439,47.44386],[9.56639,47.43876],[9.56642,47.43867]]]}}]}
