{"type":"FeatureCollection","features":[{"type":"Feature","properties":{"name":"Basel","cantonId":"basel-stadt","municipalityId":"basel-2701"},"geometry":{"type":"Polygon","coordinates":[[[7.55589,47.54434],[7.55876,47.55236],[7.56125,47.55173],[7.56458,47.55704],[7.55466,47.56437],[7.5573,47.56503],[7.55934,47.56939],[7.5569,47.57247],[7.56649,47.57767],[7.58466,47.57552],[7.58474,47.58086],[7.58905,47.5899],[7.60482,47.58493],[7.60489,47.57788],[7.61914,47.57687],[7.62455,47.57942],[7.62702,47.57735],[7.6208,47.57341],[7.62197,47.57071],[7.62825,47.56643],[7.63135,47.56795],[7.63415,47.56555],[7.6326,47.56151],[7.61762,47.55865],[7.6177,47.55445],[7.62289,47.54996],[7.62231,47.53978],[7.61358,47.53913],[7.59479,47.5193],[7.59025,47.51979],[7.58949,47.52793],[7.58279,47.53198],[7.58727,47.54191],[7.56479,47.54569],[7.55655,47.54434],[7.55589,47.54434]]]}},{"type":"Feature","properties":{"name":"Bettingen","cantonId":"basel-stadt","municipalityId":"bettingen-2702"},"geometry":{"type":"Polygon","coordinates":[[[7.68136,47.581],[7.68368,47.57391],[7.68966,47.5714],[7.68593,47.56562],[7.68351,47.57126],[7.67515,47.56543],[7.67732,47.56375],[7.66423,47.5654],[7.65265,47.56178],[7.6629,47.57514],[7.67635,47.57398],[7.68082,47.58113],[7.68136,47.581]]]}},{"type":"Feature","properties":{"name":"Riehen","cantonId":"basel-stadt","municipalityId":"riehen-2703"},"geometry":{"type":"Polygon","coordinates":[[[7.68136,47.581],[7.67868,47.58015],[7.67613,47.57391],[7.6629,47.57514],[7.65649,47.56575],[7.64828,47.55994],[7.63613,47.56392],[7.6326,47.56151],[7.63415,47.56555],[7.63135,47.56795],[7.62825,47.56643],[7.62497,47.56993],[7.62344,47.56893],[7.6208,47.57341],[7.62702,47.57735],[7.62455,47.57942],[7.64325,47.59135],[7.64179,47.5942],[7.64568,47.59696],[7.67518,47.59199],[7.68302,47.5985],[7.6938,47.60078],[7.67175,47.58728],[7.67208,47.58524],[7.68086,47.58269],[7.68136,47.581]]]}}]}
