{"type":"FeatureCollection","features":[{"type":"Feature","properties":{"name":"Aesch (BL)","cantonId":"basel-landschaft","municipalityId":"aesch-bl-2761"},"geometry":{"type":"Polygon","coordinates":[[[7.5673,47.48509],[7.57666,47.48076],[7.59402,47.48321],[7.6074,47.48833],[7.60884,47.4834],[7.60565,47.4792],[7.6062,47.47556],[7.60816,47.47522],[7.60453,47.47054],[7.60284,47.46321],[7.59775,47.4607],[7.55963,47.46724],[7.56084,47.47648],[7.56557,47.48535],[7.5673,47.48509]]]}},{"type":"Feature","properties":{"name":"Allschwil","cantonId":"basel-landschaft","municipalityId":"allschwil-2762"},"geometry":{"type":"Polygon","coordinates":[[[7.55589,47.54434],[7.55043,47.5397],[7.54688,47.53146],[7.53094,47.52684],[7.52678,47.53288],[7.5244,47.53187],[7.51936,47.53472],[7.51579,47.53294],[7.5091,47.53823],[7.50868,47.54273],[7.5041,47.5433],[7.50935,47.54584],[7.51676,47.54541],[7.52732,47.55278],[7.55466,47.56437],[7.56457,47.55722],[7.56125,47.55173],[7.55876,47.55236],[7.55589,47.54434]]]}},{"type":"Feature","properties":{"name":"Anwil","cantonId":"basel-landschaft","municipalityId":"anwil-2841"},"geometry":{"type":"Polygon","coordinates":[[[7.94679,47.4432],[7.93834,47.44363],[7.93419,47.44128],[7.92903,47.44583],[7.92801,47.45],[7.9226,47.45064],[7.92881,47.45387],[7.93042,47.45884],[7.94886,47.46378],[7.95754,47.4589],[7.95624,47.45493],[7.95854,47.45304],[7.94714,47.44424],[7.94679,47.4432]]]}},{"type":"Feature","properties":{"name":"Arboldswil","cantonId":"basel-landschaft","municipalityId":"arboldswil-2881"},"geometry":{"type":"Polygon","coordinates":[[[7.73179,47.40636],[7.71977,47.40906],[7.71711,47.40715],[7.7107,47.40753],[7.70945,47.40985],[7.70428,47.41062],[7.69591,47.40884],[7.70171,47.41634],[7.70915,47.42053],[7.71857,47.42188],[7.72276,47.42644],[7.72348,47.42372],[7.7347,47.41842],[7.73115,47.40805],[7.73179,47.40636]]]}},{"type":"Feature","properties":{"name":"Arisdorf","cantonId":"basel-landschaft","municipalityId":"arisdorf-2821"},"geometry":{"type":"Polygon","coordinates":[[[7.7505,47.50343],[7.74404,47.50501],[7.74423,47.51057],[7.74101,47.51387],[7.74631,47.51652],[7.74595,47.52168],[7.74972,47.52539],[7.75787,47.52606],[7.7866,47.52052],[7.79014,47.51869],[7.78769,47.51382],[7.79173,47.50194],[7.7825,47.49876],[7.77221,47.49058],[7.76181,47.49149],[7.75906,47.4951],[7.75622,47.49523],[7.75479,47.50141],[7.75174,47.50306],[7.7505,47.50343]]]}},{"type":"Feature","properties":{"name":"Arlesheim","cantonId":"basel-landschaft","municipalityId":"arlesheim-2763"},"geometry":{"type":"Polygon","coordinates":[[[7.60743,47.48939],[7.60715,47.50347],[7.61195,47.50962],[7.63871,47.5036],[7.64539,47.50027],[7.65069,47.49458],[7.64865,47.49183],[7.6554,47.49021],[7.65052,47.48827],[7.65593,47.4874],[7.64443,47.48564],[7.64097,47.48274],[7.60843,47.48931],[7.60743,47.48939]]]}},{"type":"Feature","properties":{"name":"Augst","cantonId":"basel-landschaft","municipalityId":"augst-2822"},"geometry":{"type":"Polygon","coordinates":[[[7.71353,47.53964],[7.71596,47.53583],[7.72363,47.53676],[7.72592,47.53347],[7.73429,47.53168],[7.73237,47.52867],[7.7243,47.52662],[7.72042,47.52268],[7.71404,47.53519],[7.68683,47.5314],[7.70665,47.53703],[7.71353,47.53964]]]}},{"type":"Feature","properties":{"name":"Bennwil","cantonId":"basel-landschaft","municipalityId":"bennwil-2882"},"geometry":{"type":"Polygon","coordinates":[[[7.78981,47.39004],[7.792,47.3818],[7.79018,47.37716],[7.77898,47.37681],[7.77916,47.37919],[7.77037,47.3875],[7.76668,47.39467],[7.76964,47.41211],[7.77752,47.40898],[7.7821,47.41203],[7.79029,47.41028],[7.791,47.41331],[7.79368,47.40843],[7.79707,47.40755],[7.79644,47.39468],[7.79003,47.39044],[7.78981,47.39004]]]}},{"type":"Feature","properties":{"name":"Biel-Benken","cantonId":"basel-landschaft","municipalityId":"biel-benken-2764"},"geometry":{"type":"Polygon","coordinates":[[[7.5365,47.50506],[7.53252,47.50211],[7.53268,47.49749],[7.51476,47.49777],[7.51223,47.49892],[7.50935,47.50889],[7.49909,47.51628],[7.49788,47.52125],[7.50228,47.51491],[7.51488,47.51737],[7.52219,47.5142],[7.52542,47.51595],[7.53571,47.514],[7.5364,47.50635],[7.5365,47.50506]]]}},{"type":"Feature","properties":{"name":"Binningen","cantonId":"basel-landschaft","municipalityId":"binningen-2765"},"geometry":{"type":"Polygon","coordinates":[[[7.55589,47.54434],[7.56479,47.54569],[7.58727,47.54191],[7.58269,47.53247],[7.58383,47.5281],[7.58087,47.52739],[7.58028,47.52916],[7.55908,47.52772],[7.55423,47.52914],[7.54771,47.53402],[7.55202,47.54197],[7.55581,47.54434],[7.55589,47.54434]]]}},{"type":"Feature","properties":{"name":"Birsfelden","cantonId":"basel-landschaft","municipalityId":"birsfelden-2766"},"geometry":{"type":"Polygon","coordinates":[[[7.6225,47.54243],[7.62289,47.54996],[7.6177,47.55445],[7.61762,47.55865],[7.62878,47.56169],[7.63554,47.56075],[7.64592,47.55168],[7.63187,47.55067],[7.62742,47.54072],[7.62301,47.54225],[7.6225,47.54243]]]}},{"type":"Feature","properties":{"name":"Blauen","cantonId":"basel-landschaft","municipalityId":"blauen-2781"},"geometry":{"type":"Polygon","coordinates":[[[7.48453,47.45722],[7.49696,47.45966],[7.50983,47.45867],[7.51746,47.46102],[7.55449,47.46289],[7.55467,47.46058],[7.54568,47.45864],[7.54756,47.45423],[7.54566,47.45136],[7.54662,47.44797],[7.54063,47.44496],[7.51626,47.44103],[7.50554,47.44507],[7.49288,47.4574],[7.48642,47.45726],[7.48453,47.45722]]]}},{"type":"Feature","properties":{"name":"Böckten","cantonId":"basel-landschaft","municipalityId":"boeckten-2842"},"geometry":{"type":"Polygon","coordinates":[[[7.83462,47.47827],[7.84106,47.47251],[7.84009,47.47049],[7.84419,47.45968],[7.84167,47.45674],[7.82455,47.46199],[7.82732,47.46943],[7.82599,47.47372],[7.83011,47.47766],[7.83384,47.478],[7.83462,47.47827]]]}},{"type":"Feature","properties":{"name":"Bottmingen","cantonId":"basel-landschaft","municipalityId":"bottmingen-2767"},"geometry":{"type":"Polygon","coordinates":[[[7.58143,47.51082],[7.56913,47.51703],[7.56369,47.52177],[7.56474,47.52275],[7.56117,47.52367],[7.5624,47.52567],[7.55922,47.52794],[7.57894,47.52921],[7.58317,47.52753],[7.58569,47.53133],[7.58984,47.52708],[7.59004,47.52042],[7.58656,47.52017],[7.58458,47.51174],[7.58173,47.51119],[7.58143,47.51082]]]}},{"type":"Feature","properties":{"name":"Bretzwil","cantonId":"basel-landschaft","municipalityId":"bretzwil-2883"},"geometry":{"type":"Polygon","coordinates":[[[7.66304,47.40992],[7.66945,47.40567],[7.67081,47.40162],[7.6666,47.39872],[7.66611,47.39369],[7.66195,47.39057],[7.66074,47.38702],[7.66403,47.38573],[7.66331,47.38421],[7.64647,47.3802],[7.63559,47.3806],[7.63332,47.38292],[7.63331,47.38534],[7.63726,47.38607],[7.63273,47.41003],[7.66151,47.40978],[7.66304,47.40992]]]}},{"type":"Feature","properties":{"name":"Brislach","cantonId":"basel-landschaft","municipalityId":"brislach-2782"},"geometry":{"type":"Polygon","coordinates":[[[7.52234,47.414],[7.51304,47.41975],[7.54725,47.43603],[7.54932,47.43765],[7.54536,47.44042],[7.54751,47.44364],[7.55462,47.44414],[7.5672,47.43865],[7.56918,47.43512],[7.56823,47.42238],[7.58075,47.41471],[7.52614,47.41186],[7.5225,47.41389],[7.52234,47.414]]]}},{"type":"Feature","properties":{"name":"Bubendorf","cantonId":"basel-landschaft","municipalityId":"bubendorf-2823"},"geometry":{"type":"Polygon","coordinates":[[[7.75086,47.46296],[7.75976,47.45581],[7.75537,47.44874],[7.75969,47.44282],[7.74762,47.43623],[7.75041,47.43523],[7.73946,47.42286],[7.73944,47.42763],[7.73504,47.42821],[7.72893,47.42078],[7.72348,47.42372],[7.72374,47.43504],[7.72182,47.43864],[7.7098,47.44732],[7.72556,47.45808],[7.73285,47.46617],[7.74934,47.46302],[7.75086,47.46296]]]}},{"type":"Feature","properties":{"name":"Buckten","cantonId":"basel-landschaft","municipalityId":"buckten-2843"},"geometry":{"type":"Polygon","coordinates":[[[7.83546,47.40369],[7.83438,47.40842],[7.83926,47.40936],[7.84076,47.41179],[7.83896,47.41702],[7.84453,47.42072],[7.85292,47.41764],[7.85822,47.40781],[7.8364,47.40495],[7.83546,47.40369]]]}},{"type":"Feature","properties":{"name":"Burg im Leimental","cantonId":"basel-landschaft","municipalityId":"burg-im-leimental-2783"},"geometry":{"type":"Polygon","coordinates":[[[7.45482,47.44923],[7.4477,47.44941],[7.42543,47.44329],[7.42091,47.44595],[7.42446,47.44992],[7.42242,47.45072],[7.4288,47.45388],[7.42776,47.4573],[7.43003,47.4595],[7.44577,47.46198],[7.44718,47.45696],[7.4542,47.45021],[7.45482,47.44923]]]}},{"type":"Feature","properties":{"name":"Buus","cantonId":"basel-landschaft","municipalityId":"buus-2844"},"geometry":{"type":"Polygon","coordinates":[[[7.84103,47.5064],[7.84171,47.50954],[7.84502,47.50916],[7.84527,47.51297],[7.86136,47.51737],[7.86106,47.52376],[7.864,47.52319],[7.86397,47.51931],[7.86946,47.51933],[7.87538,47.52311],[7.87568,47.5132],[7.87803,47.51389],[7.88409,47.50849],[7.89354,47.50643],[7.89608,47.50037],[7.87054,47.49319],[7.86568,47.48861],[7.85326,47.49046],[7.84603,47.49572],[7.84331,47.50614],[7.84103,47.5064]]]}},{"type":"Feature","properties":{"name":"Diegten","cantonId":"basel-landschaft","municipalityId":"diegten-2884"},"geometry":{"type":"Polygon","coordinates":[[[7.82756,47.42073],[7.82592,47.40281],[7.83218,47.40005],[7.839,47.39284],[7.81538,47.39659],[7.8105,47.39156],[7.79346,47.38962],[7.78981,47.39004],[7.79612,47.39399],[7.79805,47.40561],[7.78944,47.41466],[7.7884,47.42499],[7.79359,47.42669],[7.79985,47.42489],[7.81056,47.42755],[7.82086,47.42183],[7.82925,47.42332],[7.8276,47.42079],[7.82756,47.42073]]]}},{"type":"Feature","properties":{"name":"Diepflingen","cantonId":"basel-landschaft","municipalityId":"diepflingen-2845"},"geometry":{"type":"Polygon","coordinates":[[[7.84728,47.4417],[7.84222,47.43838],[7.83789,47.44048],[7.83137,47.43981],[7.83147,47.44786],[7.84152,47.45158],[7.84914,47.44518],[7.8532,47.44471],[7.84843,47.44193],[7.84728,47.4417]]]}},{"type":"Feature","properties":{"name":"Dittingen","cantonId":"basel-landschaft","municipalityId":"dittingen-2784"},"geometry":{"type":"Polygon","coordinates":[[[7.50554,47.44507],[7.50613,47.44202],[7.51384,47.43559],[7.51111,47.42597],[7.49202,47.4276],[7.48035,47.43095],[7.47946,47.43357],[7.4823,47.4364],[7.4829,47.44237],[7.47832,47.44943],[7.46244,47.45145],[7.48453,47.45722],[7.49288,47.4574],[7.50369,47.44674],[7.50554,47.44507]]]}},{"type":"Feature","properties":{"name":"Duggingen","cantonId":"basel-landschaft","municipalityId":"duggingen-2785"},"geometry":{"type":"Polygon","coordinates":[[[7.61581,47.43275],[7.59394,47.43498],[7.59751,47.43697],[7.59914,47.44137],[7.59772,47.44188],[7.60075,47.44489],[7.5985,47.44401],[7.597,47.44964],[7.60015,47.45658],[7.60469,47.45963],[7.60247,47.46181],[7.6045,47.47045],[7.61104,47.47002],[7.62608,47.46292],[7.62218,47.46196],[7.62261,47.45715],[7.61647,47.44524],[7.61583,47.43335],[7.61581,47.43275]]]}},{"type":"Feature","properties":{"name":"Eptingen","cantonId":"basel-landschaft","municipalityId":"eptingen-2885"},"geometry":{"type":"Polygon","coordinates":[[[7.78981,47.39004],[7.81011,47.39144],[7.81538,47.39659],[7.82629,47.39552],[7.8358,47.39201],[7.83992,47.39263],[7.84377,47.3806],[7.83055,47.36512],[7.80626,47.36232],[7.79876,47.36784],[7.80163,47.37169],[7.79018,47.37716],[7.792,47.3818],[7.78963,47.38969],[7.78981,47.39004]]]}},{"type":"Feature","properties":{"name":"Ettingen","cantonId":"basel-landschaft","municipalityId":"ettingen-2768"},"geometry":{"type":"Polygon","coordinates":[[[7.53667,47.48496],[7.54671,47.48949],[7.56555,47.48537],[7.56084,47.47648],[7.56062,47.46488],[7.55467,47.46058],[7.55449,47.46289],[7.54951,47.46369],[7.53068,47.46119],[7.52745,47.47391],[7.52912,47.47796],[7.53313,47.47829],[7.53633,47.48384],[7.53667,47.48496]]]}},{"type":"Feature","properties":{"name":"Frenkendorf","cantonId":"basel-landschaft","municipalityId":"frenkendorf-2824"},"geometry":{"type":"Polygon","coordinates":[[[7.72265,47.4987],[7.7111,47.49624],[7.69177,47.50005],[7.68554,47.49611],[7.68061,47.49686],[7.67489,47.49425],[7.67414,47.49251],[7.67852,47.49081],[7.66989,47.48548],[7.66672,47.4886],[7.66613,47.49687],[7.67344,47.5024],[7.68609,47.50104],[7.69636,47.50393],[7.71474,47.51226],[7.71829,47.51903],[7.72228,47.49943],[7.72265,47.4987]]]}},{"type":"Feature","properties":{"name":"Füllinsdorf","cantonId":"basel-landschaft","municipalityId":"fuellinsdorf-2825"},"geometry":{"type":"Polygon","coordinates":[[[7.72265,47.4987],[7.71825,47.51917],[7.72407,47.5265],[7.72786,47.52833],[7.73137,47.5256],[7.73094,47.52159],[7.73569,47.51726],[7.74612,47.5185],[7.74631,47.51652],[7.74101,47.51387],[7.74423,47.51057],[7.74404,47.50501],[7.7505,47.50343],[7.74473,47.49775],[7.73728,47.4982],[7.73298,47.5011],[7.72335,47.49907],[7.72265,47.4987]]]}},{"type":"Feature","properties":{"name":"Gelterkinden","cantonId":"basel-landschaft","municipalityId":"gelterkinden-2846"},"geometry":{"type":"Polygon","coordinates":[[[7.86033,47.47889],[7.85892,47.47696],[7.86354,47.46909],[7.86949,47.46511],[7.88005,47.46297],[7.88319,47.45876],[7.87661,47.45565],[7.87537,47.45025],[7.87789,47.44601],[7.87468,47.44586],[7.86536,47.43411],[7.85749,47.43488],[7.84728,47.4417],[7.8532,47.44471],[7.84914,47.44518],[7.84152,47.45158],[7.84108,47.45555],[7.84419,47.45968],[7.84009,47.47049],[7.84106,47.47251],[7.83695,47.47704],[7.85969,47.47884],[7.86033,47.47889]]]}},{"type":"Feature","properties":{"name":"Giebenach","cantonId":"basel-landschaft","municipalityId":"giebenach-2826"},"geometry":{"type":"Polygon","coordinates":[[[7.74612,47.5185],[7.73663,47.51712],[7.73181,47.52052],[7.73142,47.52554],[7.72798,47.52822],[7.73237,47.52867],[7.73403,47.53127],[7.73798,47.52733],[7.74903,47.52499],[7.74595,47.52168],[7.74643,47.5185],[7.74612,47.5185]]]}},{"type":"Feature","properties":{"name":"Grellingen","cantonId":"basel-landschaft","municipalityId":"grellingen-2786"},"geometry":{"type":"Polygon","coordinates":[[[7.59837,47.44509],[7.60075,47.44489],[7.59772,47.44188],[7.59914,47.44137],[7.59751,47.43697],[7.59394,47.43498],[7.60885,47.43271],[7.60216,47.43125],[7.59208,47.43272],[7.58491,47.42863],[7.5793,47.43019],[7.58011,47.43205],[7.57766,47.43244],[7.57843,47.43491],[7.57562,47.43675],[7.56876,47.43784],[7.58387,47.44982],[7.58769,47.44757],[7.59399,47.44851],[7.5976,47.44504],[7.59837,47.44509]]]}},{"type":"Feature","properties":{"name":"Häfelfingen","cantonId":"basel-landschaft","municipalityId":"haefelfingen-2847"},"geometry":{"type":"Polygon","coordinates":[[[7.85873,47.40854],[7.84994,47.42036],[7.85077,47.42176],[7.86356,47.41968],[7.87085,47.42374],[7.86917,47.42711],[7.87764,47.42109],[7.88878,47.40781],[7.88334,47.4061],[7.88429,47.40319],[7.88182,47.40072],[7.86289,47.40705],[7.85873,47.40854]]]}},{"type":"Feature","properties":{"name":"Hemmiken","cantonId":"basel-landschaft","municipalityId":"hemmiken-2848"},"geometry":{"type":"Polygon","coordinates":[[[7.89535,47.50225],[7.89832,47.50121],[7.89958,47.49618],[7.90478,47.49218],[7.90483,47.48491],[7.90066,47.48516],[7.89528,47.4788],[7.88446,47.48088],[7.88032,47.4889],[7.87054,47.49319],[7.89608,47.50037],[7.89535,47.50225]]]}},{"type":"Feature","properties":{"name":"Hersberg","cantonId":"basel-landschaft","municipalityId":"hersberg-2827"},"geometry":{"type":"MultiPolygon","coordinates":[[[[7.78547,47.48254],[7.78213,47.48356],[7.78437,47.48439],[7.78109,47.48573],[7.78116,47.48862],[7.77512,47.48656],[7.77082,47.48851],[7.7825,47.49876],[7.79173,47.50194],[7.79196,47.49852],[7.78663,47.49313],[7.79097,47.49067],[7.78833,47.48847],[7.78525,47.48929],[7.78473,47.4871],[7.79231,47.4829],[7.78573,47.48242],[7.78547,47.48254]]],[[[7.79234,47.50372],[7.79163,47.50317],[7.79159,47.50314],[7.79129,47.50334],[7.79035,47.50418],[7.78981,47.50471],[7.78977,47.50479],[7.78987,47.50509],[7.79147,47.50421],[7.79234,47.50372]]]]}},{"type":"Feature","properties":{"name":"Hölstein","cantonId":"basel-landschaft","municipalityId":"hoelstein-2886"},"geometry":{"type":"Polygon","coordinates":[[[7.791,47.41331],[7.79029,47.41028],[7.7821,47.41203],[7.77752,47.40898],[7.77241,47.41251],[7.7678,47.41409],[7.76403,47.41274],[7.75804,47.41627],[7.76854,47.42784],[7.7634,47.43798],[7.75761,47.44133],[7.76245,47.44244],[7.76402,47.44494],[7.76906,47.44322],[7.77688,47.44428],[7.7768,47.4416],[7.78265,47.43828],[7.78265,47.433],[7.78938,47.42689],[7.78756,47.4227],[7.79132,47.41341],[7.791,47.41331]]]}},{"type":"Feature","properties":{"name":"Itingen","cantonId":"basel-landschaft","municipalityId":"itingen-2849"},"geometry":{"type":"Polygon","coordinates":[[[7.77677,47.47572],[7.77911,47.47519],[7.78217,47.47841],[7.7834,47.4749],[7.7946,47.47348],[7.79288,47.47062],[7.79807,47.46506],[7.79239,47.46123],[7.79168,47.45812],[7.78838,47.45822],[7.78437,47.44944],[7.78033,47.45017],[7.78031,47.45573],[7.77649,47.45796],[7.77514,47.46397],[7.77656,47.47505],[7.77677,47.47572]]]}},{"type":"Feature","properties":{"name":"Känerkinden","cantonId":"basel-landschaft","municipalityId":"kaenerkinden-2850"},"geometry":{"type":"Polygon","coordinates":[[[7.83546,47.40369],[7.83635,47.40203],[7.82592,47.40281],[7.82756,47.42073],[7.83956,47.41794],[7.83873,47.41453],[7.84076,47.41179],[7.83926,47.40936],[7.83438,47.40842],[7.83529,47.40384],[7.83546,47.40369]]]}},{"type":"Feature","properties":{"name":"Kilchberg (BL)","cantonId":"basel-landschaft","municipalityId":"kilchberg-bl-2851"},"geometry":{"type":"Polygon","coordinates":[[[7.89794,47.43648],[7.9016,47.43384],[7.90427,47.42753],[7.91055,47.42482],[7.90136,47.42128],[7.89787,47.42219],[7.89496,47.41989],[7.89559,47.41778],[7.88786,47.41968],[7.88762,47.42441],[7.89144,47.43119],[7.90151,47.43346],[7.8978,47.43637],[7.89794,47.43648]]]}},{"type":"Feature","properties":{"name":"Läufelfingen","cantonId":"basel-landschaft","municipalityId":"laeufelfingen-2852"},"geometry":{"type":"Polygon","coordinates":[[[7.83546,47.40369],[7.85873,47.40854],[7.87981,47.40172],[7.86914,47.39552],[7.87195,47.39125],[7.87944,47.388],[7.87882,47.38351],[7.86266,47.38199],[7.83948,47.37415],[7.84405,47.38128],[7.83992,47.39263],[7.82628,47.40282],[7.83585,47.40335],[7.83546,47.40369]]]}},{"type":"Feature","properties":{"name":"Lampenberg","cantonId":"basel-landschaft","municipalityId":"lampenberg-2887"},"geometry":{"type":"Polygon","coordinates":[[[7.75804,47.41627],[7.73944,47.41537],[7.73752,47.41703],[7.74024,47.42446],[7.74634,47.42887],[7.75041,47.43523],[7.74762,47.43623],[7.75761,47.44133],[7.7634,47.43798],[7.76767,47.43042],[7.76711,47.42427],[7.7583,47.41657],[7.75804,47.41627]]]}},{"type":"Feature","properties":{"name":"Langenbruck","cantonId":"basel-landschaft","municipalityId":"langenbruck-2888"},"geometry":{"type":"Polygon","coordinates":[[[7.77898,47.37681],[7.79138,47.37721],[7.79323,47.37433],[7.80163,47.37169],[7.79876,47.36784],[7.80626,47.36232],[7.80217,47.3611],[7.79637,47.35347],[7.79357,47.33905],[7.78529,47.33788],[7.78239,47.33957],[7.76897,47.33892],[7.76923,47.34145],[7.76643,47.34274],[7.75153,47.34433],[7.73416,47.35776],[7.72901,47.36683],[7.759,47.36801],[7.77845,47.37682],[7.77898,47.37681]]]}},{"type":"Feature","properties":{"name":"Laufen","cantonId":"basel-landschaft","municipalityId":"laufen-2787"},"geometry":{"type":"Polygon","coordinates":[[[7.52234,47.414],[7.49901,47.40141],[7.49662,47.39551],[7.48957,47.39048],[7.49233,47.38524],[7.47877,47.39008],[7.47738,47.40121],[7.47134,47.40037],[7.46448,47.40255],[7.45989,47.40108],[7.45836,47.41156],[7.45618,47.41355],[7.46464,47.41294],[7.4762,47.41821],[7.48487,47.41322],[7.48268,47.42026],[7.48489,47.42291],[7.48488,47.4293],[7.5231,47.42369],[7.51304,47.41975],[7.52231,47.41404],[7.52234,47.414]]]}},{"type":"Feature","properties":{"name":"Lausen","cantonId":"basel-landschaft","municipalityId":"lausen-2828"},"geometry":{"type":"Polygon","coordinates":[[[7.77677,47.47572],[7.77514,47.46397],[7.77858,47.45677],[7.7697,47.45541],[7.76816,47.45742],[7.75976,47.45581],[7.75505,47.4578],[7.75411,47.46175],[7.75086,47.46296],[7.75427,47.46613],[7.74813,47.46908],[7.74734,47.47169],[7.75309,47.47709],[7.7539,47.48054],[7.753,47.47805],[7.76017,47.48167],[7.76586,47.4807],[7.77128,47.48659],[7.78547,47.48254],[7.77709,47.47629],[7.77677,47.47572]]]}},{"type":"Feature","properties":{"name":"Lauwil","cantonId":"basel-landschaft","municipalityId":"lauwil-2889"},"geometry":{"type":"Polygon","coordinates":[[[7.64105,47.37829],[7.64177,47.38047],[7.65717,47.38162],[7.66331,47.38421],[7.66403,47.38573],[7.66074,47.38702],[7.66704,47.3955],[7.6666,47.39872],[7.68505,47.39307],[7.68535,47.38716],[7.68801,47.38373],[7.68755,47.37118],[7.64421,47.36721],[7.64139,47.37819],[7.64105,47.37829]]]}},{"type":"Feature","properties":{"name":"Liedertswil","cantonId":"basel-landschaft","municipalityId":"liedertswil-2890"},"geometry":{"type":"Polygon","coordinates":[[[7.72916,47.39714],[7.73236,47.39183],[7.7285,47.38727],[7.72394,47.38739],[7.72448,47.38522],[7.7276,47.3848],[7.71898,47.3834],[7.72056,47.38141],[7.71693,47.37984],[7.71829,47.37826],[7.71225,47.37884],[7.71116,47.38952],[7.70688,47.39289],[7.7115,47.39207],[7.72826,47.39641],[7.72916,47.39714]]]}},{"type":"Feature","properties":{"name":"Liesberg","cantonId":"basel-landschaft","municipalityId":"liesberg-2788"},"geometry":{"type":"Polygon","coordinates":[[[7.43733,47.38089],[7.43368,47.37943],[7.41167,47.38059],[7.41628,47.38481],[7.41366,47.38943],[7.4146,47.39422],[7.39894,47.39684],[7.39593,47.40339],[7.3887,47.40302],[7.38406,47.41236],[7.37595,47.4141],[7.41371,47.41093],[7.42075,47.4111],[7.42749,47.41448],[7.45681,47.41344],[7.45989,47.40108],[7.45463,47.4042],[7.44972,47.40363],[7.45085,47.40109],[7.44905,47.39963],[7.44295,47.402],[7.44134,47.39819],[7.44362,47.38897],[7.43904,47.38602],[7.43795,47.38176],[7.43733,47.38089]]]}},{"type":"Feature","properties":{"name":"Liestal","cantonId":"basel-landschaft","municipalityId":"liestal-2829"},"geometry":{"type":"Polygon","coordinates":[[[7.72265,47.4987],[7.73298,47.5011],[7.73728,47.4982],[7.74473,47.49775],[7.7505,47.50343],[7.75479,47.50141],[7.75622,47.49523],[7.75906,47.4951],[7.76181,47.49149],[7.77158,47.49052],[7.77082,47.48851],[7.77512,47.48656],[7.78116,47.48862],[7.78109,47.48573],[7.78437,47.48439],[7.78213,47.48356],[7.77128,47.48659],[7.76586,47.4807],[7.76017,47.48167],[7.753,47.47805],[7.7539,47.48054],[7.74717,47.47114],[7.75427,47.46613],[7.75086,47.46296],[7.72573,47.47046],[7.70983,47.46948],[7.69977,47.48064],[7.66989,47.48548],[7.67852,47.49081],[7.67414,47.49251],[7.67489,47.49425],[7.68061,47.49686],[7.68554,47.49611],[7.69177,47.50005],[7.7111,47.49624],[7.72259,47.49874],[7.72265,47.4987]]]}},{"type":"Feature","properties":{"name":"Lupsingen","cantonId":"basel-landschaft","municipalityId":"lupsingen-2830"},"geometry":{"type":"Polygon","coordinates":[[[7.69863,47.45569],[7.70516,47.45551],[7.71587,47.45112],[7.70163,47.44403],[7.6847,47.42867],[7.68659,47.43367],[7.68298,47.43873],[7.68486,47.44785],[7.69219,47.45417],[7.69825,47.45535],[7.69863,47.45569]]]}},{"type":"Feature","properties":{"name":"Maisprach","cantonId":"basel-landschaft","municipalityId":"maisprach-2853"},"geometry":{"type":"Polygon","coordinates":[[[7.84103,47.5064],[7.83275,47.50869],[7.83424,47.51101],[7.83179,47.51271],[7.83323,47.53033],[7.8353,47.53176],[7.83322,47.53383],[7.84654,47.53266],[7.85234,47.53524],[7.85732,47.53321],[7.86338,47.52362],[7.86106,47.52376],[7.86136,47.51737],[7.84527,47.51297],[7.84502,47.50916],[7.84171,47.50954],[7.84107,47.50653],[7.84103,47.5064]]]}},{"type":"Feature","properties":{"name":"Münchenstein","cantonId":"basel-landschaft","municipalityId":"muenchenstein-2769"},"geometry":{"type":"Polygon","coordinates":[[[7.59479,47.5193],[7.61358,47.53913],[7.62231,47.53978],[7.62196,47.52291],[7.62987,47.51907],[7.63118,47.51492],[7.646,47.5054],[7.64725,47.49929],[7.63871,47.5036],[7.61195,47.50962],[7.60763,47.50417],[7.60385,47.50572],[7.60693,47.50962],[7.60459,47.50996],[7.60477,47.51295],[7.59172,47.51499],[7.59217,47.51811],[7.59462,47.51888],[7.59479,47.5193]]]}},{"type":"Feature","properties":{"name":"Muttenz","cantonId":"basel-landschaft","municipalityId":"muttenz-2770"},"geometry":{"type":"Polygon","coordinates":[[[7.66613,47.49687],[7.65069,47.49458],[7.646,47.5054],[7.63118,47.51492],[7.62987,47.51907],[7.62196,47.52291],[7.6225,47.54243],[7.62742,47.54072],[7.63187,47.55067],[7.64592,47.55168],[7.65091,47.54736],[7.66093,47.54517],[7.66565,47.53767],[7.67513,47.5337],[7.67078,47.52235],[7.67095,47.51297],[7.67406,47.50705],[7.67107,47.50628],[7.66663,47.4975],[7.66613,47.49687]]]}},{"type":"Feature","properties":{"name":"Nenzlingen","cantonId":"basel-landschaft","municipalityId":"nenzlingen-2789"},"geometry":{"type":"Polygon","coordinates":[[[7.57775,47.44479],[7.56869,47.43754],[7.55532,47.44392],[7.54893,47.44384],[7.54987,47.44551],[7.54566,47.45124],[7.54744,47.45518],[7.54517,47.45754],[7.54661,47.45953],[7.55467,47.46058],[7.55742,47.45719],[7.578,47.45033],[7.57737,47.44502],[7.57775,47.44479]]]}},{"type":"Feature","properties":{"name":"Niederdorf","cantonId":"basel-landschaft","municipalityId":"niederdorf-2891"},"geometry":{"type":"Polygon","coordinates":[[[7.73179,47.40636],[7.73039,47.4092],[7.73303,47.4106],[7.7347,47.41842],[7.72847,47.42177],[7.73504,47.42821],[7.73944,47.42763],[7.73752,47.41703],[7.73944,47.41537],[7.75804,47.41627],[7.76964,47.41211],[7.76722,47.39708],[7.75978,47.39866],[7.76501,47.40102],[7.76755,47.40559],[7.76046,47.40722],[7.75473,47.4052],[7.74958,47.40007],[7.74871,47.40541],[7.73682,47.40487],[7.74133,47.39948],[7.73977,47.39867],[7.73339,47.40173],[7.73232,47.40481],[7.73179,47.40636]]]}},{"type":"Feature","properties":{"name":"Nusshof","cantonId":"basel-landschaft","municipalityId":"nusshof-2854"},"geometry":{"type":"Polygon","coordinates":[[[7.79979,47.49804],[7.8088,47.49677],[7.81097,47.49149],[7.79177,47.48406],[7.78622,47.48556],[7.78525,47.48929],[7.78833,47.48847],[7.79102,47.4908],[7.78788,47.49322],[7.7936,47.49608],[7.7989,47.49566],[7.79679,47.49733],[7.79817,47.4994],[7.79954,47.49766],[7.79979,47.49804]]]}},{"type":"Feature","properties":{"name":"Oberdorf (BL)","cantonId":"basel-landschaft","municipalityId":"oberdorf-bl-2892"},"geometry":{"type":"Polygon","coordinates":[[[7.77898,47.37681],[7.76987,47.37845],[7.77097,47.38079],[7.76921,47.38246],[7.75014,47.38631],[7.74926,47.38838],[7.73971,47.38815],[7.73903,47.38469],[7.72448,47.38522],[7.72394,47.38739],[7.7285,47.38727],[7.73236,47.39183],[7.72916,47.39714],[7.73082,47.39835],[7.7352,47.40101],[7.74133,47.39948],[7.73682,47.40487],[7.74871,47.40541],[7.74958,47.40007],[7.75473,47.4052],[7.76046,47.40722],[7.76755,47.40559],[7.76501,47.40102],[7.75978,47.39866],[7.76722,47.39708],[7.76952,47.38864],[7.77916,47.37919],[7.77898,47.37681]]]}},{"type":"Feature","properties":{"name":"Oberwil (BL)","cantonId":"basel-landschaft","municipalityId":"oberwil-bl-2771"},"geometry":{"type":"Polygon","coordinates":[[[7.5365,47.50506],[7.53571,47.514],[7.52373,47.51534],[7.52346,47.51868],[7.53094,47.52684],[7.53604,47.52944],[7.53934,47.52788],[7.54688,47.53146],[7.54779,47.53399],[7.56234,47.52574],[7.56117,47.52367],[7.5636,47.52365],[7.57499,47.5131],[7.58368,47.51001],[7.58299,47.50778],[7.53655,47.50504],[7.5365,47.50506]]]}},{"type":"Feature","properties":{"name":"Oltingen","cantonId":"basel-landschaft","municipalityId":"oltingen-2855"},"geometry":{"type":"Polygon","coordinates":[[[7.94679,47.4432],[7.95195,47.43279],[7.95004,47.43172],[7.96184,47.42184],[7.95658,47.41968],[7.95505,47.41561],[7.94063,47.4141],[7.94107,47.41695],[7.9331,47.42124],[7.91613,47.42011],[7.91483,47.42344],[7.92102,47.43097],[7.9241,47.43142],[7.92216,47.43204],[7.92435,47.4326],[7.92304,47.43785],[7.92538,47.43848],[7.92195,47.44147],[7.92418,47.44446],[7.92206,47.44467],[7.92196,47.45036],[7.92801,47.45],[7.92903,47.44583],[7.93419,47.44128],[7.93476,47.44297],[7.94439,47.44332],[7.94679,47.4432]]]}},{"type":"Feature","properties":{"name":"Ormalingen","cantonId":"basel-landschaft","municipalityId":"ormalingen-2856"},"geometry":{"type":"Polygon","coordinates":[[[7.86033,47.47889],[7.86964,47.49273],[7.87858,47.49032],[7.88446,47.48088],[7.89528,47.4788],[7.89368,47.47533],[7.8902,47.47453],[7.88982,47.46971],[7.89667,47.45434],[7.89998,47.45372],[7.89052,47.44994],[7.88012,47.46293],[7.86773,47.46591],[7.8605,47.47241],[7.86116,47.47492],[7.85892,47.47696],[7.86033,47.47889]]]}},{"type":"Feature","properties":{"name":"Pfeffingen","cantonId":"basel-landschaft","municipalityId":"pfeffingen-2772"},"geometry":{"type":"Polygon","coordinates":[[[7.55467,47.46058],[7.56058,47.46478],[7.55963,47.46724],[7.59775,47.4607],[7.60336,47.46282],[7.60469,47.45963],[7.60015,47.45658],[7.597,47.44964],[7.59837,47.44509],[7.59399,47.44851],[7.58769,47.44757],[7.58387,47.44982],[7.57775,47.44479],[7.578,47.45033],[7.55669,47.45808],[7.55467,47.46058]]]}},{"type":"Feature","properties":{"name":"Pratteln","cantonId":"basel-landschaft","municipalityId":"pratteln-2831"},"geometry":{"type":"Polygon","coordinates":[[[7.66613,47.49687],[7.67107,47.50628],[7.67406,47.50705],[7.67095,47.51297],[7.67078,47.52235],[7.67513,47.5337],[7.6923,47.53128],[7.71404,47.53519],[7.72065,47.52215],[7.71474,47.51226],[7.68952,47.50171],[7.67344,47.5024],[7.66742,47.49721],[7.66613,47.49687]]]}},{"type":"Feature","properties":{"name":"Ramlinsburg","cantonId":"basel-landschaft","municipalityId":"ramlinsburg-2832"},"geometry":{"type":"Polygon","coordinates":[[[7.75976,47.45581],[7.76641,47.45764],[7.7697,47.45541],[7.78031,47.45573],[7.78033,47.45017],[7.77667,47.44847],[7.77688,47.44428],[7.76906,47.44322],[7.76402,47.44494],[7.76245,47.44244],[7.75761,47.44133],[7.75959,47.4451],[7.75537,47.44874],[7.75949,47.45538],[7.75976,47.45581]]]}},{"type":"Feature","properties":{"name":"Reigoldswil","cantonId":"basel-landschaft","municipalityId":"reigoldswil-2893"},"geometry":{"type":"Polygon","coordinates":[[[7.66304,47.40992],[7.6793,47.41556],[7.69051,47.41528],[7.69767,47.41257],[7.69687,47.40477],[7.70554,47.3981],[7.70688,47.39289],[7.71116,47.38952],[7.71225,47.37884],[7.70288,47.37773],[7.69872,47.37388],[7.70037,47.37231],[7.68755,47.37118],[7.68801,47.38373],[7.68535,47.38716],[7.68505,47.39307],[7.6666,47.39872],[7.67081,47.40162],[7.66945,47.40567],[7.66337,47.40977],[7.66304,47.40992]]]}},{"type":"Feature","properties":{"name":"Reinach (BL)","cantonId":"basel-landschaft","municipalityId":"reinach-bl-2773"},"geometry":{"type":"Polygon","coordinates":[[[7.5673,47.48509],[7.57362,47.49172],[7.57324,47.49404],[7.59071,47.50152],[7.59229,47.50723],[7.58299,47.50778],[7.58368,47.51001],[7.58137,47.51075],[7.58458,47.51174],[7.58656,47.52017],[7.59004,47.52042],[7.59479,47.5193],[7.59217,47.51811],[7.59172,47.51499],[7.60477,47.51295],[7.60459,47.50996],[7.60688,47.50982],[7.60385,47.50572],[7.60763,47.50417],[7.6074,47.48833],[7.59402,47.48321],[7.57666,47.48076],[7.56751,47.48505],[7.5673,47.48509]]]}},{"type":"Feature","properties":{"name":"Rickenbach (BL)","cantonId":"basel-landschaft","municipalityId":"rickenbach-bl-2857"},"geometry":{"type":"Polygon","coordinates":[[[7.83695,47.47704],[7.83299,47.48175],[7.84251,47.48964],[7.84603,47.49572],[7.85326,47.49046],[7.86568,47.48861],[7.86033,47.47889],[7.83701,47.47705],[7.83695,47.47704]]]}},{"type":"Feature","properties":{"name":"Röschenz","cantonId":"basel-landschaft","municipalityId":"roeschenz-2791"},"geometry":{"type":"Polygon","coordinates":[[[7.45482,47.44923],[7.46244,47.45145],[7.47858,47.44913],[7.4829,47.44237],[7.47947,47.43249],[7.48488,47.4293],[7.48489,47.42291],[7.48268,47.42026],[7.48487,47.41322],[7.4762,47.41821],[7.46464,47.41294],[7.45407,47.41315],[7.4475,47.41449],[7.45559,47.42792],[7.44842,47.43773],[7.43785,47.44633],[7.45292,47.44935],[7.45482,47.44923]]]}},{"type":"Feature","properties":{"name":"Roggenburg","cantonId":"basel-landschaft","municipalityId":"roggenburg-2790"},"geometry":{"type":"Polygon","coordinates":[[[7.36309,47.41469],[7.3573,47.41501],[7.358,47.41816],[7.34418,47.42442],[7.34001,47.42978],[7.32621,47.43206],[7.32524,47.43498],[7.3283,47.44095],[7.3387,47.44121],[7.34707,47.4355],[7.37384,47.43384],[7.38281,47.43117],[7.37964,47.4276],[7.37595,47.4141],[7.36529,47.41439],[7.36309,47.41469]]]}},{"type":"Feature","properties":{"name":"Rothenfluh","cantonId":"basel-landschaft","municipalityId":"rothenfluh-2858"},"geometry":{"type":"Polygon","coordinates":[[[7.89528,47.4788],[7.90066,47.48516],[7.9333,47.48141],[7.9461,47.48543],[7.94086,47.46376],[7.93856,47.46038],[7.93042,47.45884],[7.92881,47.45387],[7.9226,47.45064],[7.90971,47.45855],[7.90234,47.45896],[7.90243,47.45706],[7.892,47.46369],[7.88966,47.47252],[7.89494,47.4779],[7.89528,47.4788]]]}},{"type":"Feature","properties":{"name":"Rümlingen","cantonId":"basel-landschaft","municipalityId":"ruemlingen-2859"},"geometry":{"type":"Polygon","coordinates":[[[7.86916,47.42711],[7.87085,47.42374],[7.86356,47.41968],[7.84453,47.42072],[7.84723,47.4269],[7.84636,47.43012],[7.84946,47.42964],[7.85229,47.43558],[7.85037,47.43656],[7.85131,47.43871],[7.86914,47.42713],[7.86916,47.42711]]]}},{"type":"Feature","properties":{"name":"Rünenberg","cantonId":"basel-landschaft","municipalityId":"ruenenberg-2860"},"geometry":{"type":"Polygon","coordinates":[[[7.89794,47.43648],[7.90151,47.43346],[7.89144,47.43119],[7.88762,47.42441],[7.88902,47.42037],[7.88554,47.4153],[7.88715,47.41399],[7.88481,47.41336],[7.88212,47.4137],[7.87518,47.42312],[7.86496,47.429],[7.85919,47.4344],[7.86536,47.43411],[7.87468,47.44586],[7.87829,47.44745],[7.892,47.43753],[7.89783,47.43658],[7.89794,47.43648]]]}},{"type":"Feature","properties":{"name":"Schönenbuch","cantonId":"basel-landschaft","municipalityId":"schoenenbuch-2774"},"geometry":{"type":"Polygon","coordinates":[[[7.50417,47.54315],[7.50868,47.54273],[7.5091,47.53823],[7.51579,47.53294],[7.50821,47.52817],[7.50102,47.52906],[7.50144,47.53218],[7.49804,47.53616],[7.49918,47.54012],[7.50418,47.54313],[7.50417,47.54315]]]}},{"type":"Feature","properties":{"name":"Seltisberg","cantonId":"basel-landschaft","municipalityId":"seltisberg-2833"},"geometry":{"type":"Polygon","coordinates":[[[7.69863,47.45569],[7.69993,47.46193],[7.70853,47.46951],[7.72573,47.47046],[7.73646,47.46667],[7.73285,47.46617],[7.71587,47.45112],[7.70516,47.45551],[7.69884,47.45548],[7.69863,47.45569]]]}},{"type":"Feature","properties":{"name":"Sissach","cantonId":"basel-landschaft","municipalityId":"sissach-2861"},"geometry":{"type":"Polygon","coordinates":[[[7.77677,47.47572],[7.78547,47.48254],[7.79231,47.4829],[7.79766,47.48784],[7.80565,47.48852],[7.82193,47.48166],[7.8326,47.48246],[7.8343,47.47967],[7.82599,47.47372],[7.82717,47.46885],[7.82,47.45643],[7.8148,47.45349],[7.80363,47.45871],[7.79593,47.45839],[7.79145,47.45736],[7.78546,47.45081],[7.78838,47.45822],[7.79168,47.45812],[7.79239,47.46123],[7.79837,47.46607],[7.79288,47.47062],[7.7946,47.47348],[7.7834,47.4749],[7.78217,47.47841],[7.77753,47.47554],[7.77677,47.47572]]]}},{"type":"Feature","properties":{"name":"Tecknau","cantonId":"basel-landschaft","municipalityId":"tecknau-2862"},"geometry":{"type":"Polygon","coordinates":[[[7.89794,47.43648],[7.892,47.43753],[7.87537,47.45025],[7.87661,47.45565],[7.88319,47.45876],[7.89242,47.44732],[7.90452,47.44383],[7.89404,47.44208],[7.90373,47.43773],[7.90837,47.43134],[7.90582,47.43089],[7.90548,47.42742],[7.89804,47.43647],[7.89794,47.43648]]]}},{"type":"Feature","properties":{"name":"Tenniken","cantonId":"basel-landschaft","municipalityId":"tenniken-2863"},"geometry":{"type":"Polygon","coordinates":[[[7.82866,47.44195],[7.83137,47.43981],[7.83172,47.43513],[7.83065,47.42973],[7.82784,47.42729],[7.82958,47.42347],[7.82086,47.42183],[7.81056,47.42755],[7.79985,47.42489],[7.78917,47.42582],[7.78733,47.42833],[7.79499,47.4295],[7.80108,47.43651],[7.80881,47.43979],[7.8113,47.44386],[7.81207,47.44206],[7.8268,47.443],[7.82774,47.44135],[7.82866,47.44195]]]}},{"type":"Feature","properties":{"name":"Therwil","cantonId":"basel-landschaft","municipalityId":"therwil-2775"},"geometry":{"type":"Polygon","coordinates":[[[7.5673,47.48509],[7.55722,47.48581],[7.54671,47.48949],[7.53598,47.48524],[7.53624,47.49106],[7.53261,47.49097],[7.5332,47.50345],[7.53681,47.50525],[7.59229,47.50723],[7.59068,47.50149],[7.57542,47.49554],[7.57101,47.48907],[7.5673,47.48509]]]}},{"type":"Feature","properties":{"name":"Thürnen","cantonId":"basel-landschaft","municipalityId":"thuernen-2864"},"geometry":{"type":"Polygon","coordinates":[[[7.82866,47.44195],[7.82775,47.44501],[7.8148,47.45349],[7.82455,47.46199],[7.84167,47.45674],[7.84152,47.45158],[7.83147,47.44786],[7.83015,47.44077],[7.82866,47.44195]]]}},{"type":"Feature","properties":{"name":"Titterten","cantonId":"basel-landschaft","municipalityId":"titterten-2894"},"geometry":{"type":"Polygon","coordinates":[[[7.73179,47.40636],[7.73514,47.40065],[7.72826,47.39641],[7.7115,47.39207],[7.70688,47.39289],[7.70554,47.3981],[7.69687,47.40477],[7.69648,47.4092],[7.70428,47.41062],[7.70945,47.40985],[7.7107,47.40753],[7.71711,47.40715],[7.71977,47.40906],[7.7312,47.40659],[7.73179,47.40636]]]}},{"type":"Feature","properties":{"name":"Wahlen","cantonId":"basel-landschaft","municipalityId":"wahlen-2792"},"geometry":{"type":"Polygon","coordinates":[[[7.52234,47.414],[7.53118,47.40353],[7.51862,47.38823],[7.5113,47.38975],[7.50306,47.38502],[7.49775,47.38453],[7.49233,47.38524],[7.48957,47.39048],[7.49662,47.39551],[7.49901,47.40141],[7.52194,47.4138],[7.52234,47.414]]]}},{"type":"Feature","properties":{"name":"Waldenburg","cantonId":"basel-landschaft","municipalityId":"waldenburg-2895"},"geometry":{"type":"Polygon","coordinates":[[[7.72773,47.38497],[7.73903,47.38469],[7.73971,47.38815],[7.74926,47.38838],[7.75014,47.38631],[7.76921,47.38246],[7.77097,47.38079],[7.76987,47.37845],[7.77567,47.377],[7.759,47.36801],[7.72901,47.36683],[7.72792,47.36886],[7.69872,47.37388],[7.70582,47.37906],[7.71829,47.37826],[7.71693,47.37984],[7.72056,47.38141],[7.71898,47.3834],[7.7276,47.3848],[7.72773,47.38497]]]}},{"type":"Feature","properties":{"name":"Wenslingen","cantonId":"basel-landschaft","municipalityId":"wenslingen-2865"},"geometry":{"type":"Polygon","coordinates":[[[7.90548,47.42742],[7.90582,47.43089],[7.90837,47.43134],[7.90373,47.43773],[7.89404,47.44208],[7.90452,47.44383],[7.89683,47.44498],[7.89052,47.44994],[7.89998,47.45372],[7.89667,47.45434],[7.89399,47.46199],[7.90243,47.45706],[7.90234,47.45896],[7.90935,47.4587],[7.92267,47.45131],[7.92206,47.44467],[7.92418,47.44446],[7.92195,47.44147],[7.92538,47.43848],[7.92304,47.43785],[7.92435,47.4326],[7.92216,47.43204],[7.9241,47.43142],[7.92102,47.43097],[7.91483,47.42344],[7.90669,47.42613],[7.90548,47.42742]]]}},{"type":"Feature","properties":{"name":"Wintersingen","cantonId":"basel-landschaft","municipalityId":"wintersingen-2866"},"geometry":{"type":"Polygon","coordinates":[[[7.84103,47.5064],[7.84338,47.5061],[7.84643,47.49709],[7.84251,47.48964],[7.83299,47.48175],[7.81857,47.48255],[7.80604,47.48843],[7.81097,47.49149],[7.8084,47.49819],[7.8287,47.51404],[7.83198,47.51474],[7.83437,47.50762],[7.84089,47.50645],[7.84103,47.5064]]]}},{"type":"Feature","properties":{"name":"Wittinsburg","cantonId":"basel-landschaft","municipalityId":"wittinsburg-2867"},"geometry":{"type":"Polygon","coordinates":[[[7.82756,47.42073],[7.82967,47.42368],[7.82784,47.42729],[7.83153,47.43222],[7.83137,47.43981],[7.83789,47.44048],[7.84222,47.43838],[7.84728,47.4417],[7.85233,47.43579],[7.84946,47.42964],[7.84636,47.43012],[7.84723,47.4269],[7.84415,47.41921],[7.83956,47.41794],[7.82769,47.4207],[7.82756,47.42073]]]}},{"type":"Feature","properties":{"name":"Zeglingen","cantonId":"basel-landschaft","municipalityId":"zeglingen-2868"},"geometry":{"type":"Polygon","coordinates":[[[7.88786,47.41968],[7.89559,47.41778],[7.89496,47.41989],[7.89787,47.42219],[7.90136,47.42128],[7.91265,47.42475],[7.91613,47.42011],[7.93249,47.42146],[7.94207,47.41561],[7.93494,47.41177],[7.93673,47.40806],[7.93267,47.40528],[7.90974,47.39852],[7.88857,47.40727],[7.88212,47.4137],[7.88715,47.41399],[7.88651,47.41772],[7.88786,47.41968]]]}},{"type":"Feature","properties":{"name":"Ziefen","cantonId":"basel-landschaft","municipalityId":"ziefen-2834"},"geometry":{"type":"Polygon","coordinates":[[[7.72276,47.42644],[7.71857,47.42188],[7.70915,47.42053],[7.69767,47.41257],[7.68858,47.41556],[7.67385,47.41506],[7.67981,47.41752],[7.6847,47.42867],[7.69189,47.43641],[7.70163,47.44403],[7.7098,47.44732],[7.71904,47.44225],[7.72277,47.43732],[7.72279,47.4274],[7.72276,47.42644]]]}},{"type":"Feature","properties":{"name":"Zunzgen","cantonId":"basel-landschaft","municipalityId":"zunzgen-2869"},"geometry":{"type":"Polygon","coordinates":[[[7.78546,47.45081],[7.79145,47.45736],[7.80363,47.45871],[7.81895,47.45123],[7.82775,47.44501],[7.82874,47.44203],[7.81207,47.44206],[7.8113,47.44386],[7.80881,47.43979],[7.80108,47.43651],[7.79499,47.4295],[7.78733,47.42833],[7.78265,47.433],[7.78265,47.43828],[7.77628,47.44254],[7.77667,47.44847],[7.78437,47.44944],[7.78546,47.45081]]]}},{"type":"Feature","properties":{"name":"Zwingen","cantonId":"basel-landschaft","municipalityId":"zwingen-2793"},"geometry":{"type":"Polygon","coordinates":[[[7.50554,47.44507],[7.51626,47.44103],[7.54063,47.44496],[7.54657,47.44796],[7.54987,47.44551],[7.54536,47.44042],[7.54932,47.43765],[7.5231,47.42369],[7.51101,47.42584],[7.51384,47.43559],[7.50571,47.44418],[7.50554,47.44507]]]}}]}
