{"type":"FeatureCollection","features":[{"type":"Feature","properties":{"name":"Attalens","cantonId":"fribourg","municipalityId":"attalens-2321"},"geometry":{"type":"Polygon","coordinates":[[[6.86101,46.5307],[6.86692,46.54048],[6.86681,46.53686],[6.87504,46.5376],[6.87331,46.51989],[6.88167,46.51257],[6.86634,46.50079],[6.86276,46.49385],[6.8489,46.49337],[6.84554,46.49667],[6.84173,46.49675],[6.83239,46.50544],[6.83034,46.51247],[6.84062,46.51618],[6.84193,46.51985],[6.85038,46.51692],[6.86174,46.51945],[6.8598,46.52388],[6.85681,46.52473],[6.86085,46.52983],[6.86101,46.5307]]]}},{"type":"Feature","properties":{"name":"Autigny","cantonId":"fribourg","municipalityId":"autigny-2173"},"geometry":{"type":"Polygon","coordinates":[[[7.00658,46.73278],[7.01242,46.73473],[7.01104,46.73677],[7.0128,46.73817],[7.00773,46.74785],[7.00274,46.75188],[7.0059,46.75478],[7.01552,46.75463],[7.02051,46.74937],[7.02197,46.7441],[7.0436,46.74396],[7.05488,46.74818],[7.05722,46.74502],[7.05432,46.74253],[7.05302,46.73613],[7.04912,46.73357],[7.04371,46.73502],[7.03796,46.72989],[7.02622,46.731],[7.00661,46.72794],[7.00533,46.72999],[7.00918,46.73148],[7.00658,46.73277],[7.00658,46.73278]]]}},{"type":"Feature","properties":{"name":"Avry","cantonId":"fribourg","municipalityId":"avry-2174"},"geometry":{"type":"Polygon","coordinates":[[[7.06961,46.77813],[7.05861,46.77689],[7.05258,46.78151],[7.04163,46.77904],[7.04223,46.78214],[7.03898,46.78158],[7.03591,46.78532],[7.03808,46.78735],[7.03791,46.79448],[7.05497,46.79315],[7.06617,46.79679],[7.07207,46.80108],[7.0806,46.80264],[7.07904,46.79917],[7.07518,46.7979],[7.08328,46.78745],[7.07324,46.78334],[7.07262,46.77955],[7.0696,46.77822],[7.06961,46.77813]]]}},{"type":"Feature","properties":{"name":"Bas-Intyamon","cantonId":"fribourg","municipalityId":"bas-intyamon-2162"},"geometry":{"type":"Polygon","coordinates":[[[7.16188,46.59097],[7.16105,46.58686],[7.16372,46.58276],[7.14957,46.56316],[7.15656,46.55704],[7.15465,46.55567],[7.16686,46.54723],[7.14698,46.53436],[7.14072,46.53621],[7.14468,46.54262],[7.13116,46.54069],[7.12703,46.54632],[7.12242,46.54568],[7.11089,46.55127],[7.10122,46.55299],[7.10271,46.55474],[7.10002,46.55667],[7.09406,46.55581],[7.08723,46.55865],[7.0812,46.55308],[7.07785,46.54546],[7.06788,46.53597],[7.05232,46.53744],[7.04528,46.54151],[7.03818,46.5404],[7.03416,46.5438],[7.04148,46.54885],[7.03712,46.55264],[7.04406,46.55634],[7.04107,46.56042],[7.04784,46.56761],[7.05131,46.56691],[7.05828,46.57137],[7.08156,46.57657],[7.09353,46.57333],[7.09583,46.57545],[7.10383,46.57621],[7.11009,46.58059],[7.14074,46.58486],[7.16046,46.59043],[7.16188,46.59097]]]}},{"type":"Feature","properties":{"name":"Belfaux","cantonId":"fribourg","municipalityId":"belfaux-2175"},"geometry":{"type":"Polygon","coordinates":[[[7.11216,46.81553],[7.08588,46.81392],[7.08306,46.81025],[7.06504,46.80862],[7.06166,46.81433],[7.06923,46.81746],[7.06809,46.82023],[7.06978,46.82283],[7.08521,46.82921],[7.07395,46.8426],[7.08523,46.84875],[7.09463,46.84499],[7.09366,46.84281],[7.09807,46.84285],[7.09675,46.8418],[7.0987,46.83909],[7.09445,46.83697],[7.09471,46.8343],[7.09906,46.83516],[7.10513,46.8262],[7.1121,46.82776],[7.12006,46.8219],[7.11332,46.81592],[7.11216,46.81553]]]}},{"type":"Feature","properties":{"name":"Belmont-Broye","cantonId":"fribourg","municipalityId":"belmont-broye-2053"},"geometry":{"type":"Polygon","coordinates":[[[7.05516,46.8503],[7.05088,46.84211],[7.05398,46.83945],[7.05034,46.83063],[7.04091,46.8289],[7.03694,46.82449],[7.02895,46.82224],[7.02884,46.82026],[7.02547,46.81945],[7.02794,46.81881],[7.01416,46.81665],[7.00632,46.82186],[7.00431,46.8209],[7.00333,46.82471],[7.00502,46.82568],[7.00134,46.8291],[6.99857,46.82858],[7.00003,46.82984],[6.99643,46.83057],[6.99716,46.8324],[6.99382,46.83292],[6.99237,46.8304],[6.99236,46.83317],[6.98614,46.83472],[6.98699,46.83718],[6.98307,46.83983],[6.98599,46.84007],[6.98866,46.84358],[6.98442,46.84672],[6.98148,46.84571],[6.97758,46.84987],[6.97932,46.85327],[6.97781,46.85496],[6.98058,46.85802],[6.97694,46.86053],[6.97923,46.86577],[6.9889,46.87346],[6.98611,46.87626],[6.98909,46.8782],[6.99198,46.87591],[6.99495,46.87807],[6.99933,46.87433],[7.00804,46.87309],[7.01529,46.87681],[7.0162,46.88078],[7.02129,46.87668],[7.02518,46.8778],[7.03218,46.87586],[7.03578,46.873],[7.02989,46.86617],[7.03967,46.8606],[7.02971,46.85268],[7.03051,46.84904],[7.03706,46.84558],[7.03959,46.8483],[7.04292,46.84689],[7.04908,46.85487],[7.05545,46.85242],[7.0551,46.85031],[7.05516,46.8503]]]}},{"type":"Feature","properties":{"name":"Billens-Hennens","cantonId":"fribourg","municipalityId":"billens-hennens-2063"},"geometry":{"type":"Polygon","coordinates":[[[6.86463,46.67639],[6.86269,46.68095],[6.86533,46.68127],[6.86642,46.68457],[6.8685,46.68574],[6.87312,46.68332],[6.88101,46.69005],[6.88959,46.69388],[6.89347,46.69986],[6.89932,46.69886],[6.90914,46.69302],[6.90513,46.69077],[6.90326,46.68557],[6.90106,46.68592],[6.89514,46.67919],[6.88692,46.67458],[6.87371,46.67574],[6.87171,46.67325],[6.86467,46.67639],[6.86463,46.67639]]]}},{"type":"Feature","properties":{"name":"Bösingen","cantonId":"fribourg","municipalityId":"boesingen-2295"},"geometry":{"type":"Polygon","coordinates":[[[7.22318,46.87014],[7.21357,46.8735],[7.20813,46.87259],[7.20754,46.87615],[7.20107,46.88144],[7.2225,46.90217],[7.23032,46.90394],[7.22913,46.9023],[7.23633,46.8981],[7.24314,46.89792],[7.24433,46.90037],[7.25931,46.89797],[7.28131,46.88887],[7.2725,46.8899],[7.26633,46.88624],[7.26007,46.88568],[7.25693,46.88062],[7.25982,46.87792],[7.25789,46.87352],[7.25241,46.87197],[7.25084,46.86894],[7.25273,46.86715],[7.24791,46.86404],[7.22631,46.86624],[7.2262,46.87009],[7.22323,46.87013],[7.22318,46.87014]]]}},{"type":"Feature","properties":{"name":"Bois-d'Amont","cantonId":"fribourg","municipalityId":"bois-damont-2238"},"geometry":{"type":"Polygon","coordinates":[[[7.162,46.76617],[7.16783,46.75363],[7.16194,46.75279],[7.15892,46.74752],[7.15547,46.74703],[7.15605,46.74557],[7.14736,46.73974],[7.13968,46.74063],[7.12363,46.73704],[7.11178,46.73757],[7.11144,46.74088],[7.10536,46.73823],[7.11428,46.74793],[7.1045,46.75261],[7.09599,46.75312],[7.09686,46.75696],[7.10228,46.75838],[7.10844,46.75544],[7.11575,46.75736],[7.11682,46.75907],[7.11202,46.76034],[7.11059,46.76304],[7.11376,46.76482],[7.11982,46.76235],[7.119,46.76954],[7.12083,46.7705],[7.12533,46.76969],[7.13029,46.76263],[7.13653,46.7645],[7.13991,46.76962],[7.14344,46.7703],[7.16188,46.76617],[7.162,46.76617]]]}},{"type":"Feature","properties":{"name":"Bossonnens","cantonId":"fribourg","municipalityId":"bossonnens-2323"},"geometry":{"type":"Polygon","coordinates":[[[6.86101,46.5307],[6.85681,46.52473],[6.8598,46.52388],[6.86174,46.51945],[6.85038,46.51692],[6.84384,46.51972],[6.84067,46.51878],[6.83486,46.52094],[6.83865,46.53358],[6.8324,46.53781],[6.855,46.54144],[6.85643,46.53705],[6.86015,46.53598],[6.8585,46.53337],[6.86071,46.53079],[6.86101,46.5307]]]}},{"type":"Feature","properties":{"name":"Botterens","cantonId":"fribourg","municipalityId":"botterens-2123"},"geometry":{"type":"Polygon","coordinates":[[[7.10285,46.61215],[7.10329,46.63262],[7.09887,46.63587],[7.13502,46.63363],[7.13282,46.63047],[7.12634,46.62812],[7.12649,46.62471],[7.12224,46.62219],[7.12318,46.61816],[7.11643,46.6139],[7.1153,46.60905],[7.10675,46.61137],[7.10285,46.61215]]]}},{"type":"Feature","properties":{"name":"Broc","cantonId":"fribourg","municipalityId":"broc-2124"},"geometry":{"type":"Polygon","coordinates":[[[7.11664,46.61171],[7.12033,46.60837],[7.13051,46.61255],[7.13961,46.6117],[7.14498,46.60731],[7.15041,46.60633],[7.15449,46.60128],[7.13115,46.58965],[7.10642,46.5852],[7.09988,46.58767],[7.09363,46.6008],[7.09312,46.60498],[7.09524,46.60758],[7.09105,46.6102],[7.09475,46.61472],[7.11281,46.6091],[7.11649,46.61146],[7.11664,46.61171]]]}},{"type":"Feature","properties":{"name":"Brünisried","cantonId":"fribourg","municipalityId":"bruenisried-2292"},"geometry":{"type":"Polygon","coordinates":[[[7.26898,46.76891],[7.27691,46.76799],[7.27969,46.76462],[7.29168,46.76421],[7.28951,46.75926],[7.28293,46.75628],[7.28575,46.7498],[7.28181,46.74612],[7.27766,46.74575],[7.26452,46.75045],[7.26815,46.75813],[7.26667,46.76663],[7.26893,46.76883],[7.26898,46.76891]]]}},{"type":"Feature","properties":{"name":"Bulle","cantonId":"fribourg","municipalityId":"bulle-2125"},"geometry":{"type":"Polygon","coordinates":[[[7.03123,46.63457],[7.03059,46.63637],[7.03681,46.64054],[7.05159,46.63389],[7.06597,46.63505],[7.07484,46.63089],[7.07896,46.63573],[7.08279,46.63509],[7.08398,46.63381],[7.07727,46.62969],[7.07897,46.62476],[7.07567,46.61844],[7.08349,46.61663],[7.08595,46.61954],[7.08675,46.61511],[7.09408,46.61455],[7.09097,46.60986],[7.09524,46.60758],[7.09312,46.6037],[7.08168,46.60187],[7.07949,46.59825],[7.08153,46.59622],[7.0796,46.59467],[7.07593,46.59862],[7.06833,46.5932],[7.06482,46.59437],[7.06681,46.59537],[7.06135,46.59976],[7.05762,46.59788],[7.05448,46.60075],[7.0547,46.60377],[7.04368,46.59826],[7.03985,46.60803],[7.04361,46.61131],[7.04044,46.61082],[7.033,46.60534],[7.03711,46.60202],[7.04108,46.59382],[7.04736,46.58922],[7.04679,46.58663],[7.0401,46.58346],[7.04119,46.58202],[7.03551,46.57991],[7.03512,46.57735],[7.03942,46.57636],[7.03082,46.57387],[7.02492,46.56952],[7.01897,46.57111],[7.01986,46.57477],[7.0272,46.58044],[7.02313,46.60046],[7.02128,46.60178],[7.0143,46.59854],[7.01388,46.59273],[7.01627,46.59205],[7.01133,46.58385],[7.00496,46.58256],[7.00581,46.57889],[7.00355,46.57823],[7.00312,46.57412],[6.99791,46.57701],[6.99339,46.58323],[7.00357,46.60119],[7.00604,46.60362],[7.01275,46.60386],[7.01275,46.60607],[7.01541,46.60673],[7.01428,46.60797],[7.0178,46.60954],[7.02521,46.61099],[7.02942,46.60928],[7.03635,46.61387],[7.03656,46.61642],[7.03423,46.61687],[7.03751,46.61777],[7.03233,46.62156],[7.03493,46.6215],[7.03244,46.62374],[7.03678,46.62609],[7.03371,46.62865],[7.03546,46.63176],[7.03121,46.63455],[7.03123,46.63457]]]}},{"type":"Feature","properties":{"name":"Châtel-Saint-Denis","cantonId":"fribourg","municipalityId":"chatel-saint-denis-2325"},"geometry":{"type":"Polygon","coordinates":[[[6.98132,46.47539],[6.9738,46.48119],[6.97209,46.49119],[6.96559,46.49316],[6.9542,46.50191],[6.93461,46.5014],[6.91138,46.51325],[6.90114,46.51327],[6.89571,46.50775],[6.8967,46.52045],[6.88327,46.51347],[6.89093,46.52741],[6.8922,46.54661],[6.89696,46.55618],[6.89341,46.55923],[6.90044,46.56017],[6.90613,46.56438],[6.91137,46.5634],[6.91129,46.55973],[6.91853,46.55683],[6.93104,46.55864],[6.96121,46.54568],[6.98299,46.54851],[6.98848,46.54717],[6.98956,46.542],[6.99629,46.53403],[7.00097,46.53408],[7.00502,46.52955],[7.00112,46.52702],[6.99841,46.51733],[7.00298,46.50767],[6.99133,46.50159],[6.99227,46.49206],[6.98161,46.47632],[6.98132,46.47539]]]}},{"type":"Feature","properties":{"name":"Châtel-sur-Montsalvens","cantonId":"fribourg","municipalityId":"chatel-sur-montsalvens-2128"},"geometry":{"type":"Polygon","coordinates":[[[7.13561,46.61254],[7.12033,46.60837],[7.11611,46.61245],[7.12318,46.61816],[7.12224,46.62219],[7.12649,46.62471],[7.12705,46.62873],[7.13391,46.63025],[7.13104,46.62661],[7.13792,46.61432],[7.13561,46.61254]]]}},{"type":"Feature","properties":{"name":"Châtillon (FR)","cantonId":"fribourg","municipalityId":"chatillon-fr-2008"},"geometry":{"type":"Polygon","coordinates":[[[6.84248,46.82956],[6.83065,46.82433],[6.8244,46.82457],[6.8203,46.82973],[6.8242,46.83239],[6.82305,46.83376],[6.82912,46.83594],[6.83264,46.83589],[6.84238,46.82956],[6.84248,46.82956]]]}},{"type":"Feature","properties":{"name":"Châtonnaye","cantonId":"fribourg","municipalityId":"chatonnaye-2068"},"geometry":{"type":"Polygon","coordinates":[[[6.9288,46.76745],[6.95297,46.75844],[6.95707,46.75909],[6.95505,46.75643],[6.9623,46.75199],[6.95987,46.74816],[6.94581,46.73924],[6.94321,46.73329],[6.93559,46.73322],[6.93501,46.7359],[6.9411,46.74514],[6.93088,46.75405],[6.92002,46.7513],[6.91701,46.75453],[6.91055,46.75326],[6.90898,46.75477],[6.91064,46.75603],[6.90828,46.75747],[6.91201,46.76133],[6.91743,46.76256],[6.92011,46.75986],[6.92838,46.7672],[6.9288,46.76745]]]}},{"type":"Feature","properties":{"name":"Chénens","cantonId":"fribourg","municipalityId":"chenens-2177"},"geometry":{"type":"Polygon","coordinates":[[[7.00658,46.73278],[7.00046,46.73125],[6.9971,46.73494],[6.99225,46.7354],[6.9895,46.73964],[6.97842,46.74638],[6.97973,46.74779],[6.97797,46.74922],[6.9876,46.75387],[6.99575,46.75044],[7.00285,46.75242],[7.01176,46.74235],[7.0128,46.73817],[7.01104,46.73677],[7.01242,46.73473],[7.00658,46.73288],[7.00658,46.73278]]]}},{"type":"Feature","properties":{"name":"Cheyres-Châbles","cantonId":"fribourg","municipalityId":"cheyres-chables-2055"},"geometry":{"type":"Polygon","coordinates":[[[6.78409,46.85578],[6.81113,46.83472],[6.81644,46.83356],[6.81536,46.83162],[6.82161,46.83173],[6.8203,46.82973],[6.82312,46.82807],[6.82383,46.82371],[6.82867,46.82272],[6.82836,46.82081],[6.81963,46.81729],[6.82109,46.81489],[6.81889,46.81184],[6.79756,46.80414],[6.77598,46.78975],[6.77858,46.79389],[6.78728,46.7996],[6.78353,46.80283],[6.77881,46.80057],[6.74187,46.82788],[6.77983,46.85296],[6.78409,46.85578]]]}},{"type":"Feature","properties":{"name":"Corbières","cantonId":"fribourg","municipalityId":"corbieres-2129"},"geometry":{"type":"Polygon","coordinates":[[[7.09887,46.63587],[7.09467,46.64603],[7.0964,46.65138],[7.09509,46.65856],[7.08887,46.6594],[7.08855,46.6613],[7.09877,46.66919],[7.10392,46.66382],[7.11899,46.6637],[7.12836,46.65825],[7.14053,46.65696],[7.14731,46.65295],[7.14488,46.64894],[7.14729,46.6442],[7.1414,46.64255],[7.13528,46.63691],[7.13502,46.63363],[7.10264,46.63572],[7.09887,46.63587]]]}},{"type":"Feature","properties":{"name":"Corminboeuf","cantonId":"fribourg","municipalityId":"corminboeuf-2183"},"geometry":{"type":"Polygon","coordinates":[[[7.11216,46.81553],[7.11537,46.81147],[7.11452,46.80722],[7.11219,46.807],[7.11433,46.80313],[7.10839,46.80091],[7.10474,46.79247],[7.10257,46.79538],[7.09685,46.79265],[7.09774,46.79056],[7.08992,46.7872],[7.08328,46.78745],[7.07518,46.7979],[7.07904,46.79917],[7.0806,46.80264],[7.06628,46.79797],[7.06735,46.80275],[7.0651,46.80509],[7.06612,46.80793],[7.08312,46.81027],[7.08588,46.81392],[7.11159,46.81526],[7.11216,46.81553]]]}},{"type":"Feature","properties":{"name":"Cottens (FR)","cantonId":"fribourg","municipalityId":"cottens-fr-2186"},"geometry":{"type":"Polygon","coordinates":[[[7.04348,46.76607],[7.04643,46.76584],[7.04394,46.75991],[7.04768,46.75697],[7.05327,46.75343],[7.06035,46.75502],[7.06039,46.75229],[7.05582,46.75055],[7.05634,46.74806],[7.03545,46.74299],[7.02197,46.7441],[7.02051,46.74937],[7.0155,46.7539],[7.01911,46.75534],[7.02251,46.76162],[7.03229,46.76103],[7.03772,46.76474],[7.04366,46.76544],[7.04348,46.76607]]]}},{"type":"Feature","properties":{"name":"Courgevaux","cantonId":"fribourg","municipalityId":"courgevaux-2250"},"geometry":{"type":"Polygon","coordinates":[[[7.09071,46.89182],[7.10382,46.90025],[7.09736,46.89995],[7.09091,46.90333],[7.09341,46.90579],[7.09003,46.9077],[7.10221,46.91286],[7.10856,46.92011],[7.11185,46.91597],[7.11485,46.91584],[7.11323,46.91055],[7.11915,46.90562],[7.11871,46.90239],[7.11417,46.90052],[7.11385,46.89749],[7.10961,46.8987],[7.094,46.89043],[7.09037,46.89138],[7.09071,46.89182]]]}},{"type":"Feature","properties":{"name":"Courtepin","cantonId":"fribourg","municipalityId":"courtepin-2254"},"geometry":{"type":"Polygon","coordinates":[[[7.09071,46.89182],[7.09655,46.88635],[7.09434,46.88436],[7.09911,46.88218],[7.10516,46.88484],[7.11812,46.8838],[7.11563,46.88417],[7.12034,46.88722],[7.12455,46.88554],[7.12674,46.87684],[7.12996,46.87747],[7.13557,46.87357],[7.14178,46.87447],[7.13983,46.86936],[7.144,46.86531],[7.14245,46.86236],[7.14427,46.8604],[7.15019,46.86158],[7.15069,46.86651],[7.16229,46.8666],[7.16175,46.86886],[7.16363,46.86937],[7.16068,46.87489],[7.16373,46.87756],[7.17352,46.87902],[7.18117,46.88368],[7.18662,46.88331],[7.18678,46.87434],[7.16979,46.86081],[7.16328,46.8518],[7.14364,46.84726],[7.13814,46.84138],[7.12958,46.83695],[7.12423,46.84001],[7.12568,46.8427],[7.12097,46.8471],[7.11149,46.84985],[7.11703,46.85431],[7.11237,46.85942],[7.11441,46.86075],[7.11339,46.86205],[7.111,46.86128],[7.10653,46.86731],[7.10357,46.86739],[7.10505,46.86835],[7.10364,46.87051],[7.09419,46.87441],[7.0875,46.8735],[7.08446,46.87518],[7.07575,46.86949],[7.06623,46.86926],[7.071,46.87336],[7.06722,46.87744],[7.06729,46.88094],[7.06167,46.87962],[7.06426,46.8871],[7.07207,46.88872],[7.0709,46.88976],[7.07983,46.89412],[7.07489,46.89393],[7.07579,46.89577],[7.0833,46.89612],[7.08374,46.89294],[7.08977,46.89181],[7.09071,46.89182]]]}},{"type":"Feature","properties":{"name":"Cressier (FR)","cantonId":"fribourg","municipalityId":"cressier-fr-2257"},"geometry":{"type":"Polygon","coordinates":[[[7.12304,46.9002],[7.12726,46.90446],[7.13865,46.90866],[7.15073,46.90358],[7.15346,46.90541],[7.16121,46.89985],[7.15638,46.89879],[7.15727,46.89689],[7.15451,46.89578],[7.14462,46.89427],[7.13778,46.88915],[7.13291,46.88787],[7.13096,46.88937],[7.12455,46.88554],[7.12034,46.88722],[7.11687,46.88422],[7.11289,46.88574],[7.12979,46.89295],[7.12793,46.89579],[7.12447,46.8955],[7.1226,46.90011],[7.12304,46.9002]]]}},{"type":"Feature","properties":{"name":"Crésuz","cantonId":"fribourg","municipalityId":"cresuz-2130"},"geometry":{"type":"Polygon","coordinates":[[[7.13561,46.61254],[7.13823,46.61515],[7.13423,46.61854],[7.13464,46.62281],[7.13104,46.62661],[7.13391,46.63025],[7.14004,46.63003],[7.14321,46.62751],[7.14929,46.62829],[7.15034,46.62573],[7.15303,46.62565],[7.14975,46.62172],[7.15121,46.6201],[7.14124,46.61505],[7.13961,46.6117],[7.13561,46.61254]]]}},{"type":"Feature","properties":{"name":"Cugy (FR)","cantonId":"fribourg","municipalityId":"cugy-fr-2011"},"geometry":{"type":"Polygon","coordinates":[[[6.87471,46.79451],[6.86715,46.79342],[6.86738,46.79756],[6.85662,46.80491],[6.8652,46.81316],[6.87304,46.81547],[6.87508,46.81407],[6.87421,46.81581],[6.88114,46.8171],[6.87883,46.81954],[6.88177,46.82055],[6.88158,46.827],[6.88945,46.82463],[6.90662,46.82763],[6.90488,46.82498],[6.91085,46.81253],[6.90494,46.80648],[6.90719,46.80502],[6.90579,46.80308],[6.90104,46.80027],[6.90108,46.79828],[6.89567,46.79651],[6.89955,46.79564],[6.89649,46.79356],[6.88777,46.79304],[6.88663,46.79566],[6.87474,46.79453],[6.87471,46.79451]]]}},{"type":"Feature","properties":{"name":"Delley-Portalban","cantonId":"fribourg","municipalityId":"delley-portalban-2051"},"geometry":{"type":"Polygon","coordinates":[[[6.95659,46.89546],[6.94658,46.9059],[6.94092,46.90709],[6.90681,46.93473],[6.9282,46.9534],[6.9649,46.92439],[6.97153,46.92119],[6.97811,46.92341],[6.98749,46.91828],[6.98177,46.91359],[6.98447,46.91198],[6.98117,46.90942],[6.98401,46.90772],[6.97921,46.90388],[6.97551,46.90735],[6.97321,46.90553],[6.97275,46.907],[6.95666,46.89546],[6.95659,46.89546]]]}},{"type":"Feature","properties":{"name":"Düdingen","cantonId":"fribourg","municipalityId":"duedingen-2293"},"geometry":{"type":"Polygon","coordinates":[[[7.22318,46.87014],[7.21928,46.86837],[7.22082,46.86096],[7.2264,46.85813],[7.22507,46.85591],[7.22723,46.85266],[7.22324,46.84992],[7.22699,46.84421],[7.2213,46.84134],[7.22395,46.84059],[7.22269,46.83544],[7.23216,46.82868],[7.2297,46.82358],[7.22594,46.82279],[7.22321,46.82528],[7.20888,46.82337],[7.19793,46.81563],[7.18042,46.80932],[7.17611,46.81377],[7.17509,46.81878],[7.17247,46.81879],[7.16973,46.82558],[7.14717,46.83289],[7.14481,46.83646],[7.14482,46.84753],[7.16328,46.8518],[7.16979,46.86081],[7.18678,46.87434],[7.18545,46.87884],[7.18783,46.88158],[7.19294,46.88324],[7.19667,46.88053],[7.20243,46.88071],[7.20754,46.87615],[7.20813,46.87259],[7.21357,46.8735],[7.22286,46.87032],[7.22318,46.87014]]]}},{"type":"Feature","properties":{"name":"Echarlens","cantonId":"fribourg","municipalityId":"echarlens-2131"},"geometry":{"type":"MultiPolygon","coordinates":[[[[7.09887,46.63587],[7.08398,46.63381],[7.07855,46.63534],[7.06395,46.64813],[7.06741,46.6513],[7.0699,46.65043],[7.0726,46.65413],[7.07725,46.65309],[7.08073,46.65952],[7.08856,46.66073],[7.09509,46.65856],[7.0964,46.65138],[7.09467,46.64603],[7.09752,46.63852],[7.09887,46.63587]]],[[[7.03123,46.63457],[7.03546,46.63176],[7.03371,46.62865],[7.03081,46.62824],[7.02536,46.62952],[7.02247,46.63311],[7.0303,46.63478],[7.03123,46.63457]]]]}},{"type":"Feature","properties":{"name":"Estavayer","cantonId":"fribourg","municipalityId":"estavayer-2054"},"geometry":{"type":"MultiPolygon","coordinates":[[[[6.92994,46.8539],[6.91017,46.83877],[6.90594,46.8276],[6.88945,46.82463],[6.87785,46.82774],[6.88073,46.83268],[6.87886,46.83371],[6.88442,46.83792],[6.88515,46.84236],[6.88184,46.84276],[6.88264,46.84763],[6.87874,46.84936],[6.8665,46.84611],[6.86833,46.84352],[6.85975,46.84043],[6.86509,46.83843],[6.86386,46.83744],[6.86724,46.83567],[6.86556,46.83418],[6.85742,46.83566],[6.85936,46.83724],[6.8548,46.84069],[6.84705,46.83686],[6.8475,46.83996],[6.83577,46.83726],[6.84075,46.83166],[6.82912,46.83594],[6.82305,46.83376],[6.82318,46.83165],[6.81682,46.83107],[6.81517,46.83205],[6.81644,46.83356],[6.81113,46.83472],[6.78409,46.85578],[6.86569,46.90958],[6.89642,46.88304],[6.89922,46.88339],[6.90696,46.87862],[6.9108,46.88063],[6.92101,46.87133],[6.91176,46.86715],[6.90953,46.86951],[6.89187,46.86496],[6.89435,46.86217],[6.91278,46.86596],[6.92885,46.85494],[6.92994,46.8539]]],[[[6.84004,46.79958],[6.83471,46.79436],[6.82476,46.78987],[6.81331,46.77933],[6.80465,46.78564],[6.79794,46.78288],[6.78374,46.79229],[6.78382,46.79546],[6.79691,46.80379],[6.81529,46.81072],[6.8222,46.80866],[6.82479,46.80467],[6.83424,46.80823],[6.83115,46.80323],[6.83986,46.79974],[6.84004,46.79958]]],[[[6.77301,46.75137],[6.77611,46.7494],[6.7788,46.75121],[6.78626,46.74761],[6.78418,46.74583],[6.78445,46.73543],[6.77742,46.72959],[6.7774,46.72612],[6.76241,46.71737],[6.75855,46.72198],[6.76026,46.7231],[6.75879,46.72548],[6.75173,46.72823],[6.7487,46.7318],[6.75265,46.73656],[6.75905,46.73747],[6.77096,46.74845],[6.77301,46.75137]]],[[[6.82836,46.82081],[6.82867,46.82272],[6.82383,46.82371],[6.82549,46.82518],[6.83065,46.82433],[6.83663,46.8279],[6.84436,46.82875],[6.84263,46.82723],[6.84318,46.82258],[6.83737,46.8243],[6.83184,46.82176],[6.83335,46.82115],[6.82854,46.82086],[6.82836,46.82081]]]]}},{"type":"Feature","properties":{"name":"Ferpicloz","cantonId":"fribourg","municipalityId":"ferpicloz-2194"},"geometry":{"type":"Polygon","coordinates":[[[7.1533,46.74311],[7.15261,46.74448],[7.16591,46.75446],[7.16937,46.75102],[7.17182,46.74355],[7.15473,46.74336],[7.1533,46.74311]]]}},{"type":"Feature","properties":{"name":"Fétigny-Ménières","cantonId":"fribourg","municipalityId":"fetigny-menieres-2056"},"geometry":{"type":"Polygon","coordinates":[[[6.87471,46.79451],[6.88663,46.79566],[6.88777,46.79304],[6.89637,46.79352],[6.89955,46.79564],[6.89567,46.79651],[6.90108,46.79828],[6.90719,46.80502],[6.91134,46.80313],[6.92,46.81057],[6.92742,46.80906],[6.93136,46.80586],[6.93112,46.80371],[6.92112,46.79681],[6.91648,46.7885],[6.91711,46.78471],[6.91099,46.77971],[6.90824,46.78202],[6.90971,46.78354],[6.90734,46.78382],[6.90505,46.78155],[6.89912,46.78159],[6.89983,46.78006],[6.8942,46.7773],[6.88813,46.77827],[6.87955,46.7753],[6.86486,46.78057],[6.86189,46.78317],[6.86424,46.78459],[6.87586,46.78476],[6.87391,46.78729],[6.87799,46.78864],[6.8749,46.79439],[6.87471,46.79451]]]}},{"type":"Feature","properties":{"name":"Fräschels","cantonId":"fribourg","municipalityId":"fraeschels-2258"},"geometry":{"type":"Polygon","coordinates":[[[7.22284,46.99385],[7.21898,46.99493],[7.2098,46.98933],[7.20074,46.99286],[7.19807,46.99118],[7.18733,46.99717],[7.19667,47.00014],[7.19631,47.00213],[7.20068,47.00166],[7.20509,47.00627],[7.21025,47.00395],[7.21299,47.00681],[7.21801,47.00629],[7.22312,46.99813],[7.22614,46.99886],[7.22356,46.99438],[7.22284,46.99385]]]}},{"type":"Feature","properties":{"name":"Fribourg","cantonId":"fribourg","municipalityId":"fribourg-2196"},"geometry":{"type":"Polygon","coordinates":[[[7.17583,46.79389],[7.16682,46.79365],[7.16318,46.79137],[7.1622,46.78643],[7.15978,46.78489],[7.15707,46.78612],[7.1556,46.79066],[7.15136,46.78827],[7.14,46.79419],[7.13565,46.79992],[7.14169,46.80271],[7.13719,46.80891],[7.13889,46.81226],[7.14171,46.81186],[7.14207,46.81497],[7.15471,46.81757],[7.15646,46.8211],[7.1602,46.82154],[7.16276,46.81859],[7.17509,46.81878],[7.17611,46.81377],[7.18057,46.81072],[7.18057,46.80574],[7.18397,46.79994],[7.17555,46.7942],[7.17583,46.79389]]]}},{"type":"Feature","properties":{"name":"Gibloux","cantonId":"fribourg","municipalityId":"gibloux-2236"},"geometry":{"type":"Polygon","coordinates":[[[7.11178,46.73757],[7.11497,46.73476],[7.10995,46.73114],[7.115,46.72837],[7.11007,46.7257],[7.11368,46.72372],[7.11395,46.72046],[7.10688,46.71466],[7.10501,46.71026],[7.10069,46.71102],[7.09515,46.70752],[7.09044,46.71073],[7.08099,46.70882],[7.08141,46.70624],[7.07704,46.70502],[7.07877,46.70202],[7.06809,46.69898],[7.06071,46.6913],[7.04789,46.69288],[7.04654,46.6879],[7.04102,46.68451],[7.02511,46.69436],[7.02134,46.69378],[7.01984,46.70122],[7.01559,46.70488],[7.01055,46.7038],[7.00483,46.71278],[7.00414,46.71621],[7.01284,46.72177],[7.00654,46.72803],[7.0311,46.7313],[7.03701,46.72967],[7.04371,46.73502],[7.04912,46.73357],[7.05315,46.73625],[7.05432,46.74253],[7.05721,46.74493],[7.05582,46.75055],[7.05828,46.75214],[7.06974,46.74319],[7.08046,46.74652],[7.08621,46.74487],[7.08654,46.74709],[7.09106,46.74769],[7.09042,46.7497],[7.09655,46.75017],[7.09812,46.7528],[7.1045,46.75261],[7.11428,46.74793],[7.11166,46.74343],[7.1052,46.73919],[7.10681,46.7378],[7.11144,46.74088],[7.11135,46.73786],[7.11178,46.73757]]]}},{"type":"Feature","properties":{"name":"Giffers","cantonId":"fribourg","municipalityId":"giffers-2294"},"geometry":{"type":"Polygon","coordinates":[[[7.25115,46.75087],[7.24675,46.74888],[7.24803,46.74561],[7.24538,46.74052],[7.23606,46.73719],[7.23248,46.74467],[7.22401,46.75166],[7.20331,46.75509],[7.19929,46.75994],[7.20298,46.76085],[7.20205,46.76485],[7.20463,46.76933],[7.20895,46.77036],[7.21534,46.76604],[7.22078,46.76937],[7.22274,46.76339],[7.22539,46.76353],[7.22901,46.75662],[7.23412,46.7565],[7.23934,46.75241],[7.25089,46.75096],[7.25115,46.75087]]]}},{"type":"Feature","properties":{"name":"Givisiez","cantonId":"fribourg","municipalityId":"givisiez-2197"},"geometry":{"type":"Polygon","coordinates":[[[7.11216,46.81553],[7.12459,46.82341],[7.13542,46.8227],[7.13886,46.81132],[7.12719,46.80349],[7.11451,46.80168],[7.11219,46.807],[7.11452,46.80722],[7.11549,46.81073],[7.11255,46.81515],[7.11216,46.81553]]]}},{"type":"Feature","properties":{"name":"Gletterens","cantonId":"fribourg","municipalityId":"gletterens-2022"},"geometry":{"type":"Polygon","coordinates":[[[6.89623,46.92549],[6.90681,46.93473],[6.94092,46.90709],[6.94658,46.9059],[6.9497,46.90123],[6.94326,46.89768],[6.94537,46.89593],[6.94196,46.89445],[6.9456,46.89127],[6.93601,46.88879],[6.93313,46.89254],[6.92444,46.89342],[6.92373,46.89533],[6.93032,46.89953],[6.92141,46.90557],[6.89623,46.92549]]]}},{"type":"Feature","properties":{"name":"Grandvillard","cantonId":"fribourg","municipalityId":"grandvillard-2134"},"geometry":{"type":"Polygon","coordinates":[[[7.14835,46.52846],[7.14501,46.52686],[7.13536,46.50762],[7.12634,46.50316],[7.12279,46.4987],[7.10966,46.49434],[7.0988,46.49947],[7.09986,46.5047],[7.09444,46.50531],[7.09346,46.50711],[7.0999,46.51403],[7.09199,46.51779],[7.09339,46.52354],[7.08099,46.52654],[7.07718,46.52967],[7.07514,46.52761],[7.07246,46.53117],[7.06662,46.5279],[7.06804,46.53624],[7.07785,46.54546],[7.0812,46.55308],[7.08723,46.55865],[7.09406,46.55581],[7.10002,46.55667],[7.10271,46.55474],[7.10122,46.55299],[7.11089,46.55127],[7.12242,46.54568],[7.12703,46.54632],[7.13116,46.54069],[7.14468,46.54262],[7.14072,46.53621],[7.14698,46.53436],[7.14824,46.53061],[7.14835,46.52846]]]}},{"type":"Feature","properties":{"name":"Granges-Paccot","cantonId":"fribourg","municipalityId":"granges-paccot-2198"},"geometry":{"type":"Polygon","coordinates":[[[7.13889,46.81226],[7.13542,46.8227],[7.1242,46.82485],[7.14717,46.83289],[7.16846,46.82629],[7.17182,46.81978],[7.16276,46.81859],[7.1602,46.82154],[7.15646,46.8211],[7.15471,46.81757],[7.14207,46.81497],[7.14171,46.81186],[7.139,46.81225],[7.13889,46.81226]]]}},{"type":"Feature","properties":{"name":"Granges (Veveyse)","cantonId":"fribourg","municipalityId":"granges-veveyse-2328"},"geometry":{"type":"Polygon","coordinates":[[[6.83034,46.51247],[6.82429,46.51208],[6.81087,46.52513],[6.82537,46.54354],[6.82784,46.54295],[6.82518,46.53802],[6.83207,46.53755],[6.83865,46.53358],[6.83486,46.52094],[6.84024,46.52031],[6.84062,46.51618],[6.83043,46.51252],[6.83034,46.51247]]]}},{"type":"Feature","properties":{"name":"Grangettes","cantonId":"fribourg","municipalityId":"grangettes-2079"},"geometry":{"type":"Polygon","coordinates":[[[6.99994,46.65758],[6.9914,46.6557],[6.98613,46.65947],[6.98872,46.66026],[6.98774,46.66176],[6.97846,46.66472],[6.97705,46.66822],[6.97143,46.66903],[6.96903,46.67334],[6.96165,46.67179],[6.95379,46.67654],[6.96164,46.68741],[6.9674,46.68727],[6.97036,46.68498],[6.96868,46.67657],[6.97878,46.67496],[6.98138,46.669],[6.98718,46.66928],[6.98962,46.66554],[6.99894,46.66157],[7.00151,46.65877],[7.00009,46.65784],[6.99994,46.65758]]]}},{"type":"Feature","properties":{"name":"Greng","cantonId":"fribourg","municipalityId":"greng-2261"},"geometry":{"type":"Polygon","coordinates":[[[7.09938,46.91138],[7.09003,46.9077],[7.07218,46.92471],[7.08359,46.93051],[7.09397,46.92091],[7.09928,46.91142],[7.09938,46.91138]]]}},{"type":"Feature","properties":{"name":"Grolley-Ponthaux","cantonId":"fribourg","municipalityId":"grolley-ponthaux-2239"},"geometry":{"type":"Polygon","coordinates":[[[7.05516,46.8503],[7.06959,46.84582],[7.08542,46.83077],[7.07791,46.82487],[7.06978,46.82283],[7.06809,46.82023],[7.06923,46.81746],[7.06166,46.81433],[7.06638,46.80693],[7.05258,46.80803],[7.05315,46.80573],[7.05143,46.80524],[7.05078,46.80702],[7.03766,46.80599],[7.03506,46.81061],[7.03166,46.81086],[7.03255,46.81301],[7.02308,46.81499],[7.02895,46.82224],[7.03694,46.82449],[7.04091,46.8289],[7.05034,46.83063],[7.05398,46.83945],[7.05088,46.84211],[7.05517,46.85028],[7.05516,46.8503]]]}},{"type":"Feature","properties":{"name":"Gruyères","cantonId":"fribourg","municipalityId":"gruyeres-2135"},"geometry":{"type":"Polygon","coordinates":[[[7.16188,46.59097],[7.14074,46.58486],[7.11009,46.58059],[7.10383,46.57621],[7.09583,46.57545],[7.09353,46.57333],[7.08156,46.57657],[7.05828,46.57137],[7.05131,46.56691],[7.04784,46.56761],[7.04107,46.56042],[7.04406,46.55634],[7.03712,46.55264],[7.04148,46.54885],[7.02837,46.54064],[7.02115,46.54511],[7.01077,46.54576],[6.99554,46.5533],[6.98974,46.55186],[6.9818,46.5551],[6.98601,46.56253],[6.99833,46.57292],[7.00312,46.57412],[7.00355,46.57823],[7.00581,46.57889],[7.00496,46.58256],[7.01133,46.58385],[7.01627,46.59205],[7.01388,46.59273],[7.0143,46.59854],[7.02128,46.60178],[7.02313,46.60046],[7.0272,46.58044],[7.0187,46.57232],[7.02492,46.56952],[7.03082,46.57387],[7.04616,46.57907],[7.05589,46.5798],[7.05728,46.58265],[7.06505,46.58519],[7.06841,46.59285],[7.07468,46.59814],[7.0796,46.59467],[7.08153,46.59622],[7.07949,46.59825],[7.08168,46.60187],[7.08863,46.60385],[7.09312,46.6037],[7.09988,46.58767],[7.10642,46.5852],[7.13115,46.58965],[7.15449,46.60128],[7.16191,46.59112],[7.16188,46.59097]]]}},{"type":"Feature","properties":{"name":"Gurmels","cantonId":"fribourg","municipalityId":"gurmels-2262"},"geometry":{"type":"MultiPolygon","coordinates":[[[[7.21109,46.92697],[7.20507,46.92169],[7.20781,46.90913],[7.18764,46.90042],[7.19532,46.89901],[7.19074,46.89475],[7.19305,46.89378],[7.19153,46.89177],[7.19394,46.88986],[7.18987,46.88693],[7.19373,46.884],[7.18783,46.88158],[7.18585,46.88398],[7.18129,46.88371],[7.17352,46.87902],[7.16373,46.87756],[7.16068,46.87489],[7.16363,46.86937],[7.16175,46.86886],[7.16229,46.8666],[7.15069,46.86651],[7.15019,46.86158],[7.14427,46.8604],[7.14245,46.86236],[7.144,46.86531],[7.13983,46.86936],[7.14178,46.87447],[7.13557,46.87357],[7.12996,46.87747],[7.12674,46.87684],[7.12425,46.88604],[7.13096,46.88937],[7.13291,46.88787],[7.13778,46.88915],[7.14462,46.89427],[7.15451,46.89578],[7.15727,46.89689],[7.15638,46.89879],[7.17625,46.89906],[7.17584,46.9012],[7.18185,46.90462],[7.17858,46.90734],[7.18966,46.91252],[7.17917,46.91473],[7.18067,46.91727],[7.19169,46.92181],[7.18734,46.92466],[7.18606,46.93291],[7.19044,46.9357],[7.18715,46.93545],[7.18837,46.93758],[7.2039,46.93847],[7.203,46.93734],[7.21171,46.93124],[7.21111,46.92719],[7.21109,46.92697]]],[[[7.2342,46.92939],[7.21854,46.92434],[7.21537,46.93075],[7.22938,46.9369],[7.2282,46.93881],[7.23021,46.93995],[7.23477,46.93828],[7.23435,46.93302],[7.2342,46.92939]]]]}},{"type":"Feature","properties":{"name":"Haut-Intyamon","cantonId":"fribourg","municipalityId":"haut-intyamon-2121"},"geometry":{"type":"Polygon","coordinates":[[[6.98132,46.47539],[6.99227,46.49206],[6.99133,46.50159],[7.00298,46.50767],[6.99841,46.51733],[7.00112,46.52702],[7.00502,46.52955],[7.00097,46.53408],[7.01077,46.54576],[7.02063,46.5453],[7.02672,46.54064],[7.03416,46.5438],[7.03818,46.5404],[7.04528,46.54151],[7.05232,46.53744],[7.06672,46.53636],[7.06662,46.5279],[7.07246,46.53117],[7.07514,46.52761],[7.07718,46.52967],[7.08099,46.52654],[7.09339,46.52354],[7.09199,46.51779],[7.0999,46.51403],[7.09346,46.50711],[7.09444,46.50531],[7.09986,46.5047],[7.0988,46.49947],[7.10966,46.49434],[7.10535,46.48932],[7.10036,46.48699],[7.07758,46.48883],[7.0724,46.4864],[7.06582,46.48904],[7.06108,46.48727],[7.03851,46.47432],[7.02197,46.46112],[7.01785,46.44707],[6.98879,46.43808],[6.98361,46.43873],[6.99211,46.44891],[6.98269,46.45891],[6.97996,46.45912],[6.97782,46.47289],[6.9803,46.47446],[6.98132,46.47539]]]}},{"type":"Feature","properties":{"name":"Hauterive (FR)","cantonId":"fribourg","municipalityId":"hauterive-fr-2233"},"geometry":{"type":"Polygon","coordinates":[[[7.09812,46.7528],[7.09655,46.75017],[7.09042,46.7497],[7.09106,46.74769],[7.08654,46.74709],[7.08621,46.74487],[7.08046,46.74652],[7.06974,46.74319],[7.05861,46.75216],[7.06051,46.75241],[7.06043,46.75545],[7.06533,46.76194],[7.07384,46.76324],[7.07865,46.76569],[7.07738,46.76762],[7.08179,46.76618],[7.08672,46.76874],[7.09401,46.77848],[7.10028,46.78093],[7.10117,46.78321],[7.10704,46.78417],[7.10851,46.78748],[7.11288,46.78602],[7.11394,46.7835],[7.12977,46.78605],[7.13298,46.78358],[7.12687,46.781],[7.1213,46.77458],[7.12753,46.77052],[7.11935,46.77002],[7.11982,46.76235],[7.11114,46.76403],[7.11114,46.76111],[7.11626,46.75963],[7.11621,46.75768],[7.10844,46.75544],[7.10097,46.75848],[7.09588,46.75597],[7.09723,46.75281],[7.09812,46.7528]]]}},{"type":"Feature","properties":{"name":"Hauteville","cantonId":"fribourg","municipalityId":"hauteville-2137"},"geometry":{"type":"Polygon","coordinates":[[[7.17514,46.67015],[7.17442,46.66389],[7.17255,46.66109],[7.16756,46.65989],[7.1681,46.65686],[7.15609,46.66096],[7.14731,46.65295],[7.14053,46.65696],[7.12836,46.65825],[7.11899,46.6637],[7.1078,46.66286],[7.09902,46.66717],[7.09447,46.67347],[7.09579,46.6784],[7.1058,46.68689],[7.11743,46.68652],[7.16052,46.66836],[7.16443,46.67033],[7.17463,46.67009],[7.17514,46.67015]]]}},{"type":"Feature","properties":{"name":"Heitenried","cantonId":"fribourg","municipalityId":"heitenried-2296"},"geometry":{"type":"Polygon","coordinates":[[[7.28762,46.85339],[7.29008,46.85298],[7.29249,46.84865],[7.30215,46.85204],[7.30572,46.85032],[7.30755,46.84704],[7.32333,46.84041],[7.33123,46.83177],[7.31981,46.82515],[7.30527,46.82171],[7.30628,46.81975],[7.29578,46.81827],[7.29331,46.81993],[7.29496,46.8254],[7.2853,46.83081],[7.28278,46.83377],[7.28454,46.83657],[7.27684,46.84068],[7.27581,46.84366],[7.27775,46.84747],[7.28377,46.84916],[7.28758,46.8533],[7.28762,46.85339]]]}},{"type":"Feature","properties":{"name":"Jaun","cantonId":"fribourg","municipalityId":"jaun-2138"},"geometry":{"type":"Polygon","coordinates":[[[7.31326,46.63662],[7.31211,46.6217],[7.31786,46.61857],[7.31818,46.61613],[7.31483,46.60042],[7.32073,46.59186],[7.3125,46.58918],[7.30804,46.58132],[7.2992,46.5791],[7.28135,46.58411],[7.26809,46.57369],[7.25976,46.5634],[7.23069,46.57437],[7.23069,46.57839],[7.21996,46.57592],[7.21088,46.56669],[7.19544,46.5658],[7.19396,46.58193],[7.19822,46.58458],[7.20317,46.60338],[7.21388,46.60001],[7.22878,46.61191],[7.24085,46.61764],[7.23915,46.62231],[7.25236,46.62258],[7.26896,46.62973],[7.26832,46.63182],[7.28686,46.64854],[7.28449,46.65433],[7.2808,46.65514],[7.28205,46.65875],[7.27805,46.66086],[7.28493,46.66869],[7.29257,46.67004],[7.30385,46.66154],[7.30459,46.65888],[7.3182,46.65208],[7.303,46.64083],[7.30776,46.63598],[7.31321,46.6366],[7.31326,46.63662]]]}},{"type":"Feature","properties":{"name":"Kerzers","cantonId":"fribourg","municipalityId":"kerzers-2265"},"geometry":{"type":"Polygon","coordinates":[[[7.22254,46.97459],[7.21467,46.97133],[7.21422,46.96693],[7.20745,46.96751],[7.20646,46.96413],[7.1943,46.9639],[7.19437,46.9674],[7.18041,46.96723],[7.17352,46.97907],[7.16758,46.98338],[7.1699,46.98401],[7.16016,46.9874],[7.18733,46.99717],[7.19946,46.99084],[7.20074,46.99286],[7.2098,46.98933],[7.22014,46.99503],[7.22917,46.99068],[7.23569,46.98456],[7.22209,46.97497],[7.22254,46.97459]]]}},{"type":"Feature","properties":{"name":"Kleinbösingen","cantonId":"fribourg","municipalityId":"kleinboesingen-2266"},"geometry":{"type":"Polygon","coordinates":[[[7.21755,46.89735],[7.20107,46.88144],[7.19289,46.88225],[7.19374,46.88402],[7.18987,46.88693],[7.19392,46.8911],[7.19074,46.89475],[7.19751,46.90136],[7.21026,46.90242],[7.21741,46.89748],[7.21755,46.89735]]]}},{"type":"Feature","properties":{"name":"La Brillaz","cantonId":"fribourg","municipalityId":"la-brillaz-2234"},"geometry":{"type":"Polygon","coordinates":[[[6.97952,46.75824],[6.99165,46.76638],[7.00017,46.76779],[7.00287,46.77181],[7.00846,46.77191],[7.0161,46.77863],[7.03498,46.78116],[7.03173,46.78314],[7.03379,46.78475],[7.03618,46.78523],[7.03898,46.78158],[7.04223,46.78214],[7.04163,46.77904],[7.05258,46.78151],[7.05861,46.77689],[7.0544,46.77533],[7.0548,46.77255],[7.05038,46.77153],[7.05073,46.76956],[7.04641,46.76976],[7.04366,46.76544],[7.03674,46.76435],[7.03359,46.76136],[7.02251,46.76162],[7.01701,46.75459],[7.0059,46.75478],[6.99961,46.75063],[6.9876,46.75387],[6.97965,46.75089],[6.97834,46.75443],[6.97992,46.75811],[6.97952,46.75824]]]}},{"type":"Feature","properties":{"name":"La Roche","cantonId":"fribourg","municipalityId":"la-roche-2149"},"geometry":{"type":"Polygon","coordinates":[[[7.12841,46.71526],[7.13949,46.71364],[7.146,46.71581],[7.15188,46.71342],[7.15654,46.71501],[7.15865,46.71257],[7.17866,46.70745],[7.18263,46.70238],[7.2152,46.69654],[7.21588,46.69074],[7.20323,46.68778],[7.19914,46.68218],[7.17514,46.67015],[7.16443,46.67033],[7.16052,46.66836],[7.11743,46.68652],[7.12105,46.69206],[7.11957,46.69584],[7.12521,46.70233],[7.12318,46.70993],[7.126,46.71372],[7.12841,46.71526]]]}},{"type":"Feature","properties":{"name":"La Sonnaz","cantonId":"fribourg","municipalityId":"la-sonnaz-2235"},"geometry":{"type":"Polygon","coordinates":[[[7.11149,46.84985],[7.12097,46.8471],[7.12568,46.8427],[7.12423,46.84001],[7.12958,46.83695],[7.14482,46.84753],[7.14481,46.83646],[7.14717,46.83289],[7.14008,46.82907],[7.13808,46.83117],[7.13047,46.82831],[7.11989,46.82027],[7.11502,46.82682],[7.10513,46.8262],[7.09906,46.83516],[7.09471,46.8343],[7.09445,46.83697],[7.0987,46.83909],[7.09705,46.84383],[7.1107,46.84965],[7.11149,46.84985]]]}},{"type":"Feature","properties":{"name":"La Verrerie","cantonId":"fribourg","municipalityId":"la-verrerie-2338"},"geometry":{"type":"Polygon","coordinates":[[[6.90723,46.6152],[6.92161,46.61895],[6.93457,46.61388],[6.94185,46.61709],[6.95208,46.60139],[6.93299,46.58667],[6.93092,46.58764],[6.92928,46.58574],[6.92323,46.58864],[6.91565,46.57782],[6.9059,46.5727],[6.89795,46.57539],[6.89913,46.57775],[6.89625,46.5813],[6.91009,46.59046],[6.90361,46.59548],[6.89594,46.59703],[6.89868,46.59988],[6.89766,46.60206],[6.88915,46.60058],[6.89163,46.60264],[6.89121,46.6055],[6.89873,46.61237],[6.90721,46.6152],[6.90723,46.6152]]]}},{"type":"Feature","properties":{"name":"Le Châtelard","cantonId":"fribourg","municipalityId":"le-chatelard-2067"},"geometry":{"type":"Polygon","coordinates":[[[7.02171,46.6774],[7.01379,46.67145],[7.01576,46.67008],[7.01244,46.66428],[7.01348,46.66211],[7.00467,46.66107],[7.00391,46.65826],[7.00161,46.6582],[6.99894,46.66157],[6.98962,46.66554],[6.98718,46.66928],[6.98138,46.669],[6.97839,46.67519],[6.96868,46.67657],[6.97036,46.68498],[6.97406,46.68415],[6.97807,46.6877],[6.9832,46.68596],[6.98773,46.69033],[6.9907,46.69017],[6.99648,46.68848],[7.00717,46.6807],[7.02107,46.67762],[7.02171,46.6774]]]}},{"type":"Feature","properties":{"name":"Le Flon","cantonId":"fribourg","municipalityId":"le-flon-2337"},"geometry":{"type":"Polygon","coordinates":[[[6.85261,46.58198],[6.84644,46.58395],[6.84144,46.58244],[6.84394,46.58478],[6.84223,46.59017],[6.84724,46.5979],[6.84977,46.6013],[6.85384,46.60061],[6.85762,46.60765],[6.86189,46.60794],[6.86442,46.6112],[6.86717,46.61013],[6.8684,46.61331],[6.87288,46.61109],[6.87751,46.61801],[6.8753,46.61901],[6.87613,46.62099],[6.88444,46.62623],[6.88821,46.62532],[6.8877,46.62367],[6.89654,46.62409],[6.90683,46.61438],[6.89877,46.6124],[6.89121,46.6055],[6.89163,46.60264],[6.88333,46.59621],[6.88808,46.59477],[6.88346,46.59446],[6.88431,46.59733],[6.88259,46.59792],[6.87738,46.59544],[6.87484,46.59651],[6.86323,46.59088],[6.8528,46.58209],[6.85261,46.58198]]]}},{"type":"Feature","properties":{"name":"Le Mouret","cantonId":"fribourg","municipalityId":"le-mouret-2220"},"geometry":{"type":"Polygon","coordinates":[[[7.19291,46.70112],[7.17813,46.71139],[7.1711,46.72365],[7.16529,46.72549],[7.15959,46.73182],[7.14913,46.73573],[7.15128,46.73934],[7.1491,46.74067],[7.15218,46.74292],[7.17182,46.74355],[7.16711,46.75714],[7.1704,46.75909],[7.18435,46.75932],[7.2069,46.74307],[7.20928,46.73837],[7.21831,46.739],[7.22015,46.73737],[7.21583,46.73262],[7.21418,46.72469],[7.21721,46.71731],[7.20823,46.7136],[7.20602,46.7106],[7.20707,46.70872],[7.19818,46.70568],[7.19312,46.70126],[7.19291,46.70112]]]}},{"type":"Feature","properties":{"name":"Le Pâquier (FR)","cantonId":"fribourg","municipalityId":"le-paquier-fr-2145"},"geometry":{"type":"Polygon","coordinates":[[[7.03942,46.57636],[7.03512,46.57735],[7.03551,46.57991],[7.04119,46.58202],[7.0401,46.58346],[7.04679,46.58663],[7.04736,46.58922],[7.04108,46.59382],[7.03711,46.60202],[7.03349,46.60446],[7.03559,46.60802],[7.04361,46.61131],[7.03985,46.60803],[7.04368,46.59826],[7.0547,46.60377],[7.05448,46.60075],[7.05762,46.59788],[7.06135,46.59976],[7.06681,46.59537],[7.06482,46.59437],[7.06903,46.59334],[7.06505,46.58519],[7.05728,46.58265],[7.05589,46.5798],[7.04012,46.57684],[7.03942,46.57636]]]}},{"type":"Feature","properties":{"name":"Les Montets","cantonId":"fribourg","municipalityId":"les-montets-2050"},"geometry":{"type":"Polygon","coordinates":[[[6.84004,46.79958],[6.83115,46.80323],[6.8333,46.80777],[6.84654,46.81871],[6.85717,46.82046],[6.85621,46.82363],[6.85899,46.82535],[6.85699,46.82693],[6.86231,46.83126],[6.86288,46.83561],[6.86556,46.83418],[6.86721,46.83564],[6.86576,46.83297],[6.88104,46.82622],[6.88198,46.82114],[6.87883,46.81944],[6.88114,46.8171],[6.87421,46.81581],[6.87508,46.81407],[6.87304,46.81547],[6.8652,46.81316],[6.85662,46.80491],[6.86738,46.79756],[6.86715,46.79342],[6.87623,46.79362],[6.87799,46.78864],[6.87391,46.78729],[6.87553,46.78452],[6.87067,46.7859],[6.86389,46.78441],[6.85909,46.788],[6.85038,46.78615],[6.83916,46.79489],[6.84231,46.79747],[6.8407,46.79901],[6.84004,46.79958]]]}},{"type":"Feature","properties":{"name":"Lully (FR)","cantonId":"fribourg","municipalityId":"lully-fr-2025"},"geometry":{"type":"Polygon","coordinates":[[[6.84248,46.82956],[6.83577,46.83726],[6.8475,46.83996],[6.84705,46.83686],[6.85686,46.84079],[6.85936,46.83724],[6.85742,46.83566],[6.85994,46.83623],[6.86231,46.83126],[6.85802,46.82913],[6.857,46.82668],[6.85887,46.82435],[6.85581,46.82209],[6.85717,46.82046],[6.84654,46.81871],[6.83697,46.80943],[6.82479,46.80467],[6.8222,46.80866],[6.81529,46.81072],[6.82041,46.81369],[6.81963,46.81729],[6.83335,46.82115],[6.83184,46.82176],[6.83737,46.8243],[6.84383,46.82291],[6.84338,46.8295],[6.84248,46.82956]]]}},{"type":"Feature","properties":{"name":"Marly","cantonId":"fribourg","municipalityId":"marly-2206"},"geometry":{"type":"Polygon","coordinates":[[[7.162,46.76617],[7.14344,46.7703],[7.13991,46.76962],[7.13653,46.7645],[7.13029,46.76263],[7.12533,46.76969],[7.12753,46.77052],[7.1213,46.77458],[7.12687,46.781],[7.13298,46.78358],[7.1301,46.78687],[7.13433,46.78737],[7.14156,46.78426],[7.14475,46.78615],[7.14565,46.7904],[7.15237,46.7882],[7.15484,46.79094],[7.15818,46.78537],[7.16133,46.78541],[7.16369,46.78256],[7.16604,46.78368],[7.16951,46.77888],[7.17366,46.77916],[7.17067,46.77494],[7.1806,46.77038],[7.17855,46.76672],[7.17611,46.76401],[7.17325,46.76644],[7.1717,46.76424],[7.16894,46.76687],[7.16221,46.76633],[7.162,46.76617]]]}},{"type":"Feature","properties":{"name":"Marsens","cantonId":"fribourg","municipalityId":"marsens-2140"},"geometry":{"type":"Polygon","coordinates":[[[6.99994,46.65758],[7.00391,46.65826],[7.00467,46.66107],[7.01348,46.66211],[7.01285,46.66376],[7.01615,46.661],[7.02468,46.66518],[7.02885,46.66225],[7.02858,46.6597],[7.0409,46.66283],[7.05698,46.66015],[7.05632,46.6617],[7.07198,46.66617],[7.07464,46.66508],[7.07532,46.66689],[7.08392,46.66537],[7.09374,46.67394],[7.09877,46.66919],[7.08856,46.66073],[7.08073,46.65952],[7.07725,46.65309],[7.0726,46.65413],[7.0699,46.65043],[7.06365,46.65048],[7.0615,46.64855],[7.03959,46.65188],[7.02982,46.64989],[7.02234,46.65254],[7.01104,46.65229],[7.00701,46.65666],[7.00069,46.65643],[6.99994,46.65758]]]}},{"type":"Feature","properties":{"name":"Massonnens","cantonId":"fribourg","municipalityId":"massonnens-2086"},"geometry":{"type":"Polygon","coordinates":[[[6.96304,46.69314],[6.96512,46.70139],[6.96053,46.70295],[6.96157,46.70457],[6.96965,46.70452],[6.97006,46.70696],[6.98107,46.71019],[6.98456,46.70835],[6.98254,46.70618],[6.98691,46.70191],[6.98781,46.69845],[6.98623,46.69758],[6.99216,46.69416],[6.99443,46.68797],[6.98773,46.69033],[6.9832,46.68596],[6.977,46.6876],[6.97406,46.68415],[6.97136,46.68458],[6.96231,46.68906],[6.96602,46.69232],[6.96304,46.6931],[6.96304,46.69314]]]}},{"type":"Feature","properties":{"name":"Matran","cantonId":"fribourg","municipalityId":"matran-2208"},"geometry":{"type":"Polygon","coordinates":[[[7.06961,46.77813],[7.07262,46.77955],[7.07324,46.78334],[7.08328,46.78745],[7.08992,46.7872],[7.10352,46.79545],[7.10411,46.78989],[7.10693,46.78935],[7.10776,46.78514],[7.09439,46.77876],[7.09131,46.77396],[7.08421,46.77894],[7.07615,46.77639],[7.06983,46.77795],[7.06961,46.77813]]]}},{"type":"Feature","properties":{"name":"Meyriez","cantonId":"fribourg","municipalityId":"meyriez-2271"},"geometry":{"type":"Polygon","coordinates":[[[7.0883,46.93289],[7.09879,46.93822],[7.11236,46.92427],[7.10363,46.9193],[7.09988,46.92219],[7.0883,46.93289]]]}},{"type":"Feature","properties":{"name":"Mézières (FR)","cantonId":"fribourg","municipalityId":"mezieres-fr-2087"},"geometry":{"type":"Polygon","coordinates":[[[6.96304,46.69314],[6.96057,46.69393],[6.9557,46.68804],[6.9482,46.68667],[6.94144,46.67362],[6.93105,46.66709],[6.92849,46.66872],[6.92848,46.66652],[6.92485,46.66746],[6.92061,46.66523],[6.90988,46.66852],[6.90787,46.67035],[6.91063,46.67398],[6.91026,46.67786],[6.92516,46.69468],[6.93387,46.69086],[6.93896,46.69546],[6.94378,46.69543],[6.95777,46.70762],[6.96329,46.70639],[6.96053,46.70295],[6.96502,46.70184],[6.9631,46.69328],[6.96304,46.69314]]]}},{"type":"Feature","properties":{"name":"Misery-Courtion","cantonId":"fribourg","municipalityId":"misery-courtion-2272"},"geometry":{"type":"Polygon","coordinates":[[[7.05516,46.8503],[7.05545,46.85242],[7.04922,46.85422],[7.05397,46.85624],[7.06261,46.86714],[7.07575,46.86949],[7.08446,46.87518],[7.0875,46.8735],[7.09324,46.87462],[7.10364,46.87051],[7.10505,46.86835],[7.10357,46.86739],[7.10653,46.86731],[7.111,46.86128],[7.11339,46.86205],[7.11441,46.86075],[7.11237,46.85942],[7.11703,46.85431],[7.11592,46.85211],[7.09366,46.84281],[7.09463,46.84499],[7.08602,46.84896],[7.07281,46.84167],[7.06731,46.84705],[7.05532,46.85028],[7.05516,46.8503]]]}},{"type":"Feature","properties":{"name":"Mont-Vully","cantonId":"fribourg","municipalityId":"mont-vully-2284"},"geometry":{"type":"Polygon","coordinates":[[[7.04034,46.97952],[7.05778,46.97687],[7.0923,46.97613],[7.14657,46.9849],[7.15071,46.97753],[7.14628,46.97772],[7.12533,46.96594],[7.12756,46.96471],[7.11836,46.95892],[7.11637,46.94714],[7.07218,46.92471],[7.05788,46.93861],[7.06138,46.944],[7.05874,46.9538],[7.05646,46.95522],[7.05961,46.95581],[7.05741,46.95956],[7.05964,46.96309],[7.0579,46.96541],[7.0613,46.96677],[7.06024,46.96874],[7.06304,46.97111],[7.05237,46.97704],[7.0434,46.97892],[7.04034,46.97952]]]}},{"type":"Feature","properties":{"name":"Montagny (FR)","cantonId":"fribourg","municipalityId":"montagny-fr-2029"},"geometry":{"type":"MultiPolygon","coordinates":[[[[6.98025,46.77618],[6.97118,46.78228],[6.96914,46.78723],[6.95644,46.79052],[6.95693,46.79467],[6.96666,46.8027],[6.95885,46.80986],[6.95651,46.81494],[6.96022,46.81776],[6.95785,46.81874],[6.96514,46.82824],[6.97101,46.82405],[6.98475,46.82193],[6.99377,46.83289],[6.99716,46.8324],[6.99643,46.83057],[7.00003,46.82984],[6.99857,46.82858],[7.00134,46.8291],[7.00502,46.82568],[7.00333,46.82471],[7.00431,46.8209],[7.00632,46.82186],[7.01416,46.81665],[7.02402,46.81793],[7.02308,46.81499],[7.02715,46.81521],[7.01564,46.81298],[7.01654,46.811],[7.00779,46.80615],[7.01128,46.80284],[7.00953,46.80071],[7.01335,46.79779],[7.01249,46.7958],[6.994,46.7899],[6.99072,46.78415],[6.98043,46.77626],[6.98025,46.77618]]],[[[6.97103,46.82656],[6.97076,46.82714],[6.97096,46.82738],[6.97155,46.82702],[6.972,46.82658],[6.97165,46.82627],[6.97121,46.82603],[6.97106,46.82603],[6.97103,46.82656]]]]}},{"type":"Feature","properties":{"name":"Morlon","cantonId":"fribourg","municipalityId":"morlon-2143"},"geometry":{"type":"Polygon","coordinates":[[[7.09887,46.63587],[7.10329,46.63262],[7.10285,46.61215],[7.08799,46.61443],[7.08595,46.61954],[7.08349,46.61663],[7.07567,46.61844],[7.07897,46.62476],[7.07727,46.62969],[7.08258,46.63365],[7.0922,46.63616],[7.09887,46.63587]]]}},{"type":"Feature","properties":{"name":"Muntelier","cantonId":"fribourg","municipalityId":"muntelier-2274"},"geometry":{"type":"Polygon","coordinates":[[[7.11034,46.94408],[7.11637,46.94714],[7.13073,46.94581],[7.14375,46.95073],[7.14639,46.9441],[7.12506,46.9336],[7.12059,46.9346],[7.11034,46.94408]]]}},{"type":"Feature","properties":{"name":"Murten","cantonId":"fribourg","municipalityId":"murten-2275"},"geometry":{"type":"MultiPolygon","coordinates":[[[[7.17827,46.90255],[7.1758,46.90116],[7.17625,46.89906],[7.16095,46.89839],[7.15346,46.90541],[7.15073,46.90358],[7.14307,46.90817],[7.13823,46.90837],[7.13548,46.91196],[7.13466,46.91939],[7.11228,46.91569],[7.10856,46.92011],[7.09938,46.91138],[7.09397,46.92091],[7.08359,46.93051],[7.0883,46.93289],[7.10363,46.9193],[7.11236,46.92427],[7.09879,46.93822],[7.11034,46.94408],[7.12411,46.9333],[7.14639,46.9441],[7.14375,46.95073],[7.13073,46.94581],[7.11637,46.94714],[7.11836,46.95892],[7.12756,46.96471],[7.12533,46.96594],[7.14628,46.97772],[7.15071,46.97753],[7.14657,46.9849],[7.15352,46.98628],[7.16253,46.97001],[7.16487,46.96933],[7.16317,46.96723],[7.16605,46.9668],[7.17034,46.96034],[7.17312,46.96046],[7.17011,46.95642],[7.17372,46.95262],[7.17082,46.95206],[7.17119,46.95014],[7.1847,46.94994],[7.18549,46.9476],[7.18907,46.94858],[7.18863,46.94514],[7.19586,46.9487],[7.21011,46.94781],[7.20951,46.94188],[7.20359,46.94054],[7.20196,46.9393],[7.2039,46.93847],[7.18825,46.93752],[7.18715,46.93545],[7.19044,46.9357],[7.18677,46.93429],[7.18551,46.92979],[7.17598,46.92652],[7.17841,46.92519],[7.1733,46.92428],[7.17452,46.92044],[7.16746,46.91912],[7.16848,46.9166],[7.16342,46.91429],[7.16516,46.91101],[7.1783,46.91126],[7.17948,46.90944],[7.17405,46.90774],[7.1782,46.90252],[7.17827,46.90255]]],[[[7.11871,46.90239],[7.12304,46.9002],[7.12447,46.8955],[7.12793,46.89579],[7.12979,46.89295],[7.11289,46.88574],[7.11812,46.8838],[7.10516,46.88484],[7.09911,46.88218],[7.09434,46.88436],[7.09655,46.88635],[7.09195,46.89007],[7.10825,46.89828],[7.11385,46.89749],[7.11417,46.90052],[7.11812,46.90219],[7.11871,46.90239]]],[[[7.09071,46.89182],[7.08264,46.89391],[7.08884,46.89972],[7.08623,46.90192],[7.09086,46.90382],[7.09736,46.89995],[7.10334,46.90126],[7.09109,46.89204],[7.09071,46.89182]]]]}},{"type":"Feature","properties":{"name":"Neyruz (FR)","cantonId":"fribourg","municipalityId":"neyruz-fr-2211"},"geometry":{"type":"Polygon","coordinates":[[[7.06961,46.77813],[7.07615,46.77639],[7.08421,46.77894],[7.09131,46.77396],[7.08724,46.76911],[7.08179,46.76618],[7.07738,46.76762],[7.07845,46.76556],[7.06562,46.7621],[7.06035,46.75502],[7.05327,46.75343],[7.04394,46.75991],[7.04643,46.76584],[7.04329,46.76674],[7.0548,46.77255],[7.05494,46.77563],[7.06957,46.7781],[7.06961,46.77813]]]}},{"type":"Feature","properties":{"name":"Nuvilly","cantonId":"fribourg","municipalityId":"nuvilly-2035"},"geometry":{"type":"Polygon","coordinates":[[[6.84004,46.79958],[6.84231,46.79747],[6.83916,46.79489],[6.84996,46.788],[6.8516,46.78588],[6.84922,46.78405],[6.85049,46.78235],[6.84321,46.77872],[6.83949,46.78096],[6.83308,46.77454],[6.82806,46.77663],[6.8254,46.77284],[6.81866,46.77814],[6.81242,46.77893],[6.8396,46.79924],[6.84004,46.79958]]]}},{"type":"Feature","properties":{"name":"Pierrafortscha","cantonId":"fribourg","municipalityId":"pierrafortscha-2216"},"geometry":{"type":"Polygon","coordinates":[[[7.17583,46.79389],[7.1778,46.78896],[7.19572,46.79127],[7.19192,46.78405],[7.19821,46.78177],[7.19997,46.77882],[7.19591,46.77404],[7.18896,46.77361],[7.18413,46.76399],[7.17637,46.76403],[7.1806,46.77038],[7.17067,46.77494],[7.17366,46.77916],[7.16951,46.77888],[7.16604,46.78368],[7.16369,46.78256],[7.16133,46.78541],[7.16318,46.79137],[7.17085,46.79315],[7.17583,46.79389]]]}},{"type":"Feature","properties":{"name":"Plaffeien","cantonId":"fribourg","municipalityId":"plaffeien-2299"},"geometry":{"type":"Polygon","coordinates":[[[7.26412,46.75169],[7.27766,46.74575],[7.28181,46.74612],[7.28575,46.7498],[7.28313,46.75655],[7.28951,46.75926],[7.28984,46.76315],[7.29842,46.76542],[7.30359,46.75919],[7.30437,46.74984],[7.29686,46.73711],[7.29675,46.72781],[7.30053,46.72212],[7.30792,46.71718],[7.32819,46.71662],[7.34951,46.7122],[7.35061,46.70855],[7.34574,46.69894],[7.36257,46.69918],[7.36861,46.69261],[7.37694,46.69271],[7.38021,46.69018],[7.37592,46.68777],[7.37775,46.68355],[7.3729,46.68015],[7.37645,46.67503],[7.37114,46.66939],[7.37191,46.66279],[7.36928,46.65558],[7.37726,46.65626],[7.36208,46.6479],[7.35728,46.63928],[7.35582,46.64536],[7.35077,46.64796],[7.35072,46.65163],[7.34557,46.65534],[7.32325,46.65534],[7.32114,46.65462],[7.32969,46.64183],[7.32492,46.63772],[7.30844,46.63574],[7.303,46.64083],[7.3182,46.65208],[7.30459,46.65888],[7.30385,46.66154],[7.29289,46.66985],[7.28493,46.66869],[7.27619,46.65966],[7.26373,46.6635],[7.25425,46.67091],[7.26444,46.68737],[7.26549,46.69831],[7.27054,46.70059],[7.27002,46.70337],[7.27289,46.70572],[7.26737,46.71455],[7.26752,46.71771],[7.26125,46.72348],[7.26274,46.72941],[7.25909,46.73505],[7.26387,46.73531],[7.26388,46.73734],[7.25545,46.74111],[7.25118,46.75092],[7.26371,46.75148],[7.26412,46.75169]]]}},{"type":"Feature","properties":{"name":"Plasselb","cantonId":"fribourg","municipalityId":"plasselb-2300"},"geometry":{"type":"Polygon","coordinates":[[[7.23901,46.73695],[7.2402,46.73941],[7.24538,46.74052],[7.24803,46.74561],[7.24675,46.74888],[7.25159,46.75074],[7.25545,46.74111],[7.26388,46.73734],[7.26387,46.73531],[7.25909,46.73505],[7.26274,46.72941],[7.26125,46.72348],[7.26752,46.71771],[7.26737,46.71455],[7.2729,46.70583],[7.27002,46.70337],[7.27054,46.70059],[7.26549,46.69831],[7.26444,46.68737],[7.25409,46.67142],[7.24715,46.67503],[7.24584,46.68257],[7.25159,46.6896],[7.23822,46.70981],[7.22144,46.70284],[7.21671,46.69563],[7.19291,46.70112],[7.19818,46.70568],[7.20707,46.70872],[7.20602,46.7106],[7.20823,46.7136],[7.21644,46.71725],[7.22994,46.71899],[7.2305,46.72261],[7.23993,46.73039],[7.23947,46.73696],[7.23901,46.73695]]]}},{"type":"Feature","properties":{"name":"Pont-en-Ogoz","cantonId":"fribourg","municipalityId":"pont-en-ogoz-2122"},"geometry":{"type":"Polygon","coordinates":[[[7.0754,46.66683],[7.07747,46.67225],[7.07109,46.6723],[7.05836,46.68098],[7.04782,46.68243],[7.04374,46.68613],[7.04709,46.6887],[7.04789,46.69288],[7.06071,46.6913],[7.06809,46.69898],[7.07877,46.70202],[7.07704,46.70502],[7.08141,46.70624],[7.08099,46.70882],[7.09044,46.71073],[7.09331,46.70898],[7.09804,46.70494],[7.09863,46.70067],[7.10369,46.69745],[7.09727,46.69759],[7.09379,46.69532],[7.1003,46.69173],[7.10534,46.69438],[7.10869,46.69207],[7.1033,46.68407],[7.09579,46.6784],[7.09447,46.67347],[7.09143,46.67337],[7.0861,46.66678],[7.07505,46.66611],[7.0754,46.66683]]]}},{"type":"Feature","properties":{"name":"Pont-la-Ville","cantonId":"fribourg","municipalityId":"pont-la-ville-2147"},"geometry":{"type":"Polygon","coordinates":[[[7.12841,46.71526],[7.12318,46.70993],[7.12521,46.70233],[7.11957,46.69584],[7.12107,46.69219],[7.11899,46.68755],[7.11367,46.68531],[7.1058,46.68689],[7.10869,46.69207],[7.10577,46.69426],[7.1003,46.69173],[7.09379,46.69532],[7.09727,46.69759],[7.10369,46.69745],[7.09863,46.70067],[7.09804,46.70494],[7.09474,46.7068],[7.10069,46.71102],[7.10501,46.71026],[7.10688,46.71466],[7.11396,46.72051],[7.12193,46.71489],[7.12743,46.71532],[7.12841,46.71526]]]}},{"type":"Feature","properties":{"name":"Prévondavaux","cantonId":"fribourg","municipalityId":"prevondavaux-2038"},"geometry":{"type":"Polygon","coordinates":[[[6.81748,46.73329],[6.80736,46.72701],[6.79298,46.72556],[6.78804,46.72866],[6.79558,46.73633],[6.79811,46.73406],[6.81173,46.73771],[6.8156,46.7357],[6.81251,46.7325],[6.81747,46.73332],[6.81748,46.73329]]]}},{"type":"Feature","properties":{"name":"Prez","cantonId":"fribourg","municipalityId":"prez-2237"},"geometry":{"type":"Polygon","coordinates":[[[6.97952,46.75824],[6.97412,46.76425],[6.97833,46.76707],[6.97714,46.76841],[6.98093,46.77832],[6.99072,46.78415],[6.994,46.7899],[7.01249,46.7958],[7.01335,46.79779],[7.00953,46.80071],[7.01128,46.80284],[7.00779,46.80615],[7.01654,46.811],[7.01564,46.81298],[7.03154,46.81356],[7.03166,46.81086],[7.03506,46.81061],[7.03766,46.80599],[7.05078,46.80702],[7.05143,46.80524],[7.05315,46.80573],[7.05258,46.80803],[7.06449,46.80794],[7.06638,46.80693],[7.0651,46.80509],[7.06735,46.80275],[7.0673,46.79778],[7.05411,46.79305],[7.03791,46.79448],[7.03808,46.78735],[7.03173,46.78314],[7.03498,46.78116],[7.0161,46.77863],[7.00846,46.77191],[7.00287,46.77181],[7.00017,46.76779],[6.99165,46.76638],[6.97955,46.75829],[6.97952,46.75824]]]}},{"type":"Feature","properties":{"name":"Rechthalten","cantonId":"fribourg","municipalityId":"rechthalten-2301"},"geometry":{"type":"Polygon","coordinates":[[[7.25115,46.75087],[7.23934,46.75241],[7.23412,46.7565],[7.22901,46.75662],[7.22539,46.76353],[7.22148,46.76563],[7.22399,46.7735],[7.24151,46.77527],[7.24571,46.77261],[7.25338,46.77403],[7.26306,46.76898],[7.26908,46.7691],[7.26667,46.76663],[7.26815,46.75813],[7.26418,46.75173],[7.25118,46.75092],[7.25115,46.75087]]]}},{"type":"Feature","properties":{"name":"Remaufens","cantonId":"fribourg","municipalityId":"remaufens-2333"},"geometry":{"type":"Polygon","coordinates":[[[6.88327,46.51347],[6.87735,46.51515],[6.87331,46.51989],[6.87504,46.5376],[6.86681,46.53686],[6.86671,46.5407],[6.88847,46.55831],[6.89167,46.55733],[6.89341,46.55923],[6.89696,46.55618],[6.8922,46.54661],[6.89093,46.52741],[6.88322,46.51382],[6.88327,46.51347]]]}},{"type":"Feature","properties":{"name":"Riaz","cantonId":"fribourg","municipalityId":"riaz-2148"},"geometry":{"type":"Polygon","coordinates":[[[7.03123,46.63457],[7.02247,46.63311],[7.02536,46.62952],[7.03081,46.62824],[7.02224,46.62675],[7.01885,46.63256],[7.02159,46.6372],[7.01228,46.64204],[7.01519,46.64505],[7.01104,46.65229],[7.0138,46.65309],[7.02982,46.64989],[7.04173,46.65169],[7.05809,46.64838],[7.06365,46.65048],[7.06583,46.64967],[7.06395,46.64813],[7.07855,46.63534],[7.07484,46.63089],[7.06597,46.63505],[7.05159,46.63389],[7.03681,46.64054],[7.03059,46.63637],[7.03123,46.63459],[7.03123,46.63457]]]}},{"type":"Feature","properties":{"name":"Ried bei Kerzers","cantonId":"fribourg","municipalityId":"ried-bei-kerzers-2276"},"geometry":{"type":"Polygon","coordinates":[[[7.15352,46.98628],[7.16016,46.9874],[7.1699,46.98401],[7.16758,46.98338],[7.17352,46.97907],[7.18041,46.96723],[7.19437,46.9674],[7.19459,46.96135],[7.20001,46.95909],[7.20742,46.95967],[7.211,46.95658],[7.20776,46.949],[7.19335,46.94821],[7.19122,46.94517],[7.18853,46.94515],[7.18907,46.94858],[7.18549,46.9476],[7.1847,46.94994],[7.17119,46.95014],[7.17082,46.95206],[7.17372,46.95262],[7.17011,46.95642],[7.17312,46.96046],[7.17034,46.96034],[7.16605,46.9668],[7.16317,46.96723],[7.16487,46.96933],[7.16253,46.97001],[7.15403,46.98537],[7.15352,46.98628]]]}},{"type":"Feature","properties":{"name":"Romont (FR)","cantonId":"fribourg","municipalityId":"romont-fr-2096"},"geometry":{"type":"Polygon","coordinates":[[[6.89231,46.70258],[6.90451,46.71416],[6.91648,46.72004],[6.91773,46.71871],[6.92214,46.72355],[6.92927,46.71972],[6.92613,46.71693],[6.9278,46.71231],[6.94096,46.70305],[6.96033,46.71181],[6.959,46.7069],[6.94378,46.69543],[6.93896,46.69546],[6.93387,46.69086],[6.92516,46.69468],[6.90804,46.6743],[6.90099,46.67699],[6.89915,46.67369],[6.89361,46.67488],[6.8963,46.68152],[6.90106,46.68592],[6.90326,46.68557],[6.90513,46.69077],[6.90914,46.69302],[6.89932,46.69886],[6.89347,46.69986],[6.89256,46.70245],[6.89231,46.70258]]]}},{"type":"Feature","properties":{"name":"Rue","cantonId":"fribourg","municipalityId":"rue-2097"},"geometry":{"type":"Polygon","coordinates":[[[6.79921,46.58355],[6.80123,46.5925],[6.79833,46.59987],[6.80238,46.60142],[6.80355,46.62124],[6.80228,46.62775],[6.79692,46.63314],[6.80171,46.64421],[6.80724,46.6438],[6.8107,46.63798],[6.80729,46.63305],[6.80841,46.6289],[6.82113,46.63396],[6.82495,46.62764],[6.83936,46.62761],[6.8392,46.6197],[6.85166,46.61473],[6.8435,46.60675],[6.84831,46.6042],[6.84788,46.60131],[6.84974,46.60085],[6.84223,46.59017],[6.84394,46.58478],[6.83744,46.57677],[6.83485,46.57534],[6.82371,46.57748],[6.82062,46.58366],[6.8141,46.58567],[6.81152,46.58099],[6.81322,46.57823],[6.80489,46.57793],[6.80256,46.57492],[6.79723,46.5743],[6.79477,46.57542],[6.79922,46.58351],[6.79921,46.58355]]]}},{"type":"Feature","properties":{"name":"Saint-Aubin (FR)","cantonId":"fribourg","municipalityId":"saint-aubin-fr-2041"},"geometry":{"type":"Polygon","coordinates":[[[6.99495,46.87807],[6.99198,46.87591],[6.98909,46.8782],[6.98611,46.87626],[6.97375,46.88732],[6.96333,46.88281],[6.96074,46.88493],[6.95719,46.89043],[6.96044,46.89227],[6.95659,46.89546],[6.97259,46.90692],[6.97321,46.90553],[6.97551,46.90735],[6.97921,46.90388],[6.98401,46.90772],[7.00951,46.88904],[6.9938,46.87897],[6.99497,46.87808],[6.99495,46.87807]]]}},{"type":"Feature","properties":{"name":"Saint-Martin (FR)","cantonId":"fribourg","municipalityId":"saint-martin-fr-2335"},"geometry":{"type":"Polygon","coordinates":[[[6.8717,46.56965],[6.86553,46.57725],[6.85261,46.58198],[6.86398,46.59136],[6.87991,46.59763],[6.88387,46.59758],[6.88346,46.59446],[6.88718,46.59426],[6.8856,46.59681],[6.88331,46.59614],[6.88392,46.59761],[6.89766,46.60206],[6.89868,46.59988],[6.89594,46.59703],[6.90361,46.59548],[6.91009,46.59046],[6.89625,46.5813],[6.89913,46.57775],[6.89795,46.57539],[6.90303,46.57244],[6.88816,46.5677],[6.8845,46.56195],[6.87943,46.56713],[6.87446,46.56497],[6.87235,46.56852],[6.8717,46.56965]]]}},{"type":"Feature","properties":{"name":"Sâles","cantonId":"fribourg","municipalityId":"sales-2152"},"geometry":{"type":"Polygon","coordinates":[[[6.99994,46.65758],[7.00701,46.65666],[7.01014,46.65402],[7.01519,46.64505],[7.01291,46.64078],[7.00093,46.63308],[6.96913,46.62273],[6.9657,46.62014],[6.96867,46.61784],[6.95547,46.61046],[6.96283,46.60533],[6.95964,46.60349],[6.95219,46.60129],[6.94185,46.61709],[6.94488,46.61898],[6.94779,46.61674],[6.95166,46.61962],[6.94832,46.62412],[6.95067,46.62619],[6.94796,46.62883],[6.95069,46.63305],[6.94348,46.6411],[6.94686,46.64357],[6.9451,46.64696],[6.94843,46.65511],[6.95842,46.65603],[6.96429,46.66095],[6.97218,46.66016],[6.97573,46.66201],[6.98244,46.65579],[6.98527,46.65747],[6.99306,46.65566],[6.99951,46.65739],[6.99994,46.65758]]]}},{"type":"Feature","properties":{"name":"Schmitten (FR)","cantonId":"fribourg","municipalityId":"schmitten-fr-2305"},"geometry":{"type":"Polygon","coordinates":[[[7.22318,46.87014],[7.2262,46.87009],[7.22631,46.86624],[7.23483,46.86652],[7.24053,46.86345],[7.24791,46.86404],[7.25007,46.86647],[7.25673,46.86512],[7.25781,46.86255],[7.26094,46.86409],[7.26487,46.86124],[7.26992,46.86196],[7.27929,46.85467],[7.28338,46.85426],[7.27804,46.85321],[7.2768,46.85039],[7.27111,46.85008],[7.27304,46.84757],[7.26415,46.84128],[7.26123,46.83269],[7.25236,46.82802],[7.2437,46.82671],[7.24003,46.82762],[7.23736,46.83162],[7.23314,46.83136],[7.23216,46.82868],[7.22269,46.83544],[7.22395,46.84059],[7.22152,46.84219],[7.22699,46.84421],[7.22324,46.84992],[7.22724,46.85296],[7.22507,46.85591],[7.2263,46.85838],[7.22082,46.86096],[7.21942,46.8691],[7.22307,46.87015],[7.22318,46.87014]]]}},{"type":"Feature","properties":{"name":"Semsales","cantonId":"fribourg","municipalityId":"semsales-2336"},"geometry":{"type":"Polygon","coordinates":[[[7.01077,46.54576],[7.00789,46.54443],[7.00283,46.5352],[6.99629,46.53403],[6.98625,46.54794],[6.96433,46.54517],[6.95036,46.54885],[6.93104,46.55864],[6.91853,46.55683],[6.91129,46.55973],[6.91137,46.5634],[6.90613,46.56438],[6.90205,46.56116],[6.89884,46.565],[6.90165,46.56973],[6.89797,46.57059],[6.89965,46.57246],[6.91008,46.57363],[6.91588,46.57804],[6.92323,46.58864],[6.92928,46.58574],[6.93092,46.58764],[6.93299,46.58667],[6.95208,46.60139],[6.96277,46.60506],[6.98059,46.5823],[6.99998,46.57357],[6.98601,46.56253],[6.9818,46.5551],[6.98793,46.5521],[6.99576,46.55317],[7.01077,46.54576]]]}},{"type":"Feature","properties":{"name":"Sévaz","cantonId":"fribourg","municipalityId":"sevaz-2043"},"geometry":{"type":"Polygon","coordinates":[[[6.86721,46.83564],[6.85973,46.8404],[6.86833,46.84352],[6.8665,46.84611],[6.87874,46.84936],[6.88264,46.84763],[6.88184,46.84276],[6.88515,46.84236],[6.88454,46.8382],[6.87968,46.83516],[6.87887,46.8327],[6.88073,46.83268],[6.87791,46.82778],[6.86576,46.83297],[6.86769,46.83538],[6.86721,46.83564]]]}},{"type":"Feature","properties":{"name":"Siviriez","cantonId":"fribourg","municipalityId":"siviriez-2099"},"geometry":{"type":"Polygon","coordinates":[[[6.88821,46.62532],[6.88444,46.62623],[6.87801,46.62302],[6.865,46.62335],[6.8667,46.62728],[6.86215,46.62807],[6.86122,46.63413],[6.86428,46.64086],[6.85921,46.6431],[6.8592,46.64535],[6.85355,46.64632],[6.85151,46.65031],[6.85259,46.65479],[6.85939,46.65995],[6.86472,46.65845],[6.86801,46.66077],[6.86833,46.66297],[6.86439,46.66476],[6.87371,46.67574],[6.88371,46.67396],[6.89423,46.67875],[6.89548,46.67636],[6.89361,46.67488],[6.89915,46.67369],[6.90099,46.67699],[6.91017,46.67476],[6.90787,46.67035],[6.90988,46.66852],[6.91992,46.66528],[6.92609,46.66675],[6.92556,46.66165],[6.91828,46.65343],[6.92015,46.65035],[6.91852,46.64722],[6.91508,46.6449],[6.90836,46.64864],[6.90204,46.64222],[6.89593,46.64035],[6.89412,46.63713],[6.89134,46.63755],[6.89052,46.63344],[6.89627,46.63077],[6.89468,46.62783],[6.88834,46.62538],[6.88821,46.62532]]]}},{"type":"Feature","properties":{"name":"Sorens","cantonId":"fribourg","municipalityId":"sorens-2153"},"geometry":{"type":"Polygon","coordinates":[[[7.04068,46.68445],[7.04374,46.68613],[7.04782,46.68243],[7.05836,46.68098],[7.07109,46.6723],[7.07747,46.67225],[7.07464,46.66508],[7.0627,46.66371],[7.05616,46.66162],[7.05698,46.66015],[7.0409,46.66283],[7.02858,46.6597],[7.02885,46.66225],[7.02468,46.66518],[7.01615,46.661],[7.01244,46.66428],[7.01533,46.66779],[7.01397,46.67163],[7.02171,46.6774],[7.0397,46.68414],[7.04068,46.68445]]]}},{"type":"Feature","properties":{"name":"St. Silvester","cantonId":"fribourg","municipalityId":"st-silvester-2303"},"geometry":{"type":"Polygon","coordinates":[[[7.23901,46.73695],[7.24064,46.73576],[7.23993,46.73039],[7.2305,46.72261],[7.22994,46.71899],[7.21721,46.71731],[7.21418,46.72469],[7.21583,46.73262],[7.22015,46.73737],[7.21831,46.739],[7.20928,46.73837],[7.2069,46.74307],[7.19642,46.75028],[7.1944,46.75389],[7.20196,46.75666],[7.20808,46.75353],[7.22401,46.75166],[7.23389,46.74291],[7.23514,46.73758],[7.23782,46.73691],[7.23901,46.73695]]]}},{"type":"Feature","properties":{"name":"St. Ursen","cantonId":"fribourg","municipalityId":"st-ursen-2304"},"geometry":{"type":"Polygon","coordinates":[[[7.26898,46.76891],[7.26306,46.76898],[7.25338,46.77403],[7.24571,46.77261],[7.24077,46.77533],[7.23446,46.77333],[7.22828,46.77533],[7.22166,46.77101],[7.2172,46.77436],[7.20622,46.77605],[7.19192,46.78405],[7.19572,46.79127],[7.1778,46.78896],[7.17555,46.7942],[7.18343,46.79882],[7.18189,46.80281],[7.18648,46.80234],[7.20248,46.80768],[7.21586,46.80376],[7.22011,46.79607],[7.22718,46.79013],[7.24326,46.78987],[7.25619,46.79247],[7.26231,46.79077],[7.26535,46.78408],[7.27357,46.78039],[7.27195,46.77792],[7.27444,46.77436],[7.27205,46.76923],[7.26964,46.7688],[7.26898,46.76891]]]}},{"type":"Feature","properties":{"name":"Surpierre","cantonId":"fribourg","municipalityId":"surpierre-2044"},"geometry":{"type":"Polygon","coordinates":[[[6.81748,46.73329],[6.81251,46.7325],[6.8156,46.7357],[6.81277,46.73751],[6.81634,46.73833],[6.81512,46.74063],[6.83043,46.75382],[6.82822,46.75448],[6.82932,46.75607],[6.84547,46.76586],[6.8436,46.76656],[6.84882,46.77112],[6.84564,46.7717],[6.84762,46.77494],[6.84893,46.77311],[6.85307,46.77472],[6.85157,46.77227],[6.85442,46.77202],[6.86017,46.7664],[6.85768,46.76275],[6.85883,46.76146],[6.86302,46.76362],[6.86539,46.76257],[6.8693,46.75869],[6.87699,46.75588],[6.87563,46.75389],[6.88209,46.74981],[6.86616,46.73302],[6.86541,46.72933],[6.86793,46.72842],[6.86453,46.72521],[6.84633,46.72748],[6.83256,46.73502],[6.82088,46.7341],[6.81748,46.73329]]]}},{"type":"Feature","properties":{"name":"Tafers","cantonId":"fribourg","municipalityId":"tafers-2306"},"geometry":{"type":"Polygon","coordinates":[[[7.30348,46.78874],[7.30207,46.78638],[7.30447,46.78321],[7.29047,46.77205],[7.29307,46.77136],[7.29593,46.76547],[7.29196,46.7638],[7.28789,46.76557],[7.27969,46.76462],[7.27691,46.76799],[7.2711,46.76849],[7.27444,46.77436],[7.27195,46.77792],[7.27357,46.78039],[7.26535,46.78408],[7.26518,46.78752],[7.26086,46.79152],[7.22718,46.79013],[7.22011,46.79607],[7.21577,46.80382],[7.2002,46.80762],[7.18456,46.80212],[7.18185,46.80285],[7.18085,46.8082],[7.19793,46.81563],[7.20888,46.82337],[7.22321,46.82528],[7.22594,46.82279],[7.2297,46.82358],[7.23335,46.83145],[7.23736,46.83162],[7.24003,46.82762],[7.2437,46.82671],[7.25476,46.82894],[7.2624,46.8339],[7.26685,46.84468],[7.27268,46.8471],[7.27111,46.85008],[7.2768,46.85039],[7.27828,46.85334],[7.28812,46.85568],[7.2849,46.84994],[7.27786,46.84756],[7.27581,46.84366],[7.27684,46.84068],[7.28454,46.83657],[7.28278,46.83377],[7.2853,46.83081],[7.29496,46.8254],[7.2934,46.81977],[7.30021,46.81816],[7.31716,46.82546],[7.31981,46.82515],[7.32095,46.82186],[7.31898,46.81702],[7.3202,46.81481],[7.31032,46.80802],[7.30748,46.79876],[7.30159,46.79283],[7.30351,46.78887],[7.30348,46.78874]]]}},{"type":"Feature","properties":{"name":"Tentlingen","cantonId":"fribourg","municipalityId":"tentlingen-2307"},"geometry":{"type":"Polygon","coordinates":[[[7.22137,46.7688],[7.21534,46.76604],[7.20895,46.77036],[7.20463,46.76933],[7.20205,46.76485],[7.20298,46.76085],[7.19929,46.75994],[7.20196,46.75666],[7.19272,46.75319],[7.19003,46.75574],[7.19054,46.76001],[7.18479,46.76372],[7.18548,46.7696],[7.1896,46.77398],[7.19591,46.77404],[7.19978,46.77922],[7.2172,46.77436],[7.22284,46.77107],[7.22218,46.76905],[7.22137,46.7688]]]}},{"type":"Feature","properties":{"name":"Torny","cantonId":"fribourg","municipalityId":"torny-2115"},"geometry":{"type":"Polygon","coordinates":[[[6.9288,46.76745],[6.93531,46.77154],[6.93124,46.77251],[6.93307,46.7747],[6.93154,46.7754],[6.93811,46.78124],[6.9457,46.78454],[6.95012,46.78278],[6.95865,46.79041],[6.96914,46.78723],[6.97118,46.78228],[6.98035,46.77596],[6.97714,46.76841],[6.97833,46.76707],[6.97412,46.76425],[6.98029,46.75778],[6.975,46.75294],[6.97183,46.75511],[6.96323,46.75141],[6.95505,46.75643],[6.95707,46.75909],[6.95297,46.75844],[6.92884,46.76734],[6.9288,46.76745]]]}},{"type":"Feature","properties":{"name":"Treyvaux","cantonId":"fribourg","municipalityId":"treyvaux-2226"},"geometry":{"type":"Polygon","coordinates":[[[7.12841,46.71526],[7.12193,46.71489],[7.11396,46.72051],[7.11368,46.72372],[7.11043,46.72437],[7.11035,46.72653],[7.115,46.72837],[7.10995,46.73114],[7.11497,46.73476],[7.11178,46.73757],[7.13032,46.73746],[7.13968,46.74063],[7.15044,46.74008],[7.14913,46.73573],[7.15959,46.73182],[7.16529,46.72549],[7.1739,46.72143],[7.1752,46.71464],[7.17813,46.71139],[7.1926,46.70074],[7.18263,46.70238],[7.17866,46.70745],[7.15865,46.71257],[7.15654,46.71501],[7.15188,46.71342],[7.146,46.71581],[7.13949,46.71364],[7.12908,46.7153],[7.12841,46.71526]]]}},{"type":"Feature","properties":{"name":"Ueberstorf","cantonId":"fribourg","municipalityId":"ueberstorf-2308"},"geometry":{"type":"Polygon","coordinates":[[[7.28762,46.85339],[7.29275,46.85894],[7.29216,46.86132],[7.29481,46.86243],[7.29335,46.86303],[7.29766,46.86528],[7.29291,46.86892],[7.30198,46.87269],[7.2986,46.87683],[7.30231,46.8819],[7.30928,46.88391],[7.31307,46.88779],[7.33114,46.88683],[7.34941,46.88902],[7.35339,46.88676],[7.35253,46.87555],[7.35386,46.87129],[7.35838,46.8688],[7.35925,46.86311],[7.34934,46.85331],[7.33821,46.84946],[7.3337,46.8525],[7.32604,46.85163],[7.323,46.85477],[7.3307,46.85763],[7.32087,46.86154],[7.31739,46.8606],[7.31641,46.86259],[7.31258,46.86073],[7.31207,46.85557],[7.29293,46.84874],[7.28765,46.85338],[7.28762,46.85339]]]}},{"type":"Feature","properties":{"name":"Ursy","cantonId":"fribourg","municipalityId":"ursy-2102"},"geometry":{"type":"Polygon","coordinates":[[[6.88099,46.62404],[6.87578,46.62049],[6.87751,46.61801],[6.87288,46.61109],[6.8684,46.61331],[6.86717,46.61013],[6.86442,46.6112],[6.86189,46.60794],[6.85762,46.60765],[6.85384,46.60061],[6.84788,46.60131],[6.84831,46.6042],[6.8435,46.60675],[6.85166,46.61473],[6.8392,46.6197],[6.83936,46.62761],[6.82495,46.62764],[6.82113,46.63396],[6.80841,46.6289],[6.80729,46.63305],[6.8107,46.63798],[6.80724,46.6438],[6.79894,46.64918],[6.81081,46.65039],[6.81458,46.64747],[6.8185,46.6478],[6.81728,46.64924],[6.82741,46.65982],[6.83139,46.65983],[6.83338,46.66223],[6.84181,46.6616],[6.84411,46.66084],[6.84217,46.65884],[6.84417,46.65771],[6.85352,46.65546],[6.85095,46.6525],[6.85249,46.64743],[6.8592,46.64535],[6.85921,46.6431],[6.86428,46.64086],[6.86117,46.63556],[6.86215,46.62807],[6.8667,46.62728],[6.86469,46.62362],[6.88081,46.62397],[6.88099,46.62404]]]}},{"type":"Feature","properties":{"name":"Val-de-Charmey","cantonId":"fribourg","municipalityId":"val-de-charmey-2163"},"geometry":{"type":"Polygon","coordinates":[[[7.13391,46.63025],[7.13528,46.63691],[7.1414,46.64255],[7.14729,46.6442],[7.14488,46.64894],[7.15139,46.65571],[7.15119,46.6579],[7.15609,46.66096],[7.1681,46.65686],[7.16756,46.65989],[7.17255,46.66109],[7.17442,46.66389],[7.17625,46.67127],[7.19914,46.68218],[7.20323,46.68778],[7.21588,46.69074],[7.21554,46.69426],[7.22144,46.70284],[7.23769,46.71003],[7.25159,46.6896],[7.24584,46.68257],[7.24715,46.67503],[7.2655,46.66261],[7.2802,46.66032],[7.28216,46.65846],[7.2808,46.65514],[7.28618,46.65195],[7.28686,46.64854],[7.28181,46.64534],[7.28044,46.64132],[7.26224,46.62563],[7.25182,46.62248],[7.23915,46.62231],[7.24085,46.61764],[7.22878,46.61191],[7.21388,46.60001],[7.20317,46.60338],[7.19822,46.58458],[7.19396,46.58193],[7.19544,46.5658],[7.21088,46.56669],[7.21996,46.57592],[7.23069,46.57839],[7.23069,46.57437],[7.25976,46.5634],[7.24705,46.55623],[7.22534,46.54915],[7.20765,46.53291],[7.20081,46.54169],[7.19217,46.54656],[7.18233,46.53837],[7.15795,46.52679],[7.14835,46.52846],[7.14704,46.53479],[7.16686,46.54723],[7.15465,46.55567],[7.15656,46.55704],[7.14957,46.56316],[7.16377,46.58422],[7.16105,46.58686],[7.16189,46.59118],[7.15333,46.60322],[7.13961,46.6117],[7.14124,46.61505],[7.15121,46.6201],[7.14975,46.62172],[7.15303,46.62565],[7.15034,46.62573],[7.14929,46.62829],[7.14321,46.62751],[7.14004,46.63003],[7.13412,46.63025],[7.13391,46.63025]]]}},{"type":"Feature","properties":{"name":"Vallon","cantonId":"fribourg","municipalityId":"vallon-2045"},"geometry":{"type":"Polygon","coordinates":[[[6.96213,46.8841],[6.95811,46.88145],[6.95906,46.8787],[6.96944,46.86734],[6.96488,46.86539],[6.96023,46.87144],[6.9579,46.87078],[6.95395,46.87539],[6.95109,46.87481],[6.95169,46.87764],[6.93909,46.88717],[6.93868,46.88959],[6.9456,46.89127],[6.94196,46.89445],[6.94537,46.89593],[6.94326,46.89768],[6.9497,46.90123],[6.96044,46.89227],[6.95719,46.89043],[6.96202,46.8842],[6.96213,46.8841]]]}},{"type":"Feature","properties":{"name":"Vaulruz","cantonId":"fribourg","municipalityId":"vaulruz-2155"},"geometry":{"type":"Polygon","coordinates":[[[6.96277,46.60506],[6.95547,46.61046],[6.96867,46.61784],[6.9657,46.62014],[6.96913,46.62273],[7.00093,46.63308],[7.00802,46.63606],[7.01315,46.64123],[7.02159,46.6372],[7.01885,46.63256],[7.02066,46.62958],[7.01174,46.62564],[7.00752,46.62081],[6.99948,46.61922],[6.99832,46.61713],[6.99279,46.61725],[6.97918,46.61111],[6.9825,46.60262],[6.98094,46.6006],[6.98294,46.58694],[7.00036,46.57374],[6.98059,46.5823],[6.96286,46.60451],[6.96277,46.60506]]]}},{"type":"Feature","properties":{"name":"Villars-sur-Glâne","cantonId":"fribourg","municipalityId":"villars-sur-glane-2228"},"geometry":{"type":"Polygon","coordinates":[[[7.14533,46.79016],[7.14475,46.78615],[7.14156,46.78426],[7.13253,46.78768],[7.12865,46.78479],[7.11542,46.7833],[7.10456,46.78939],[7.10351,46.79153],[7.10762,46.79576],[7.10868,46.80113],[7.12719,46.80349],[7.13683,46.80901],[7.14184,46.80347],[7.13576,46.79917],[7.14409,46.79112],[7.14533,46.79016]]]}},{"type":"Feature","properties":{"name":"Villarsel-sur-Marly","cantonId":"fribourg","municipalityId":"villarsel-sur-marly-2230"},"geometry":{"type":"Polygon","coordinates":[[[7.162,46.76617],[7.18469,46.76433],[7.19105,46.75931],[7.19014,46.75569],[7.18263,46.7597],[7.16711,46.75714],[7.16189,46.76607],[7.162,46.76617]]]}},{"type":"Feature","properties":{"name":"Villaz","cantonId":"fribourg","municipalityId":"villaz-2117"},"geometry":{"type":"Polygon","coordinates":[[[6.9623,46.75199],[6.97183,46.75511],[6.975,46.75294],[6.97834,46.75443],[6.98028,46.75086],[6.97797,46.74922],[6.97973,46.74779],[6.97842,46.74638],[6.98961,46.73953],[6.99005,46.73699],[6.97888,46.73463],[6.97153,46.73048],[6.96902,46.72618],[6.96845,46.7209],[6.97242,46.71518],[6.97938,46.71757],[6.97842,46.71536],[6.98107,46.71019],[6.97006,46.70696],[6.96965,46.70452],[6.96327,46.7046],[6.96329,46.70639],[6.95841,46.70822],[6.96033,46.71181],[6.94096,46.70305],[6.93641,46.70478],[6.9268,46.714],[6.92656,46.71866],[6.92927,46.71972],[6.92214,46.72355],[6.93513,46.73302],[6.94321,46.73329],[6.94581,46.73924],[6.96113,46.75053],[6.9623,46.75199]]]}},{"type":"Feature","properties":{"name":"Villorsonnens","cantonId":"fribourg","municipalityId":"villorsonnens-2114"},"geometry":{"type":"Polygon","coordinates":[[[7.00658,46.73278],[7.00918,46.73148],[7.00517,46.72974],[7.00736,46.72865],[7.00634,46.72669],[7.01004,46.7262],[7.01284,46.72177],[7.00414,46.71621],[7.00909,46.70565],[7.01055,46.7038],[7.01738,46.70396],[7.02106,46.69912],[7.02134,46.69378],[7.02511,46.69436],[7.04068,46.68445],[7.02171,46.6774],[7.00717,46.6807],[6.99418,46.68902],[6.99216,46.69416],[6.98623,46.69758],[6.98781,46.69845],[6.98691,46.70191],[6.98254,46.70618],[6.98456,46.70835],[6.97931,46.7122],[6.97993,46.71712],[6.97682,46.71784],[6.97242,46.71518],[6.96845,46.7209],[6.97153,46.73048],[6.98568,46.73686],[6.99127,46.73717],[7.00046,46.73125],[7.00601,46.73284],[7.00658,46.73278]]]}},{"type":"Feature","properties":{"name":"Vuadens","cantonId":"fribourg","municipalityId":"vuadens-2160"},"geometry":{"type":"Polygon","coordinates":[[[7.03371,46.62865],[7.03678,46.62609],[7.03244,46.62374],[7.03493,46.6215],[7.03233,46.62156],[7.03751,46.61777],[7.03423,46.61687],[7.03656,46.61642],[7.03635,46.61387],[7.02942,46.60928],[7.02521,46.61099],[7.01812,46.60962],[7.01428,46.60797],[7.01541,46.60673],[7.01275,46.60607],[7.01265,46.60381],[7.00604,46.60362],[6.99754,46.59225],[6.99657,46.58615],[6.99352,46.58279],[7.00312,46.57412],[6.99629,46.57651],[6.98294,46.58694],[6.98094,46.6006],[6.9825,46.60262],[6.97918,46.61111],[6.99279,46.61725],[6.99832,46.61713],[6.99948,46.61922],[7.00752,46.62081],[7.01724,46.62884],[7.02066,46.62958],[7.0224,46.62671],[7.03367,46.62863],[7.03371,46.62865]]]}},{"type":"Feature","properties":{"name":"Vuisternens-devant-Romont","cantonId":"fribourg","municipalityId":"vuisternens-devant-romont-2113"},"geometry":{"type":"Polygon","coordinates":[[[6.9914,46.6557],[6.98527,46.65747],[6.98244,46.65579],[6.97573,46.66201],[6.97218,46.66016],[6.96429,46.66095],[6.9555,46.6551],[6.94902,46.6557],[6.94512,46.6471],[6.94686,46.64357],[6.94348,46.6411],[6.95069,46.63305],[6.94796,46.62883],[6.95067,46.62619],[6.94832,46.62412],[6.95166,46.61962],[6.94779,46.61674],[6.94485,46.61898],[6.93493,46.61391],[6.92243,46.61896],[6.90723,46.6152],[6.89944,46.61965],[6.8962,46.62426],[6.8877,46.62367],[6.89627,46.63077],[6.89052,46.63344],[6.8907,46.63664],[6.90204,46.64222],[6.90836,46.64864],[6.91508,46.6449],[6.91804,46.64671],[6.92015,46.65035],[6.91828,46.65343],[6.92556,46.66165],[6.92609,46.66675],[6.92848,46.66652],[6.92849,46.66872],[6.93105,46.66709],[6.94117,46.67338],[6.9482,46.68667],[6.9557,46.68804],[6.96096,46.6941],[6.96602,46.69232],[6.95379,46.67654],[6.96165,46.67179],[6.96903,46.67334],[6.97136,46.66908],[6.97705,46.66822],[6.97846,46.66472],[6.98212,46.66305],[6.98511,46.6636],[6.98872,46.66026],[6.98613,46.65947],[6.99183,46.65662],[6.9914,46.6557]]]}},{"type":"Feature","properties":{"name":"Wünnewil-Flamatt","cantonId":"fribourg","municipalityId":"wuennewil-flamatt-2309"},"geometry":{"type":"Polygon","coordinates":[[[7.25007,46.86647],[7.25273,46.86715],[7.25084,46.86894],[7.25241,46.87197],[7.25843,46.87454],[7.25982,46.87792],[7.25693,46.88062],[7.26007,46.88568],[7.26633,46.88624],[7.2725,46.8899],[7.28064,46.88862],[7.28829,46.89353],[7.30935,46.89152],[7.32573,46.89373],[7.34941,46.88902],[7.33114,46.88683],[7.31307,46.88779],[7.30928,46.88391],[7.3016,46.88122],[7.2986,46.87663],[7.30198,46.87269],[7.29291,46.86892],[7.29766,46.86528],[7.28695,46.85523],[7.27929,46.85467],[7.27189,46.85911],[7.27179,46.86139],[7.26487,46.86124],[7.26094,46.86409],[7.25781,46.86255],[7.25673,46.86512],[7.25011,46.86644],[7.25007,46.86647]]]}}]}
