{"type":"FeatureCollection","features":[{"type":"Feature","properties":{"name":"Aire-la-Ville","cantonId":"geneva","municipalityId":"aire-la-ville-6601"},"geometry":{"type":"Polygon","coordinates":[[[6.05983,46.19291],[6.05886,46.1899],[6.05298,46.18639],[6.0561,46.18522],[6.05372,46.18234],[6.04488,46.18506],[6.03974,46.18188],[6.02869,46.18619],[6.03135,46.1895],[6.02824,46.19596],[6.03267,46.19942],[6.04716,46.19394],[6.05919,46.19281],[6.05983,46.19291]]]}},{"type":"Feature","properties":{"name":"Anières","cantonId":"geneva","municipalityId":"anieres-6602"},"geometry":{"type":"Polygon","coordinates":[[[6.19873,46.28444],[6.21009,46.29944],[6.2361,46.28995],[6.24406,46.28528],[6.2379,46.28206],[6.23757,46.27757],[6.2497,46.26265],[6.24078,46.26231],[6.23543,46.26619],[6.2264,46.26535],[6.21642,46.27185],[6.19508,46.27962],[6.19873,46.28444]]]}},{"type":"Feature","properties":{"name":"Avully","cantonId":"geneva","municipalityId":"avully-6603"},"geometry":{"type":"Polygon","coordinates":[[[6.01075,46.1769],[6.02056,46.16384],[6.00578,46.15766],[6.00105,46.16305],[5.99394,46.16442],[5.98405,46.15783],[5.97576,46.16094],[5.98237,46.1736],[5.9875,46.1706],[5.99196,46.17694],[6.0044,46.17536],[6.01036,46.17682],[6.01075,46.1769]]]}},{"type":"Feature","properties":{"name":"Avusy","cantonId":"geneva","municipalityId":"avusy-6604"},"geometry":{"type":"Polygon","coordinates":[[[6.02374,46.14057],[6.01499,46.1431],[6.00313,46.14181],[5.99408,46.14459],[5.98243,46.14231],[5.98576,46.15121],[6.0202,46.16362],[6.01679,46.15356],[6.0356,46.14772],[6.02388,46.14066],[6.02374,46.14057]]]}},{"type":"Feature","properties":{"name":"Bardonnex","cantonId":"geneva","municipalityId":"bardonnex-6605"},"geometry":{"type":"Polygon","coordinates":[[[6.09876,46.15767],[6.103,46.15491],[6.106,46.15891],[6.12394,46.15178],[6.13796,46.15545],[6.13841,46.15085],[6.14724,46.14669],[6.14486,46.14497],[6.14187,46.14724],[6.13642,46.14161],[6.12977,46.14035],[6.09847,46.14384],[6.09172,46.15195],[6.09876,46.15766],[6.09876,46.15767]]]}},{"type":"Feature","properties":{"name":"Bellevue","cantonId":"geneva","municipalityId":"bellevue-6606"},"geometry":{"type":"Polygon","coordinates":[[[6.17342,46.24197],[6.15012,46.24639],[6.14192,46.25098],[6.12846,46.24511],[6.12904,46.24792],[6.12669,46.24703],[6.12356,46.25066],[6.12444,46.25261],[6.12087,46.25445],[6.12252,46.25819],[6.11973,46.26086],[6.14116,46.27233],[6.14286,46.27173],[6.14113,46.26891],[6.14451,46.26009],[6.15634,46.25557],[6.17718,46.2517],[6.17342,46.24197]]]}},{"type":"Feature","properties":{"name":"Bernex","cantonId":"geneva","municipalityId":"bernex-6607"},"geometry":{"type":"Polygon","coordinates":[[[6.05983,46.19291],[6.06613,46.19483],[6.07135,46.20165],[6.07967,46.20306],[6.08865,46.21097],[6.09376,46.20927],[6.09041,46.19881],[6.08697,46.19607],[6.08913,46.1934],[6.08365,46.18981],[6.08812,46.1839],[6.08864,46.17843],[6.07869,46.17764],[6.07924,46.17599],[6.07561,46.17397],[6.0754,46.16991],[6.08656,46.16626],[6.08013,46.16128],[6.07672,46.16118],[6.07465,46.14941],[6.06113,46.15961],[6.05353,46.15626],[6.04973,46.15149],[6.0496,46.15736],[6.04397,46.16147],[6.04541,46.16431],[6.03826,46.17076],[6.04892,46.17578],[6.05174,46.17921],[6.05067,46.18264],[6.05372,46.18234],[6.05606,46.18511],[6.05298,46.18639],[6.06019,46.192],[6.05983,46.19291]]]}},{"type":"Feature","properties":{"name":"Carouge (GE)","cantonId":"geneva","municipalityId":"carouge-ge-6608"},"geometry":{"type":"Polygon","coordinates":[[[6.14035,46.16827],[6.13308,46.17644],[6.12961,46.17484],[6.13117,46.18179],[6.12842,46.18106],[6.12763,46.18779],[6.135,46.19086],[6.14389,46.18695],[6.15416,46.18568],[6.15217,46.17812],[6.14591,46.17737],[6.13891,46.17233],[6.14039,46.16834],[6.14035,46.16827]]]}},{"type":"Feature","properties":{"name":"Cartigny","cantonId":"geneva","municipalityId":"cartigny-6609"},"geometry":{"type":"Polygon","coordinates":[[[6.01075,46.1769],[6.02869,46.18619],[6.03974,46.18188],[6.04488,46.18506],[6.05094,46.18187],[6.05174,46.17921],[6.04787,46.17498],[6.02047,46.16374],[6.01108,46.17647],[6.01075,46.1769]]]}},{"type":"Feature","properties":{"name":"Céligny","cantonId":"geneva","municipalityId":"celigny-6610"},"geometry":{"type":"MultiPolygon","coordinates":[[[[6.19311,46.34373],[6.19487,46.34863],[6.18626,46.34955],[6.17263,46.35487],[6.17109,46.35842],[6.17624,46.36006],[6.1744,46.3624],[6.18024,46.36459],[6.18692,46.36055],[6.19807,46.36029],[6.20205,46.35478],[6.21192,46.3538],[6.24142,46.34368],[6.23231,46.33045],[6.19386,46.34338],[6.19311,46.34373]]],[[[6.18442,46.34586],[6.18167,46.3437],[6.17452,46.34693],[6.17129,46.34058],[6.16677,46.3431],[6.17179,46.34986],[6.17394,46.34896],[6.17555,46.35134],[6.18402,46.34605],[6.18442,46.34586]]]]}},{"type":"Feature","properties":{"name":"Chancy","cantonId":"geneva","municipalityId":"chancy-6611"},"geometry":{"type":"Polygon","coordinates":[[[5.98243,46.14231],[5.98191,46.13743],[5.97295,46.13164],[5.96108,46.13082],[5.95736,46.12857],[5.95588,46.13238],[5.96615,46.13777],[5.96428,46.14479],[5.97576,46.16094],[5.98405,46.15783],[5.99394,46.16442],[6.00105,46.16305],[6.00576,46.15772],[5.98576,46.15121],[5.98258,46.14339],[5.98243,46.14231]]]}},{"type":"Feature","properties":{"name":"Chêne-Bougeries","cantonId":"geneva","municipalityId":"chene-bougeries-6612"},"geometry":{"type":"Polygon","coordinates":[[[6.19535,46.20701],[6.20118,46.20719],[6.20149,46.20326],[6.19363,46.19958],[6.19144,46.19503],[6.1862,46.1943],[6.18666,46.19],[6.18255,46.18439],[6.18395,46.18102],[6.17425,46.17647],[6.16917,46.17637],[6.17135,46.18225],[6.16735,46.18988],[6.17257,46.19382],[6.17122,46.19452],[6.1795,46.20598],[6.19257,46.20593],[6.19535,46.20701]]]}},{"type":"Feature","properties":{"name":"Chêne-Bourg","cantonId":"geneva","municipalityId":"chene-bourg-6613"},"geometry":{"type":"Polygon","coordinates":[[[6.20371,46.20924],[6.20533,46.19916],[6.20012,46.19585],[6.19834,46.19066],[6.18742,46.19007],[6.18502,46.19257],[6.19144,46.19503],[6.19363,46.19958],[6.20149,46.20326],[6.20121,46.20747],[6.20336,46.20905],[6.20371,46.20924]]]}},{"type":"Feature","properties":{"name":"Choulex","cantonId":"geneva","municipalityId":"choulex-6614"},"geometry":{"type":"Polygon","coordinates":[[[6.21707,46.21049],[6.21997,46.21825],[6.21666,46.22182],[6.21823,46.22491],[6.21034,46.22685],[6.20168,46.2329],[6.21308,46.2372],[6.21628,46.23558],[6.21422,46.23159],[6.22351,46.23025],[6.23114,46.23616],[6.23705,46.23425],[6.23592,46.22793],[6.24321,46.22621],[6.24238,46.22348],[6.23443,46.21954],[6.23216,46.21549],[6.22592,46.21757],[6.21719,46.21044],[6.21707,46.21049]]]}},{"type":"Feature","properties":{"name":"Collex-Bossy","cantonId":"geneva","municipalityId":"collex-bossy-6615"},"geometry":{"type":"Polygon","coordinates":[[[6.11973,46.26086],[6.11807,46.26347],[6.11997,46.26485],[6.10988,46.27059],[6.1135,46.27257],[6.10325,46.27868],[6.10507,46.28298],[6.10238,46.28496],[6.11406,46.29473],[6.11962,46.29433],[6.11855,46.29593],[6.12169,46.2971],[6.13318,46.29143],[6.13378,46.2882],[6.13044,46.28446],[6.13191,46.28134],[6.13852,46.28142],[6.13904,46.27867],[6.14335,46.28115],[6.14027,46.27531],[6.14116,46.27233],[6.12275,46.26246],[6.11973,46.26086]]]}},{"type":"Feature","properties":{"name":"Collonge-Bellerive","cantonId":"geneva","municipalityId":"collonge-bellerive-6616"},"geometry":{"type":"Polygon","coordinates":[[[6.17342,46.24197],[6.18055,46.26043],[6.18988,46.27277],[6.22013,46.26036],[6.22506,46.25405],[6.22818,46.25365],[6.22521,46.24964],[6.22202,46.25108],[6.21827,46.24769],[6.21348,46.24166],[6.21418,46.23723],[6.20168,46.2329],[6.19262,46.23777],[6.17315,46.24125],[6.17342,46.24197]]]}},{"type":"Feature","properties":{"name":"Cologny","cantonId":"geneva","municipalityId":"cologny-6617"},"geometry":{"type":"Polygon","coordinates":[[[6.16668,46.22448],[6.17315,46.24125],[6.19715,46.23592],[6.20173,46.23286],[6.1877,46.2207],[6.19016,46.21938],[6.18808,46.21743],[6.19535,46.20701],[6.18584,46.20463],[6.17956,46.20601],[6.1758,46.20135],[6.17337,46.20297],[6.17486,46.20704],[6.17074,46.20671],[6.17326,46.20962],[6.17234,46.21191],[6.16188,46.21524],[6.16591,46.22247],[6.16668,46.22448]]]}},{"type":"Feature","properties":{"name":"Confignon","cantonId":"geneva","municipalityId":"confignon-6618"},"geometry":{"type":"Polygon","coordinates":[[[6.09952,46.17422],[6.10465,46.16974],[6.08822,46.1633],[6.08552,46.16741],[6.08284,46.16653],[6.0754,46.16991],[6.07561,46.17397],[6.07924,46.17599],[6.07869,46.17764],[6.08864,46.17843],[6.08812,46.1839],[6.08365,46.1896],[6.08644,46.19241],[6.09022,46.18866],[6.08936,46.1859],[6.09183,46.1816],[6.09477,46.18093],[6.0939,46.17798],[6.09953,46.17426],[6.09952,46.17422]]]}},{"type":"Feature","properties":{"name":"Corsier (GE)","cantonId":"geneva","municipalityId":"corsier-ge-6619"},"geometry":{"type":"Polygon","coordinates":[[[6.24516,46.25615],[6.2346,46.25695],[6.22506,46.25405],[6.22013,46.26036],[6.18988,46.27277],[6.19508,46.27962],[6.21642,46.27185],[6.2264,46.26535],[6.23543,46.26619],[6.24078,46.26231],[6.2497,46.26265],[6.24574,46.25654],[6.24516,46.25615]]]}},{"type":"Feature","properties":{"name":"Dardagny","cantonId":"geneva","municipalityId":"dardagny-6620"},"geometry":{"type":"Polygon","coordinates":[[[6.00001,46.22007],[5.99489,46.21295],[5.99473,46.20927],[5.99229,46.20841],[5.99488,46.20396],[6.00386,46.19756],[6.00232,46.19518],[6.01026,46.18375],[6.00973,46.17686],[6.0044,46.17536],[5.99171,46.17686],[5.99039,46.17762],[5.99498,46.18285],[5.9922,46.18657],[5.96371,46.19703],[5.97338,46.20255],[5.96924,46.20669],[5.97466,46.21505],[5.97916,46.21727],[5.99276,46.21524],[5.99353,46.21792],[5.99017,46.22174],[5.99293,46.22298],[5.99956,46.22111],[6.00001,46.22007]]]}},{"type":"Feature","properties":{"name":"Genève","cantonId":"geneva","municipalityId":"geneve-6621"},"geometry":{"type":"Polygon","coordinates":[[[6.11742,46.22209],[6.12187,46.22672],[6.1242,46.22575],[6.13306,46.2319],[6.13793,46.2282],[6.13852,46.23031],[6.14341,46.23065],[6.16668,46.22448],[6.16188,46.21524],[6.17234,46.21191],[6.17326,46.20962],[6.17074,46.20671],[6.17486,46.20704],[6.17337,46.20297],[6.1758,46.20135],[6.17122,46.19452],[6.17257,46.19382],[6.16735,46.18988],[6.16785,46.18728],[6.1624,46.18716],[6.15875,46.17822],[6.15419,46.17916],[6.15307,46.18646],[6.14389,46.18695],[6.135,46.19086],[6.12763,46.18779],[6.12735,46.19711],[6.11188,46.197],[6.11022,46.20569],[6.11924,46.21623],[6.11381,46.22029],[6.11728,46.22201],[6.11742,46.22209]]]}},{"type":"Feature","properties":{"name":"Genthod","cantonId":"geneva","municipalityId":"genthod-6622"},"geometry":{"type":"Polygon","coordinates":[[[6.17718,46.2517],[6.15634,46.25557],[6.14451,46.26009],[6.14113,46.26891],[6.14286,46.27173],[6.14115,46.27225],[6.14755,46.27547],[6.15124,46.27291],[6.16225,46.27257],[6.18399,46.26499],[6.18055,46.26043],[6.17718,46.2517]]]}},{"type":"Feature","properties":{"name":"Gy","cantonId":"geneva","municipalityId":"gy-6624"},"geometry":{"type":"Polygon","coordinates":[[[6.29604,46.25591],[6.29212,46.25529],[6.28084,46.2451],[6.27022,46.24247],[6.26503,46.24592],[6.2631,46.24299],[6.25568,46.24346],[6.25669,46.24576],[6.25349,46.24739],[6.25429,46.24927],[6.24963,46.24879],[6.25369,46.25248],[6.24516,46.25615],[6.2499,46.26217],[6.26166,46.25458],[6.26014,46.25169],[6.26677,46.24771],[6.28415,46.25423],[6.28344,46.25598],[6.29465,46.26459],[6.29656,46.26358],[6.29391,46.25954],[6.29602,46.25593],[6.29604,46.25591]]]}},{"type":"Feature","properties":{"name":"Hermance","cantonId":"geneva","municipalityId":"hermance-6625"},"geometry":{"type":"Polygon","coordinates":[[[6.21166,46.30151],[6.21954,46.3119],[6.24469,46.30405],[6.24901,46.30191],[6.24696,46.30003],[6.25014,46.29644],[6.24864,46.29413],[6.25297,46.29061],[6.25153,46.28816],[6.24406,46.28528],[6.21009,46.29944],[6.21166,46.30151]]]}},{"type":"Feature","properties":{"name":"Jussy","cantonId":"geneva","municipalityId":"jussy-6626"},"geometry":{"type":"Polygon","coordinates":[[[6.29604,46.25591],[6.30974,46.25624],[6.30568,46.25138],[6.30941,46.25009],[6.31027,46.24399],[6.29571,46.22605],[6.29131,46.2238],[6.27939,46.2259],[6.26888,46.22318],[6.25571,46.22335],[6.25196,46.22126],[6.24644,46.22664],[6.24812,46.22949],[6.24284,46.23059],[6.24348,46.23308],[6.24128,46.23343],[6.24288,46.23714],[6.24674,46.23629],[6.2486,46.23934],[6.25325,46.23819],[6.25699,46.2437],[6.2631,46.24299],[6.26361,46.24588],[6.27022,46.24247],[6.28065,46.24502],[6.29212,46.25529],[6.29603,46.2559],[6.29604,46.25591]]]}},{"type":"Feature","properties":{"name":"Laconnex","cantonId":"geneva","municipalityId":"laconnex-6627"},"geometry":{"type":"Polygon","coordinates":[[[6.02047,46.16374],[6.03826,46.17076],[6.04541,46.16431],[6.04397,46.16147],[6.0496,46.15736],[6.04835,46.14973],[6.04226,46.15298],[6.0356,46.14772],[6.01679,46.15356],[6.0202,46.16362],[6.02047,46.16374]]]}},{"type":"Feature","properties":{"name":"Lancy","cantonId":"geneva","municipalityId":"lancy-6628"},"geometry":{"type":"Polygon","coordinates":[[[6.11065,46.20283],[6.11208,46.19688],[6.12735,46.19711],[6.12842,46.18106],[6.13117,46.18179],[6.12961,46.17484],[6.13308,46.17644],[6.14022,46.16737],[6.13446,46.16804],[6.13659,46.17002],[6.1353,46.17112],[6.13356,46.16897],[6.11983,46.17408],[6.11504,46.17304],[6.10998,46.17659],[6.11267,46.17786],[6.10987,46.18102],[6.11112,46.18402],[6.10279,46.19686],[6.1101,46.20278],[6.11065,46.20283]]]}},{"type":"Feature","properties":{"name":"Le Grand-Saconnex","cantonId":"geneva","municipalityId":"le-grand-saconnex-6623"},"geometry":{"type":"Polygon","coordinates":[[[6.1018,46.2379],[6.10684,46.24119],[6.10881,46.23989],[6.12356,46.25066],[6.12669,46.24703],[6.12904,46.24792],[6.12849,46.24501],[6.13601,46.23697],[6.12976,46.23388],[6.13263,46.23168],[6.1287,46.22807],[6.1242,46.22575],[6.12196,46.22677],[6.11765,46.22195],[6.10947,46.22693],[6.10201,46.23773],[6.1018,46.2379]]]}},{"type":"Feature","properties":{"name":"Meinier","cantonId":"geneva","municipalityId":"meinier-6629"},"geometry":{"type":"Polygon","coordinates":[[[6.24321,46.22621],[6.23592,46.22793],[6.23705,46.23425],[6.23114,46.23616],[6.22351,46.23025],[6.21422,46.23159],[6.21628,46.23558],[6.21322,46.23657],[6.21493,46.24098],[6.21348,46.24166],[6.22202,46.25108],[6.22521,46.24964],[6.23102,46.25638],[6.24159,46.25738],[6.25369,46.25248],[6.24954,46.24889],[6.25429,46.24927],[6.25349,46.24739],[6.2573,46.24365],[6.25325,46.23819],[6.2486,46.23934],[6.24674,46.23629],[6.24288,46.23714],[6.24128,46.23343],[6.24348,46.23308],[6.24284,46.23059],[6.24812,46.22949],[6.24611,46.22605],[6.24327,46.2262],[6.24321,46.22621]]]}},{"type":"Feature","properties":{"name":"Meyrin","cantonId":"geneva","municipalityId":"meyrin-6630"},"geometry":{"type":"Polygon","coordinates":[[[6.1018,46.2379],[6.11189,46.22495],[6.10978,46.22314],[6.10353,46.22022],[6.08787,46.22448],[6.08399,46.22034],[6.07636,46.22158],[6.07422,46.22008],[6.0763,46.2187],[6.06966,46.21726],[6.05351,46.22923],[6.04609,46.23141],[6.06009,46.24486],[6.06333,46.24582],[6.06727,46.2418],[6.07301,46.24137],[6.07352,46.24373],[6.08804,46.24714],[6.10143,46.23766],[6.1018,46.2379]]]}},{"type":"Feature","properties":{"name":"Onex","cantonId":"geneva","municipalityId":"onex-6631"},"geometry":{"type":"Polygon","coordinates":[[[6.09952,46.17422],[6.0939,46.17798],[6.09477,46.18093],[6.09183,46.1816],[6.08742,46.19278],[6.09752,46.19252],[6.10279,46.19686],[6.10622,46.19325],[6.11267,46.17786],[6.10108,46.17484],[6.09952,46.17422]]]}},{"type":"Feature","properties":{"name":"Perly-Certoux","cantonId":"geneva","municipalityId":"perly-certoux-6632"},"geometry":{"type":"Polygon","coordinates":[[[6.09876,46.15767],[6.09172,46.15195],[6.07432,46.14911],[6.07672,46.16118],[6.08013,46.16128],[6.08662,46.16629],[6.08822,46.1633],[6.09563,46.16753],[6.10209,46.16218],[6.09872,46.15772],[6.09876,46.15767]]]}},{"type":"Feature","properties":{"name":"Plan-les-Ouates","cantonId":"geneva","municipalityId":"plan-les-ouates-6633"},"geometry":{"type":"Polygon","coordinates":[[[6.09876,46.15767],[6.10209,46.16218],[6.09738,46.16589],[6.10465,46.16974],[6.09995,46.17232],[6.10108,46.17484],[6.11043,46.17609],[6.11504,46.17304],[6.11983,46.17408],[6.13356,46.16897],[6.1353,46.17112],[6.13659,46.17002],[6.13446,46.16804],[6.14076,46.16829],[6.13924,46.15494],[6.13487,46.15576],[6.12394,46.15178],[6.106,46.15891],[6.103,46.15491],[6.09893,46.15762],[6.09876,46.15767]]]}},{"type":"Feature","properties":{"name":"Pregny-Chambésy","cantonId":"geneva","municipalityId":"pregny-chambesy-6634"},"geometry":{"type":"Polygon","coordinates":[[[6.17342,46.24197],[6.16668,46.22448],[6.14341,46.23065],[6.13852,46.23031],[6.13822,46.22814],[6.12976,46.23388],[6.13601,46.23697],[6.1285,46.24525],[6.14178,46.25098],[6.15358,46.24565],[6.17342,46.24197]]]}},{"type":"Feature","properties":{"name":"Presinge","cantonId":"geneva","municipalityId":"presinge-6635"},"geometry":{"type":"Polygon","coordinates":[[[6.24321,46.22621],[6.24836,46.22626],[6.25196,46.22126],[6.25571,46.22335],[6.26888,46.22318],[6.27939,46.2259],[6.29131,46.2238],[6.27674,46.21545],[6.25408,46.20926],[6.24953,46.205],[6.24093,46.20856],[6.2477,46.21583],[6.23875,46.21894],[6.23397,46.21841],[6.243,46.22576],[6.24321,46.22621]]]}},{"type":"Feature","properties":{"name":"Puplinge","cantonId":"geneva","municipalityId":"puplinge-6636"},"geometry":{"type":"Polygon","coordinates":[[[6.21707,46.21049],[6.22592,46.21757],[6.23216,46.21549],[6.23398,46.21838],[6.23875,46.21894],[6.2477,46.21583],[6.24107,46.20979],[6.24483,46.20485],[6.234,46.20644],[6.22445,46.20134],[6.21726,46.20924],[6.21707,46.21049]]]}},{"type":"Feature","properties":{"name":"Russin","cantonId":"geneva","municipalityId":"russin-6637"},"geometry":{"type":"Polygon","coordinates":[[[6.01075,46.1769],[6.00865,46.18054],[6.00984,46.18494],[6.00232,46.19518],[6.00386,46.19756],[5.99488,46.20396],[5.99356,46.20906],[6.00018,46.20722],[6.008,46.20987],[6.0089,46.20305],[6.01233,46.20389],[6.01684,46.20011],[6.03141,46.19904],[6.02813,46.19529],[6.03083,46.18774],[6.01316,46.17736],[6.01075,46.1769]]]}},{"type":"Feature","properties":{"name":"Satigny","cantonId":"geneva","municipalityId":"satigny-6638"},"geometry":{"type":"Polygon","coordinates":[[[6.00001,46.22007],[6.00717,46.2239],[6.00655,46.22656],[6.00973,46.22729],[6.00954,46.22901],[6.01332,46.22907],[6.01294,46.23107],[6.02548,46.23324],[6.03364,46.23857],[6.05351,46.22923],[6.07444,46.21392],[6.06899,46.21103],[6.07322,46.20803],[6.07158,46.20437],[6.07384,46.20243],[6.06385,46.19368],[6.04819,46.19374],[6.03613,46.1991],[6.01684,46.20011],[6.01233,46.20389],[6.0089,46.20305],[6.00812,46.20982],[6.00018,46.20722],[5.99473,46.20927],[5.99945,46.2199],[6.00001,46.22007]]]}},{"type":"Feature","properties":{"name":"Soral","cantonId":"geneva","municipalityId":"soral-6639"},"geometry":{"type":"Polygon","coordinates":[[[6.07432,46.14911],[6.05224,46.15136],[6.0485,46.14714],[6.04759,46.14222],[6.03928,46.13966],[6.03537,46.13435],[6.03296,46.13875],[6.02398,46.14082],[6.04226,46.15298],[6.04835,46.14973],[6.05353,46.15626],[6.06113,46.15961],[6.07465,46.14941],[6.07432,46.14911]]]}},{"type":"Feature","properties":{"name":"Thônex","cantonId":"geneva","municipalityId":"thonex-6640"},"geometry":{"type":"Polygon","coordinates":[[[6.21694,46.21047],[6.22442,46.20129],[6.21225,46.1928],[6.20517,46.19178],[6.19783,46.18342],[6.18845,46.18163],[6.18735,46.17859],[6.1813,46.17948],[6.18399,46.18115],[6.18319,46.18647],[6.18667,46.19025],[6.19834,46.19066],[6.20012,46.19585],[6.20533,46.19916],[6.20371,46.20924],[6.21203,46.21187],[6.21677,46.21042],[6.21694,46.21047]]]}},{"type":"Feature","properties":{"name":"Troinex","cantonId":"geneva","municipalityId":"troinex-6641"},"geometry":{"type":"Polygon","coordinates":[[[6.17537,46.1584],[6.15387,46.15223],[6.14627,46.14717],[6.13841,46.15085],[6.14138,46.16869],[6.15479,46.16711],[6.16358,46.15957],[6.17286,46.16064],[6.17476,46.15903],[6.17537,46.1584]]]}},{"type":"Feature","properties":{"name":"Vandoeuvres","cantonId":"geneva","municipalityId":"vandoeuvres-6642"},"geometry":{"type":"Polygon","coordinates":[[[6.20173,46.23286],[6.21034,46.22685],[6.21823,46.22491],[6.21666,46.22182],[6.21997,46.21825],[6.21694,46.21047],[6.21195,46.21186],[6.20114,46.20719],[6.19535,46.20701],[6.18981,46.21397],[6.19061,46.21554],[6.18808,46.21743],[6.19016,46.21938],[6.1877,46.2207],[6.20039,46.23169],[6.20173,46.23286]]]}},{"type":"Feature","properties":{"name":"Vernier","cantonId":"geneva","municipalityId":"vernier-6643"},"geometry":{"type":"Polygon","coordinates":[[[6.11065,46.20283],[6.09909,46.19315],[6.09431,46.19218],[6.08696,46.19571],[6.09041,46.19881],[6.09372,46.20823],[6.09217,46.21094],[6.0869,46.20999],[6.079,46.2027],[6.07227,46.20326],[6.07328,46.20791],[6.06899,46.21103],[6.07444,46.21392],[6.06879,46.21686],[6.07206,46.2187],[6.07391,46.21719],[6.07627,46.22156],[6.08399,46.22034],[6.08787,46.22448],[6.10353,46.22022],[6.11187,46.22494],[6.11742,46.22209],[6.11381,46.22029],[6.11924,46.21623],[6.11027,46.20583],[6.11081,46.20285],[6.11065,46.20283]]]}},{"type":"Feature","properties":{"name":"Versoix","cantonId":"geneva","municipalityId":"versoix-6644"},"geometry":{"type":"Polygon","coordinates":[[[6.12578,46.31749],[6.14072,46.30475],[6.19873,46.28444],[6.18399,46.26499],[6.15752,46.27386],[6.15124,46.27291],[6.14755,46.27547],[6.14115,46.27225],[6.14027,46.27531],[6.14335,46.28115],[6.13904,46.27867],[6.13852,46.28142],[6.13191,46.28134],[6.13044,46.28446],[6.13378,46.2882],[6.13318,46.29143],[6.11991,46.2979],[6.12178,46.29968],[6.11876,46.30282],[6.12075,46.30679],[6.11978,46.3125],[6.12573,46.31737],[6.12578,46.31749]]]}},{"type":"Feature","properties":{"name":"Veyrier","cantonId":"geneva","municipalityId":"veyrier-6645"},"geometry":{"type":"Polygon","coordinates":[[[6.17537,46.1584],[6.17286,46.16064],[6.16358,46.15957],[6.1568,46.16403],[6.15834,46.16543],[6.14906,46.16882],[6.14035,46.16827],[6.13891,46.17233],[6.14583,46.17733],[6.14914,46.17659],[6.15381,46.17986],[6.15908,46.17845],[6.16325,46.18786],[6.16785,46.18728],[6.1709,46.18345],[6.1699,46.17588],[6.18021,46.17965],[6.18668,46.17769],[6.18876,46.1664],[6.17763,46.15951],[6.17537,46.1584]]]}}]}
