{"type":"FeatureCollection","features":[{"type":"Feature","properties":{"name":"Glarus","cantonId":"glarus","municipalityId":"glarus-1632"},"geometry":{"type":"Polygon","coordinates":[[[8.94985,46.96953],[8.9457,46.96716],[8.93225,46.9823],[8.94092,46.98471],[8.9415,46.98759],[8.93767,46.98642],[8.92866,46.99733],[8.91888,47.00155],[8.91544,47.00752],[8.91163,47.00877],[8.91048,47.01704],[8.89495,47.0209],[8.8931,47.02307],[8.90362,47.02726],[8.90052,47.03554],[8.90315,47.03854],[8.91463,47.03992],[8.92201,47.03829],[8.94547,47.04912],[8.96031,47.0466],[8.97513,47.04813],[8.99177,47.05936],[9.02588,47.0653],[9.02841,47.07125],[9.03668,47.07792],[9.05157,47.07984],[9.05307,47.08206],[9.05536,47.08162],[9.05562,47.07855],[9.06101,47.07688],[9.0616,47.06867],[9.06349,47.07076],[9.06913,47.06764],[9.07216,47.06991],[9.07024,47.07201],[9.08008,47.07278],[9.09406,47.06919],[9.10876,47.06869],[9.11125,47.0653],[9.11607,47.06659],[9.11766,47.06383],[9.11526,47.05997],[9.12929,47.06061],[9.12441,47.04848],[9.13388,47.03846],[9.12574,47.03207],[9.12246,47.02374],[9.1127,47.01462],[9.10181,47.01632],[9.1028,47.01994],[9.10036,47.02061],[9.08602,47.01689],[9.08094,47.02422],[9.08256,47.02771],[9.07756,47.0311],[9.07713,47.02937],[9.07101,47.02947],[9.05914,47.02403],[9.04112,47.02204],[9.03338,47.01459],[9.02165,47.01216],[9.01717,47.00791],[8.9996,47.00063],[8.9953,46.99487],[8.98886,46.99282],[8.97961,46.98585],[8.97749,46.97928],[8.95089,46.97001],[8.94985,46.96953]]]}},{"type":"Feature","properties":{"name":"Glarus Nord","cantonId":"glarus","municipalityId":"glarus-nord-1630"},"geometry":{"type":"Polygon","coordinates":[[[9.07172,47.13],[9.10121,47.13325],[9.10816,47.13132],[9.13592,47.13198],[9.18988,47.1237],[9.19002,47.10992],[9.18625,47.09992],[9.18765,47.09381],[9.19123,47.09096],[9.18879,47.08548],[9.19203,47.07354],[9.1903,47.06989],[9.18375,47.05962],[9.17454,47.05292],[9.1674,47.0494],[9.15336,47.04727],[9.13807,47.03913],[9.13064,47.04073],[9.12441,47.04848],[9.12929,47.06061],[9.12784,47.06145],[9.11526,47.05997],[9.11766,47.06383],[9.11607,47.06659],[9.11125,47.0653],[9.10876,47.06869],[9.09406,47.06919],[9.08008,47.07278],[9.07024,47.07201],[9.07216,47.06991],[9.06913,47.06764],[9.06349,47.07076],[9.0616,47.06867],[9.06101,47.07688],[9.05562,47.07855],[9.05354,47.08206],[9.05157,47.07984],[9.03668,47.07792],[9.02841,47.07125],[9.02588,47.0653],[8.99177,47.05936],[8.97513,47.04813],[8.96031,47.0466],[8.94807,47.04936],[8.95111,47.06085],[8.96177,47.07137],[8.96083,47.07625],[8.9651,47.07818],[8.96643,47.08141],[8.97599,47.08571],[8.95388,47.09148],[8.9597,47.10021],[8.97128,47.10464],[8.96925,47.10868],[8.97369,47.1151],[8.96517,47.12211],[8.9693,47.1305],[8.96739,47.13663],[8.97379,47.14037],[8.99163,47.16216],[9.0056,47.17399],[9.05475,47.13858],[9.06682,47.13055],[9.07095,47.12994],[9.07172,47.13]]]}},{"type":"Feature","properties":{"name":"Glarus Süd","cantonId":"glarus","municipalityId":"glarus-sued-1631"},"geometry":{"type":"Polygon","coordinates":[[[8.95775,46.80444],[8.9534,46.80501],[8.92808,46.79648],[8.91407,46.80061],[8.91487,46.81115],[8.90675,46.81009],[8.89839,46.81423],[8.87705,46.81291],[8.87557,46.81596],[8.88017,46.82008],[8.88164,46.82907],[8.87437,46.8352],[8.87368,46.84055],[8.87124,46.84203],[8.89567,46.84957],[8.90925,46.86097],[8.91782,46.86048],[8.95592,46.87533],[8.95781,46.8795],[8.95729,46.8879],[8.95342,46.90069],[8.94859,46.90161],[8.94357,46.90616],[8.93538,46.91985],[8.9482,46.92538],[8.96319,46.92672],[8.964,46.92902],[8.95734,46.93368],[8.95533,46.93892],[8.96127,46.94726],[8.96237,46.95381],[8.97164,46.95986],[8.95706,46.96234],[8.94873,46.96822],[8.97749,46.97928],[8.97961,46.98585],[8.98886,46.99282],[8.9953,46.99487],[8.9996,47.00063],[9.01717,47.00791],[9.02165,47.01216],[9.03338,47.01459],[9.04112,47.02204],[9.05914,47.02403],[9.07101,47.02947],[9.07713,47.02937],[9.07756,47.0311],[9.08256,47.02771],[9.08094,47.02422],[9.08602,47.01689],[9.10143,47.02049],[9.10181,47.01632],[9.11127,47.01404],[9.12246,47.02374],[9.12519,47.03142],[9.13411,47.03996],[9.1683,47.02657],[9.17522,47.02881],[9.18053,47.02592],[9.20166,47.03512],[9.20898,47.03573],[9.22194,47.03258],[9.23005,47.02582],[9.23636,47.02398],[9.24277,47.01503],[9.24335,47.00596],[9.24973,46.99782],[9.24988,46.99521],[9.24556,46.9922],[9.24658,46.98703],[9.24364,46.98237],[9.24681,46.97564],[9.24274,46.96579],[9.24607,46.95874],[9.24471,46.95646],[9.23676,46.95456],[9.23629,46.94549],[9.23914,46.93938],[9.25026,46.93463],[9.25259,46.92703],[9.25023,46.92417],[9.25138,46.9216],[9.24886,46.91608],[9.24463,46.91429],[9.24021,46.90818],[9.2266,46.9056],[9.21797,46.89477],[9.19992,46.88065],[9.18824,46.87643],[9.17746,46.87911],[9.15301,46.87983],[9.15681,46.87393],[9.14654,46.87113],[9.14056,46.86184],[9.12831,46.8588],[9.1254,46.85545],[9.11231,46.85056],[9.10487,46.85247],[9.10361,46.85969],[9.09468,46.86758],[9.09494,46.87087],[9.0765,46.87518],[9.06211,46.87422],[9.05474,46.86845],[9.04537,46.86526],[9.04419,46.85551],[9.04597,46.85021],[9.03759,46.84511],[9.03373,46.83905],[9.03441,46.83534],[9.02739,46.82993],[9.01998,46.81732],[9.00902,46.81118],[8.96096,46.80552],[8.95775,46.80444]]]}}]}
