{"type":"FeatureCollection","features":[{"type":"Feature","properties":{"name":"Alle","cantonId":"jura","municipalityId":"alle-6771"},"geometry":{"type":"Polygon","coordinates":[[[7.0999,47.43512],[7.10752,47.44041],[7.12287,47.44506],[7.12799,47.44324],[7.12993,47.4392],[7.14605,47.44096],[7.15255,47.43921],[7.14999,47.43561],[7.15291,47.42518],[7.13625,47.41128],[7.13011,47.41026],[7.12613,47.41499],[7.10661,47.41554],[7.10515,47.42185],[7.10059,47.42813],[7.09994,47.43481],[7.0999,47.43512]]]}},{"type":"Feature","properties":{"name":"Basse-Allaine","cantonId":"jura","municipalityId":"basse-allaine-6807"},"geometry":{"type":"Polygon","coordinates":[[[7.03696,47.49752],[7.04456,47.49845],[7.05245,47.49512],[7.06079,47.49539],[7.07209,47.49238],[7.07487,47.48819],[7.07403,47.47392],[7.06643,47.46998],[7.07503,47.45528],[7.06859,47.45004],[7.05875,47.4462],[7.0408,47.44731],[7.02581,47.44403],[7.02298,47.44517],[7.02593,47.44651],[7.0226,47.45202],[7.01596,47.45737],[7.00131,47.46193],[6.99998,47.46573],[7.00438,47.4743],[7.01639,47.47543],[7.01502,47.47904],[7.01904,47.48151],[7.02135,47.48779],[7.02715,47.48804],[7.03696,47.49751],[7.03696,47.49752]]]}},{"type":"Feature","properties":{"name":"Basse-Vendline","cantonId":"jura","municipalityId":"basse-vendline-6812"},"geometry":{"type":"Polygon","coordinates":[[[7.11224,47.49509],[7.12802,47.50388],[7.15044,47.49732],[7.1623,47.49001],[7.17312,47.48976],[7.20099,47.49428],[7.20301,47.4914],[7.19088,47.48851],[7.17751,47.46806],[7.17902,47.4643],[7.153,47.46027],[7.13115,47.46002],[7.1189,47.46582],[7.12342,47.47699],[7.12894,47.47657],[7.12932,47.47828],[7.117,47.48658],[7.1123,47.49431],[7.11224,47.49509]]]}},{"type":"Feature","properties":{"name":"Boécourt","cantonId":"jura","municipalityId":"boecourt-6702"},"geometry":{"type":"Polygon","coordinates":[[[7.2118,47.37325],[7.21964,47.37934],[7.22043,47.38233],[7.22443,47.38384],[7.25224,47.37801],[7.24688,47.37645],[7.2484,47.37427],[7.24587,47.37002],[7.25047,47.36506],[7.24743,47.3607],[7.23745,47.35618],[7.22281,47.34008],[7.20638,47.34273],[7.19092,47.34843],[7.19992,47.362],[7.20201,47.36114],[7.21099,47.36694],[7.21312,47.37016],[7.21196,47.37282],[7.2118,47.37325]]]}},{"type":"Feature","properties":{"name":"Boncourt","cantonId":"jura","municipalityId":"boncourt-6774"},"geometry":{"type":"Polygon","coordinates":[[[7.03696,47.49752],[7.02715,47.48804],[7.02135,47.48779],[7.01904,47.48151],[7.01502,47.47904],[7.01639,47.47543],[7.00457,47.47443],[7.00051,47.46721],[6.99173,47.4664],[6.99301,47.47114],[6.98646,47.47634],[6.98867,47.4869],[6.98645,47.49215],[6.98266,47.49366],[7.02017,47.5044],[7.02496,47.5043],[7.02767,47.50132],[7.03683,47.49836],[7.03696,47.49752]]]}},{"type":"Feature","properties":{"name":"Bourrignon","cantonId":"jura","municipalityId":"bourrignon-6703"},"geometry":{"type":"Polygon","coordinates":[[[7.22763,47.38305],[7.23026,47.38627],[7.22561,47.39391],[7.22293,47.40506],[7.23158,47.41035],[7.23968,47.40896],[7.24971,47.41128],[7.25572,47.40777],[7.26314,47.4079],[7.26851,47.40523],[7.28009,47.39242],[7.29832,47.3927],[7.29572,47.38733],[7.29042,47.38386],[7.29093,47.37984],[7.26684,47.37966],[7.25232,47.3769],[7.24525,47.38015],[7.22783,47.38301],[7.22763,47.38305]]]}},{"type":"Feature","properties":{"name":"Bure","cantonId":"jura","municipalityId":"bure-6778"},"geometry":{"type":"Polygon","coordinates":[[[7.02298,47.44517],[7.02682,47.43163],[7.00271,47.42537],[6.99985,47.41983],[6.97862,47.41767],[6.97585,47.42439],[6.96373,47.4358],[6.97031,47.44712],[6.9959,47.44965],[7.0022,47.45417],[6.99756,47.45643],[6.99791,47.45985],[7.00493,47.46184],[7.02188,47.4527],[7.02593,47.44651],[7.02339,47.44559],[7.02298,47.44517]]]}},{"type":"Feature","properties":{"name":"Châtillon (JU)","cantonId":"jura","municipalityId":"chatillon-ju-6704"},"geometry":{"type":"Polygon","coordinates":[[[7.34822,47.30568],[7.33521,47.30617],[7.33232,47.31249],[7.33762,47.31816],[7.33485,47.32588],[7.33666,47.33545],[7.33215,47.33601],[7.33649,47.33623],[7.33545,47.33872],[7.34769,47.33846],[7.35362,47.33613],[7.35693,47.31463],[7.35596,47.31073],[7.34874,47.30908],[7.34932,47.30587],[7.34822,47.30568]]]}},{"type":"Feature","properties":{"name":"Clos du Doubs","cantonId":"jura","municipalityId":"clos-du-doubs-6808"},"geometry":{"type":"Polygon","coordinates":[[[7.19092,47.34843],[7.18155,47.3449],[7.15468,47.32316],[7.14897,47.32402],[7.15302,47.3244],[7.15468,47.32562],[7.15334,47.32693],[7.15642,47.3283],[7.15173,47.32768],[7.14956,47.33337],[7.13567,47.3358],[7.1338,47.32926],[7.10549,47.3226],[7.10386,47.31958],[7.11185,47.31648],[7.09868,47.31521],[7.0974,47.31332],[7.08017,47.31335],[7.07889,47.31559],[7.07158,47.31517],[7.07361,47.31605],[7.07146,47.31921],[7.06913,47.31856],[7.06575,47.32148],[7.05305,47.31679],[7.05115,47.31917],[7.04394,47.31991],[7.04324,47.32534],[7.03466,47.32706],[7.04566,47.3265],[7.05698,47.33441],[7.05295,47.33669],[7.05982,47.33974],[7.06241,47.34411],[7.0499,47.34771],[7.05284,47.35155],[7.04995,47.36143],[7.04314,47.36427],[7.03486,47.36335],[7.03417,47.368],[7.06585,47.37203],[7.08892,47.36893],[7.10474,47.37337],[7.10309,47.37505],[7.10697,47.37589],[7.11719,47.37383],[7.12245,47.37906],[7.1274,47.37609],[7.14238,47.37946],[7.15776,47.37906],[7.17673,47.38549],[7.17965,47.38006],[7.18497,47.3817],[7.18591,47.3766],[7.19415,47.37865],[7.20221,47.37582],[7.20771,47.37679],[7.21312,47.37016],[7.20715,47.36386],[7.19992,47.362],[7.19096,47.34845],[7.19092,47.34843]]]}},{"type":"Feature","properties":{"name":"Coeuve","cantonId":"jura","municipalityId":"coeuve-6781"},"geometry":{"type":"Polygon","coordinates":[[[7.06859,47.45004],[7.07503,47.45528],[7.06929,47.46473],[7.08135,47.46722],[7.1038,47.46721],[7.1179,47.46386],[7.11679,47.46153],[7.12301,47.46235],[7.12375,47.45395],[7.12137,47.44877],[7.12287,47.44506],[7.10752,47.44041],[7.0982,47.4339],[7.08902,47.43567],[7.08332,47.44007],[7.06924,47.44082],[7.06876,47.44978],[7.06859,47.45004]]]}},{"type":"Feature","properties":{"name":"Cornol","cantonId":"jura","municipalityId":"cornol-6782"},"geometry":{"type":"Polygon","coordinates":[[[7.17673,47.38549],[7.16591,47.3826],[7.15449,47.39306],[7.15157,47.39889],[7.14719,47.40027],[7.14219,47.40506],[7.1437,47.40608],[7.13582,47.4112],[7.15177,47.42531],[7.16887,47.42114],[7.17759,47.41305],[7.18412,47.40184],[7.18177,47.39877],[7.18459,47.39715],[7.18382,47.39502],[7.18714,47.38947],[7.17723,47.38569],[7.17673,47.38549]]]}},{"type":"Feature","properties":{"name":"Courchapoix","cantonId":"jura","municipalityId":"courchapoix-6706"},"geometry":{"type":"Polygon","coordinates":[[[7.45365,47.37347],[7.45855,47.37112],[7.45967,47.36454],[7.45685,47.36371],[7.45695,47.36121],[7.45966,47.35651],[7.46769,47.35486],[7.46276,47.35443],[7.46217,47.35146],[7.46473,47.34926],[7.46192,47.34926],[7.46225,47.34746],[7.46549,47.34511],[7.46069,47.34222],[7.46331,47.34146],[7.46225,47.33574],[7.46445,47.33316],[7.44935,47.32793],[7.44327,47.33179],[7.44216,47.33783],[7.43761,47.34417],[7.43741,47.34721],[7.43959,47.34677],[7.44429,47.3554],[7.44744,47.3682],[7.45236,47.37264],[7.45365,47.37347]]]}},{"type":"Feature","properties":{"name":"Courchavon","cantonId":"jura","municipalityId":"courchavon-6783"},"geometry":{"type":"Polygon","coordinates":[[[7.06859,47.45004],[7.06924,47.44082],[7.06523,47.43877],[7.06852,47.43604],[7.062,47.43018],[7.05123,47.4309],[7.03954,47.42615],[7.02859,47.42784],[7.0292,47.42981],[7.02559,47.43235],[7.02298,47.44517],[7.03035,47.44368],[7.0408,47.44731],[7.05875,47.4462],[7.06793,47.44988],[7.06859,47.45004]]]}},{"type":"Feature","properties":{"name":"Courgenay","cantonId":"jura","municipalityId":"courgenay-6784"},"geometry":{"type":"Polygon","coordinates":[[[7.09384,47.41014],[7.10661,47.41554],[7.12613,47.41499],[7.13011,47.41026],[7.13491,47.4121],[7.1437,47.40608],[7.14219,47.40506],[7.14719,47.40027],[7.15157,47.39889],[7.15449,47.39306],[7.16591,47.3826],[7.15776,47.37906],[7.14238,47.37946],[7.1274,47.37609],[7.12245,47.37906],[7.11719,47.37383],[7.10697,47.37589],[7.09525,47.37003],[7.08622,47.36939],[7.0966,47.38101],[7.09322,47.38396],[7.09206,47.38985],[7.095,47.39304],[7.09136,47.39365],[7.09663,47.40012],[7.09428,47.40911],[7.09384,47.41014]]]}},{"type":"Feature","properties":{"name":"Courrendlin","cantonId":"jura","municipalityId":"courrendlin-6708"},"geometry":{"type":"Polygon","coordinates":[[[7.4068,47.33442],[7.4111,47.33107],[7.41374,47.33301],[7.4403,47.32752],[7.44239,47.30865],[7.42136,47.30683],[7.41302,47.30998],[7.41173,47.31331],[7.37865,47.31498],[7.36516,47.3093],[7.34932,47.30587],[7.34874,47.30908],[7.35596,47.31073],[7.35693,47.31463],[7.35431,47.34171],[7.35164,47.34685],[7.35775,47.34975],[7.35839,47.35489],[7.3635,47.35585],[7.36849,47.35167],[7.37611,47.3549],[7.37589,47.35279],[7.3804,47.35028],[7.38272,47.35181],[7.38636,47.35003],[7.39675,47.33314],[7.39649,47.33058],[7.40538,47.33492],[7.4068,47.33442]]]}},{"type":"Feature","properties":{"name":"Courroux","cantonId":"jura","municipalityId":"courroux-6709"},"geometry":{"type":"Polygon","coordinates":[[[7.4068,47.33442],[7.39649,47.33058],[7.39675,47.33314],[7.38636,47.35003],[7.38272,47.35181],[7.3804,47.35028],[7.37589,47.35279],[7.37611,47.3549],[7.36849,47.35167],[7.36445,47.35409],[7.36325,47.35642],[7.36692,47.36287],[7.36196,47.3653],[7.36217,47.37614],[7.35977,47.37919],[7.36172,47.38266],[7.36659,47.38832],[7.37952,47.39071],[7.39276,47.39165],[7.39621,47.38778],[7.39979,47.38719],[7.39744,47.39063],[7.40187,47.3927],[7.41367,47.38943],[7.41629,47.38481],[7.41168,47.38059],[7.4337,47.37943],[7.43734,47.38089],[7.42913,47.37394],[7.42538,47.36667],[7.41671,47.3594],[7.41477,47.35519],[7.40645,47.35578],[7.40409,47.35383],[7.39941,47.35578],[7.4009,47.34137],[7.40618,47.33511],[7.4068,47.33442]]]}},{"type":"Feature","properties":{"name":"Courtedoux","cantonId":"jura","municipalityId":"courtedoux-6785"},"geometry":{"type":"Polygon","coordinates":[[[7.05665,47.40096],[7.02846,47.39484],[7.02912,47.39886],[7.02378,47.40047],[7.01234,47.41389],[7.00319,47.41733],[7.00049,47.42059],[7.00271,47.42537],[7.02415,47.43073],[7.03307,47.41898],[7.04214,47.41897],[7.04667,47.41624],[7.0455,47.41445],[7.05579,47.40241],[7.05728,47.40299],[7.05654,47.40142],[7.05665,47.40096]]]}},{"type":"Feature","properties":{"name":"Courtételle","cantonId":"jura","municipalityId":"courtetelle-6710"},"geometry":{"type":"Polygon","coordinates":[[[7.33321,47.34831],[7.33649,47.33623],[7.33215,47.33601],[7.33666,47.33545],[7.33485,47.32588],[7.33603,47.32008],[7.3377,47.32],[7.33204,47.31343],[7.33521,47.30617],[7.29933,47.30975],[7.30162,47.33142],[7.30075,47.33777],[7.29606,47.34463],[7.29796,47.3453],[7.29713,47.34937],[7.30826,47.35168],[7.31173,47.35534],[7.31389,47.35442],[7.31691,47.35593],[7.31703,47.35906],[7.32533,47.35748],[7.32724,47.35566],[7.32427,47.3529],[7.33278,47.34938],[7.33321,47.34831]]]}},{"type":"Feature","properties":{"name":"Damphreux-Lugnez","cantonId":"jura","municipalityId":"damphreux-lugnez-6811"},"geometry":{"type":"Polygon","coordinates":[[[7.11224,47.49509],[7.117,47.48658],[7.12932,47.47828],[7.12894,47.47657],[7.12342,47.47699],[7.11722,47.46389],[7.1038,47.46721],[7.09102,47.46761],[7.06929,47.46473],[7.06643,47.46998],[7.07403,47.47392],[7.07487,47.48819],[7.09425,47.49544],[7.11014,47.49492],[7.11224,47.49509]]]}},{"type":"Feature","properties":{"name":"Delémont","cantonId":"jura","municipalityId":"delemont-6711"},"geometry":{"type":"Polygon","coordinates":[[[7.36643,47.38819],[7.35977,47.37919],[7.36217,47.37614],[7.36211,47.36489],[7.36568,47.36501],[7.36667,47.36116],[7.3635,47.35585],[7.35839,47.35489],[7.35775,47.34975],[7.35282,47.3474],[7.34782,47.35194],[7.33321,47.34831],[7.32427,47.3529],[7.32715,47.35603],[7.32186,47.35863],[7.31703,47.35906],[7.31691,47.35593],[7.31212,47.35523],[7.31421,47.35893],[7.31364,47.36435],[7.30338,47.36785],[7.30234,47.37105],[7.29006,47.38186],[7.29832,47.3927],[7.3068,47.39604],[7.32076,47.39405],[7.35942,47.3956],[7.36905,47.39375],[7.36773,47.3909],[7.3614,47.38911],[7.36639,47.38835],[7.36643,47.38819]]]}},{"type":"Feature","properties":{"name":"Develier","cantonId":"jura","municipalityId":"develier-6712"},"geometry":{"type":"Polygon","coordinates":[[[7.29713,47.34937],[7.28402,47.34625],[7.27533,47.34927],[7.27076,47.35526],[7.25922,47.36271],[7.24898,47.36596],[7.24587,47.37002],[7.2484,47.37427],[7.24709,47.37673],[7.29039,47.38024],[7.30234,47.37105],[7.30338,47.36785],[7.30745,47.36757],[7.31417,47.36263],[7.31371,47.35746],[7.30874,47.35201],[7.29722,47.34941],[7.29713,47.34937]]]}},{"type":"Feature","properties":{"name":"Ederswiler","cantonId":"jura","municipalityId":"ederswiler-6713"},"geometry":{"type":"Polygon","coordinates":[[[7.32622,47.43206],[7.34002,47.42978],[7.3442,47.42442],[7.35802,47.41816],[7.35732,47.41501],[7.31822,47.41749],[7.31337,47.4214],[7.31976,47.42345],[7.32047,47.42616],[7.32591,47.42949],[7.32604,47.4321],[7.32622,47.43206]]]}},{"type":"Feature","properties":{"name":"Fahy","cantonId":"jura","municipalityId":"fahy-6789"},"geometry":{"type":"Polygon","coordinates":[[[6.93845,47.40609],[6.94157,47.41571],[6.94032,47.43333],[6.95498,47.43527],[6.95759,47.43382],[6.96373,47.4358],[6.97001,47.43148],[6.9772,47.42272],[6.97862,47.41767],[6.97313,47.41223],[6.96706,47.41099],[6.96418,47.40533],[6.95796,47.40621],[6.95248,47.40272],[6.95015,47.40499],[6.93925,47.40614],[6.93845,47.40609]]]}},{"type":"Feature","properties":{"name":"Fontenais","cantonId":"jura","municipalityId":"fontenais-6790"},"geometry":{"type":"Polygon","coordinates":[[[7.09384,47.41014],[7.09663,47.40012],[7.09136,47.39365],[7.095,47.39304],[7.09206,47.38985],[7.09322,47.38396],[7.0966,47.38101],[7.0931,47.37845],[7.09224,47.37477],[7.08407,47.3689],[7.06585,47.37203],[7.03417,47.368],[7.0341,47.36967],[7.02016,47.37034],[7.0182,47.37263],[7.01313,47.37144],[7.01242,47.37452],[7.01621,47.37749],[7.01878,47.39027],[7.02132,47.39321],[7.04313,47.39917],[7.06255,47.40055],[7.06405,47.4025],[7.0649,47.40082],[7.07531,47.40577],[7.07517,47.40785],[7.09368,47.41012],[7.09384,47.41014]]]}},{"type":"Feature","properties":{"name":"Grandfontaine","cantonId":"jura","municipalityId":"grandfontaine-6792"},"geometry":{"type":"Polygon","coordinates":[[[6.93845,47.40609],[6.95015,47.40499],[6.95248,47.40272],[6.95879,47.40503],[6.95531,47.40281],[6.95761,47.3993],[6.9549,47.39748],[6.95453,47.39174],[6.94832,47.38878],[6.94721,47.38037],[6.95582,47.37056],[6.9544,47.37352],[6.94468,47.37088],[6.94101,47.38074],[6.92803,47.38007],[6.92042,47.38191],[6.91149,47.38006],[6.90537,47.38202],[6.91353,47.38809],[6.90933,47.3961],[6.91551,47.39716],[6.91779,47.40319],[6.91327,47.40458],[6.91973,47.40664],[6.92065,47.40508],[6.93675,47.40599],[6.93845,47.40609]]]}},{"type":"Feature","properties":{"name":"Haute-Ajoie","cantonId":"jura","municipalityId":"haute-ajoie-6809"},"geometry":{"type":"Polygon","coordinates":[[[7.01219,47.37289],[7.00742,47.36812],[6.9955,47.36339],[6.9843,47.36367],[6.96592,47.35925],[6.93313,47.35845],[6.9241,47.35519],[6.90279,47.35957],[6.89966,47.35772],[6.89567,47.35867],[6.89414,47.35621],[6.88302,47.35242],[6.87908,47.35367],[6.88494,47.36744],[6.88362,47.37287],[6.89584,47.3799],[6.89512,47.38171],[6.90389,47.38264],[6.91149,47.38006],[6.92042,47.38191],[6.92803,47.38007],[6.94101,47.38074],[6.94468,47.37088],[6.9544,47.37352],[6.95582,47.37056],[6.94721,47.38037],[6.94832,47.38878],[6.95453,47.39174],[6.9549,47.39748],[6.95761,47.3993],[6.95531,47.40281],[6.95871,47.4053],[6.96418,47.40533],[6.96706,47.41099],[6.97313,47.41223],[6.97862,47.41767],[6.99112,47.41774],[7.00049,47.42059],[7.00319,47.41733],[7.01234,47.41389],[7.02378,47.40047],[7.02912,47.39886],[7.02931,47.39453],[7.02132,47.39321],[7.01901,47.3907],[7.01846,47.38223],[7.01241,47.37332],[7.01219,47.37289]]]}},{"type":"Feature","properties":{"name":"Haute-Sorne","cantonId":"jura","municipalityId":"haute-sorne-6729"},"geometry":{"type":"Polygon","coordinates":[[[7.33752,47.30591],[7.33173,47.29964],[7.31698,47.29038],[7.2778,47.28417],[7.263,47.28711],[7.2426,47.28522],[7.23229,47.2882],[7.21033,47.28881],[7.20622,47.29199],[7.20919,47.29471],[7.20601,47.29547],[7.17465,47.29408],[7.17721,47.29955],[7.18626,47.30597],[7.18654,47.30889],[7.19223,47.31165],[7.17463,47.31745],[7.16993,47.31614],[7.16904,47.3182],[7.15824,47.31342],[7.15665,47.30981],[7.14976,47.30822],[7.15152,47.30621],[7.14548,47.30127],[7.13752,47.29991],[7.13748,47.3023],[7.1445,47.30948],[7.14075,47.31199],[7.14251,47.31594],[7.14768,47.3171],[7.18343,47.346],[7.19092,47.34843],[7.20638,47.34273],[7.22281,47.34008],[7.23745,47.35618],[7.24743,47.3607],[7.25047,47.36506],[7.25329,47.36476],[7.27076,47.35526],[7.27443,47.34982],[7.28203,47.3469],[7.29713,47.34937],[7.29796,47.3453],[7.29606,47.34463],[7.30075,47.33777],[7.30162,47.33142],[7.29933,47.30975],[7.33521,47.30617],[7.33752,47.30591]]]}},{"type":"Feature","properties":{"name":"La Baroche","cantonId":"jura","municipalityId":"la-baroche-6810"},"geometry":{"type":"Polygon","coordinates":[[[7.17673,47.38549],[7.18714,47.38947],[7.18382,47.39502],[7.18459,47.39715],[7.18177,47.39877],[7.18412,47.40184],[7.17185,47.41897],[7.16074,47.42421],[7.15291,47.42518],[7.14999,47.43561],[7.15363,47.44083],[7.17563,47.44296],[7.19254,47.43901],[7.19581,47.43543],[7.20671,47.43485],[7.22905,47.43989],[7.23695,47.43563],[7.23904,47.42852],[7.2458,47.42653],[7.24633,47.42218],[7.24432,47.41977],[7.23421,47.4159],[7.23592,47.41095],[7.22293,47.40506],[7.22561,47.39391],[7.23026,47.38627],[7.22763,47.38305],[7.22043,47.38233],[7.21964,47.37934],[7.21223,47.37344],[7.20771,47.37679],[7.20221,47.37582],[7.19415,47.37865],[7.18591,47.3766],[7.18497,47.3817],[7.17965,47.38006],[7.17709,47.38506],[7.17673,47.38549]]]}},{"type":"Feature","properties":{"name":"Lajoux (JU)","cantonId":"jura","municipalityId":"lajoux-ju-6750"},"geometry":{"type":"Polygon","coordinates":[[[7.16869,47.27473],[7.14875,47.26904],[7.12801,47.26721],[7.112,47.262],[7.10626,47.26339],[7.0999,47.26869],[7.10743,47.27691],[7.10355,47.27838],[7.10342,47.2818],[7.10894,47.28428],[7.10127,47.28748],[7.11465,47.29241],[7.11776,47.28954],[7.12485,47.29216],[7.12522,47.28992],[7.13618,47.28964],[7.13871,47.29352],[7.14449,47.29462],[7.14326,47.29065],[7.1544,47.28658],[7.15535,47.28896],[7.15327,47.29035],[7.15777,47.29438],[7.16604,47.2924],[7.16937,47.29086],[7.1647,47.2886],[7.17025,47.28395],[7.1679,47.28135],[7.16869,47.27473]]]}},{"type":"Feature","properties":{"name":"Le Bémont (JU)","cantonId":"jura","municipalityId":"le-bemont-ju-6741"},"geometry":{"type":"Polygon","coordinates":[[[7.02652,47.28213],[7.03833,47.28379],[7.03986,47.28247],[7.03777,47.28059],[7.04022,47.27837],[7.03075,47.27226],[7.03593,47.27393],[7.03902,47.27115],[7.0419,47.27182],[7.06429,47.25973],[7.06639,47.25559],[7.05908,47.25323],[7.06623,47.25345],[7.06643,47.25187],[7.06309,47.25083],[7.06363,47.24659],[7.057,47.24042],[7.05292,47.24202],[7.0549,47.24384],[7.05342,47.24562],[7.04445,47.24724],[7.04084,47.25044],[7.03351,47.24787],[7.03052,47.24888],[7.02953,47.25178],[7.0225,47.2561],[7.01341,47.25388],[7.00631,47.2619],[7.00158,47.26233],[6.99994,47.26536],[7.0072,47.26932],[7.00289,47.27135],[7.00518,47.27576],[7.02652,47.28213]]]}},{"type":"Feature","properties":{"name":"Le Noirmont","cantonId":"jura","municipalityId":"le-noirmont-6754"},"geometry":{"type":"Polygon","coordinates":[[[6.9731,47.2066],[6.95147,47.1988],[6.95705,47.19339],[6.95715,47.189],[6.94531,47.18536],[6.93665,47.19353],[6.92329,47.19773],[6.91618,47.20377],[6.91072,47.20098],[6.90804,47.20376],[6.89396,47.20551],[6.89238,47.20334],[6.88957,47.20512],[6.89205,47.20718],[6.90715,47.21469],[6.90998,47.2182],[6.92384,47.2221],[6.9306,47.22999],[6.93899,47.23067],[6.94278,47.23463],[6.94805,47.23446],[6.94612,47.23607],[6.94938,47.2372],[6.96773,47.23487],[6.97377,47.23761],[6.97678,47.23282],[6.97489,47.2314],[6.97672,47.22731],[6.97479,47.22563],[6.97958,47.22345],[6.97975,47.22009],[6.98251,47.22053],[6.97973,47.21934],[6.98174,47.20995],[6.97425,47.20715],[6.9731,47.2066]]]}},{"type":"Feature","properties":{"name":"Les Bois","cantonId":"jura","municipalityId":"les-bois-6742"},"geometry":{"type":"Polygon","coordinates":[[[6.91595,47.16337],[6.90611,47.15716],[6.88374,47.15041],[6.87964,47.15428],[6.87989,47.15847],[6.87689,47.16087],[6.87198,47.17413],[6.86091,47.16552],[6.84766,47.16596],[6.84098,47.17027],[6.86402,47.18043],[6.86729,47.18535],[6.87389,47.18531],[6.87407,47.191],[6.88042,47.20028],[6.88957,47.20512],[6.89238,47.20334],[6.89396,47.20551],[6.90804,47.20376],[6.91072,47.20098],[6.91618,47.20377],[6.92329,47.19773],[6.93665,47.19353],[6.94531,47.18536],[6.94077,47.18379],[6.93728,47.17406],[6.91721,47.16378],[6.91595,47.16337]]]}},{"type":"Feature","properties":{"name":"Les Breuleux","cantonId":"jura","municipalityId":"les-breuleux-6743"},"geometry":{"type":"Polygon","coordinates":[[[6.9731,47.2066],[6.98174,47.20995],[6.9801,47.2153],[6.99558,47.21612],[6.99786,47.22011],[7.00987,47.2179],[7.01249,47.21975],[7.00921,47.22207],[7.01363,47.22377],[7.01196,47.22702],[7.0188,47.22942],[7.02078,47.23088],[7.01926,47.23295],[7.0248,47.23517],[7.02402,47.23186],[7.03356,47.23273],[7.0394,47.22837],[7.04691,47.22672],[7.0303,47.20229],[7.02346,47.19571],[6.99644,47.19334],[6.99504,47.18922],[6.98346,47.18891],[6.98307,47.19125],[6.97838,47.19148],[6.97769,47.19561],[6.97427,47.19829],[6.97775,47.19937],[6.97315,47.20654],[6.9731,47.2066]]]}},{"type":"Feature","properties":{"name":"Les Enfers","cantonId":"jura","municipalityId":"les-enfers-6745"},"geometry":{"type":"MultiPolygon","coordinates":[[[[7.07493,47.29472],[7.05697,47.28714],[7.04979,47.28701],[7.05087,47.28516],[7.04374,47.28139],[7.03833,47.28379],[7.02652,47.28213],[7.02214,47.28932],[7.00031,47.2832],[7.00051,47.28811],[6.99497,47.2887],[6.99637,47.28942],[6.9934,47.2945],[7.00428,47.30018],[7.00944,47.29899],[7.00895,47.29728],[7.01985,47.2975],[7.02204,47.29453],[7.02861,47.29333],[7.05069,47.29915],[7.05656,47.29733],[7.07418,47.29821],[7.07476,47.29516],[7.07493,47.29472]]],[[[6.99231,47.28798],[6.98951,47.2895],[6.99264,47.2907],[6.99438,47.28924],[6.99248,47.28799],[6.99231,47.28798]]]]}},{"type":"Feature","properties":{"name":"Les Genevez (JU)","cantonId":"jura","municipalityId":"les-genevez-ju-6748"},"geometry":{"type":"Polygon","coordinates":[[[7.07954,47.24777],[7.07887,47.25991],[7.09041,47.26983],[7.09487,47.26581],[7.10036,47.26798],[7.112,47.262],[7.12801,47.26721],[7.14873,47.26908],[7.14568,47.26532],[7.14898,47.26219],[7.14312,47.25948],[7.14278,47.25575],[7.15148,47.25551],[7.14922,47.25386],[7.1558,47.24755],[7.13977,47.24319],[7.129,47.24502],[7.11149,47.2419],[7.10337,47.24311],[7.09623,47.23704],[7.0902,47.23701],[7.08574,47.23998],[7.08883,47.24158],[7.0852,47.24538],[7.07961,47.24341],[7.07943,47.24744],[7.07954,47.24777]]]}},{"type":"Feature","properties":{"name":"Mervelier","cantonId":"jura","municipalityId":"mervelier-6715"},"geometry":{"type":"Polygon","coordinates":[[[7.53688,47.35019],[7.53908,47.34756],[7.55222,47.34531],[7.54997,47.34086],[7.53449,47.33455],[7.52777,47.32267],[7.50601,47.32817],[7.49875,47.33641],[7.48743,47.33582],[7.48606,47.34827],[7.48796,47.35046],[7.50266,47.35407],[7.52396,47.34749],[7.53452,47.3495],[7.53688,47.35019]]]}},{"type":"Feature","properties":{"name":"Mettembert","cantonId":"jura","municipalityId":"mettembert-6716"},"geometry":{"type":"Polygon","coordinates":[[[7.29832,47.3927],[7.30177,47.39781],[7.3011,47.40139],[7.35662,47.39896],[7.35961,47.39557],[7.32076,47.39405],[7.3068,47.39604],[7.30084,47.3937],[7.29832,47.3927]]]}},{"type":"Feature","properties":{"name":"Montfaucon","cantonId":"jura","municipalityId":"montfaucon-6751"},"geometry":{"type":"Polygon","coordinates":[[[7.07954,47.24777],[7.05749,47.24205],[7.06363,47.24659],[7.06309,47.25083],[7.06643,47.25187],[7.06623,47.25345],[7.05908,47.25323],[7.06639,47.25559],[7.06429,47.25973],[7.0419,47.27182],[7.03902,47.27115],[7.03593,47.27393],[7.03179,47.27155],[7.03031,47.27309],[7.04022,47.27837],[7.03777,47.28059],[7.03986,47.28247],[7.04374,47.28139],[7.05087,47.28516],[7.04979,47.28701],[7.05697,47.28714],[7.07101,47.29401],[7.07699,47.29151],[7.07899,47.29269],[7.07756,47.29494],[7.075,47.29462],[7.07418,47.29821],[7.06464,47.29809],[7.07062,47.30448],[7.07408,47.30462],[7.08048,47.31117],[7.08017,47.31335],[7.0974,47.31332],[7.10213,47.30376],[7.08287,47.29663],[7.0824,47.29349],[7.08495,47.2917],[7.08269,47.28882],[7.08615,47.28685],[7.07708,47.28338],[7.07992,47.28187],[7.08998,47.28428],[7.09316,47.28299],[7.09713,47.2852],[7.09653,47.28938],[7.0993,47.29026],[7.10101,47.28681],[7.10894,47.28428],[7.10323,47.28113],[7.10355,47.27838],[7.10743,47.27691],[7.10036,47.26798],[7.09487,47.26581],[7.09041,47.26983],[7.07888,47.25993],[7.07954,47.24777]]]}},{"type":"Feature","properties":{"name":"Moutier","cantonId":"jura","municipalityId":"moutier-6831"},"geometry":{"type":"Polygon","coordinates":[[[7.33775,47.25727],[7.34147,47.26286],[7.3374,47.2625],[7.33666,47.26801],[7.35428,47.27129],[7.34788,47.28053],[7.33924,47.28227],[7.33547,47.28828],[7.30693,47.28792],[7.31698,47.29038],[7.33173,47.29964],[7.33752,47.30591],[7.34822,47.30568],[7.3503,47.29963],[7.34126,47.29556],[7.34808,47.29231],[7.39694,47.29767],[7.38976,47.29198],[7.3926,47.2784],[7.38938,47.27481],[7.39357,47.2671],[7.39178,47.2559],[7.37634,47.2561],[7.36874,47.25853],[7.34537,47.24776],[7.34058,47.25503],[7.33842,47.25524],[7.33775,47.25727]]]}},{"type":"Feature","properties":{"name":"Movelier","cantonId":"jura","municipalityId":"movelier-6718"},"geometry":{"type":"Polygon","coordinates":[[[7.3631,47.41469],[7.35996,47.40942],[7.34816,47.39963],[7.30758,47.40006],[7.30066,47.40199],[7.30172,47.40982],[7.29833,47.41305],[7.30617,47.41399],[7.30431,47.41742],[7.30691,47.42108],[7.31337,47.4214],[7.31822,47.41749],[7.3626,47.41475],[7.3631,47.41469]]]}},{"type":"Feature","properties":{"name":"Muriaux","cantonId":"jura","municipalityId":"muriaux-6753"},"geometry":{"type":"MultiPolygon","coordinates":[[[[6.98095,47.21532],[6.97973,47.21934],[6.98238,47.22108],[6.97975,47.22009],[6.97958,47.22345],[6.97479,47.22563],[6.97672,47.22731],[6.97489,47.2314],[6.97678,47.23282],[6.97377,47.23761],[6.96773,47.23487],[6.95428,47.23712],[6.96631,47.24321],[6.97154,47.25227],[6.98337,47.25401],[6.99087,47.2481],[7.00334,47.24602],[7.00555,47.24187],[7.00925,47.24148],[7.01182,47.23756],[7.01938,47.23422],[7.02078,47.23088],[7.01196,47.22702],[7.01363,47.22377],[7.00921,47.22207],[7.01249,47.21975],[7.00987,47.2179],[6.99786,47.22011],[6.99558,47.21612],[6.9812,47.21532],[6.98095,47.21532]]],[[[6.9731,47.2066],[6.97775,47.19937],[6.97427,47.19829],[6.97769,47.19561],[6.97838,47.19148],[6.98307,47.19125],[6.98346,47.18891],[6.99504,47.18922],[6.98558,47.17656],[6.97989,47.17414],[6.97053,47.18134],[6.95613,47.18066],[6.95337,47.18277],[6.95543,47.1839],[6.95215,47.18764],[6.95715,47.189],[6.9579,47.19129],[6.95147,47.1988],[6.97301,47.20655],[6.9731,47.2066]]]]}},{"type":"Feature","properties":{"name":"Pleigne","cantonId":"jura","municipalityId":"pleigne-6719"},"geometry":{"type":"Polygon","coordinates":[[[7.24543,47.42105],[7.26972,47.427],[7.28192,47.43481],[7.29267,47.43337],[7.30242,47.43865],[7.32727,47.44005],[7.32591,47.42949],[7.32047,47.42616],[7.31976,47.42345],[7.30691,47.42108],[7.30431,47.41742],[7.30617,47.41399],[7.29833,47.41305],[7.30188,47.40849],[7.29985,47.40448],[7.30183,47.39806],[7.29832,47.3927],[7.28009,47.39242],[7.26851,47.40523],[7.26314,47.4079],[7.25572,47.40777],[7.24971,47.41128],[7.23896,47.40903],[7.23473,47.41261],[7.23421,47.4159],[7.24519,47.42078],[7.24543,47.42105]]]}},{"type":"Feature","properties":{"name":"Porrentruy","cantonId":"jura","municipalityId":"porrentruy-6800"},"geometry":{"type":"Polygon","coordinates":[[[7.10661,47.41554],[7.09338,47.40988],[7.07517,47.40785],[7.07531,47.40577],[7.0649,47.40082],[7.06405,47.4025],[7.05833,47.40058],[7.0455,47.41445],[7.04667,47.41624],[7.04214,47.41897],[7.03307,47.41898],[7.02427,47.43053],[7.02688,47.43169],[7.02859,47.42784],[7.03954,47.42615],[7.05123,47.4309],[7.062,47.43018],[7.06852,47.43604],[7.06525,47.43785],[7.06723,47.44029],[7.08332,47.44007],[7.09223,47.4347],[7.0999,47.43512],[7.10059,47.42813],[7.10608,47.41784],[7.10661,47.41554]]]}},{"type":"Feature","properties":{"name":"Rossemaison","cantonId":"jura","municipalityId":"rossemaison-6721"},"geometry":{"type":"Polygon","coordinates":[[[7.33321,47.34831],[7.34782,47.35194],[7.35252,47.34752],[7.35455,47.33982],[7.35189,47.33571],[7.34769,47.33846],[7.33545,47.33872],[7.33332,47.34802],[7.33321,47.34831]]]}},{"type":"Feature","properties":{"name":"Saignelégier","cantonId":"jura","municipalityId":"saignelegier-6757"},"geometry":{"type":"Polygon","coordinates":[[[7.02652,47.28213],[7.00518,47.27576],[7.00289,47.27135],[7.0072,47.26932],[6.99994,47.26536],[7.00158,47.26233],[7.00631,47.2619],[7.01341,47.25388],[7.0225,47.2561],[7.02953,47.25178],[7.03052,47.24888],[7.03351,47.24787],[7.04084,47.25044],[7.04445,47.24724],[7.05496,47.24498],[7.05292,47.24202],[7.057,47.24042],[7.05869,47.23119],[7.0463,47.22665],[7.03373,47.23095],[7.03356,47.23273],[7.02402,47.23186],[7.0248,47.23517],[7.0206,47.23273],[7.01182,47.23756],[7.00925,47.24148],[7.00555,47.24187],[7.00334,47.24602],[6.99087,47.2481],[6.98337,47.25401],[6.97154,47.25227],[6.96631,47.24321],[6.95428,47.23712],[6.94696,47.23652],[6.94805,47.23446],[6.94278,47.23463],[6.94314,47.23791],[6.95585,47.24354],[6.94737,47.25072],[6.94662,47.25414],[6.9512,47.25983],[6.95013,47.26606],[6.95203,47.26991],[6.94067,47.28614],[6.94836,47.29135],[6.9737,47.29132],[6.97644,47.29631],[6.99599,47.29573],[7.00494,47.30166],[7.01081,47.3003],[7.00944,47.29899],[7.00386,47.3001],[6.99331,47.29418],[6.99629,47.28969],[6.99497,47.2887],[7.00136,47.28707],[6.99909,47.28449],[7.00031,47.2832],[7.02214,47.28932],[7.02645,47.28239],[7.02652,47.28213]],[[6.99231,47.28798],[6.99438,47.28924],[6.9931,47.29058],[6.98958,47.28973],[6.99173,47.28857],[6.99231,47.28798]]]}},{"type":"Feature","properties":{"name":"Saint-Brais","cantonId":"jura","municipalityId":"saint-brais-6758"},"geometry":{"type":"MultiPolygon","coordinates":[[[[7.12485,47.29216],[7.11776,47.28954],[7.11465,47.29241],[7.10131,47.28747],[7.0993,47.29026],[7.09653,47.28938],[7.09713,47.2852],[7.09185,47.28259],[7.08998,47.28428],[7.07992,47.28187],[7.07719,47.28318],[7.08615,47.28685],[7.08269,47.28882],[7.08495,47.2917],[7.0824,47.29349],[7.08287,47.29663],[7.10213,47.30376],[7.09801,47.31471],[7.11185,47.31648],[7.10386,47.31958],[7.10549,47.3226],[7.1338,47.32926],[7.13567,47.3358],[7.14956,47.33337],[7.15173,47.32768],[7.15642,47.3283],[7.15334,47.32693],[7.15468,47.32562],[7.15302,47.3244],[7.1489,47.32427],[7.15297,47.32313],[7.14867,47.3179],[7.14251,47.31594],[7.14075,47.31199],[7.14453,47.30959],[7.14161,47.30456],[7.13748,47.3023],[7.13752,47.29991],[7.12351,47.29488],[7.12529,47.29243],[7.12485,47.29216]]],[[[7.07493,47.29472],[7.07756,47.29494],[7.07899,47.29269],[7.07738,47.29155],[7.07237,47.29236],[7.07127,47.29406],[7.07454,47.29459],[7.07493,47.29472]]]]}},{"type":"Feature","properties":{"name":"Saulcy","cantonId":"jura","municipalityId":"saulcy-6722"},"geometry":{"type":"Polygon","coordinates":[[[7.12485,47.29216],[7.12351,47.29488],[7.12882,47.29639],[7.12836,47.29807],[7.14512,47.30108],[7.15152,47.30621],[7.14976,47.30822],[7.15665,47.30981],[7.15824,47.31342],[7.16872,47.31822],[7.16993,47.31614],[7.17463,47.31745],[7.19223,47.31165],[7.18654,47.30889],[7.18597,47.30561],[7.17721,47.29955],[7.17452,47.29417],[7.15777,47.29438],[7.15327,47.29035],[7.15535,47.28896],[7.1544,47.28658],[7.14326,47.29065],[7.14449,47.29462],[7.13871,47.29352],[7.13618,47.28964],[7.12522,47.28992],[7.12516,47.29176],[7.12485,47.29216]]]}},{"type":"Feature","properties":{"name":"Soubey","cantonId":"jura","municipalityId":"soubey-6759"},"geometry":{"type":"Polygon","coordinates":[[[7.08017,47.31335],[7.08048,47.31117],[7.07408,47.30462],[7.07062,47.30448],[7.0626,47.29738],[7.05069,47.29915],[7.02861,47.29333],[7.02204,47.29453],[7.01985,47.2975],[7.00895,47.29728],[7.01102,47.30011],[7.00774,47.30111],[7.0162,47.31468],[7.01301,47.3202],[7.00931,47.32031],[7.01001,47.32453],[7.03453,47.32833],[7.0366,47.3259],[7.04324,47.32534],[7.04436,47.31961],[7.05115,47.31917],[7.05305,47.31679],[7.06575,47.32148],[7.06913,47.31856],[7.07146,47.31921],[7.07361,47.31605],[7.07158,47.31517],[7.07889,47.31559],[7.07973,47.3138],[7.08017,47.31335]]]}},{"type":"Feature","properties":{"name":"Soyhières","cantonId":"jura","municipalityId":"soyhieres-6724"},"geometry":{"type":"Polygon","coordinates":[[[7.36643,47.38819],[7.3614,47.38911],[7.36773,47.3909],[7.36885,47.39392],[7.35984,47.39497],[7.35757,47.39876],[7.34816,47.39963],[7.35996,47.40942],[7.3631,47.41469],[7.38407,47.41236],[7.38871,47.40302],[7.39594,47.40339],[7.39895,47.39684],[7.41445,47.39434],[7.41367,47.38943],[7.40155,47.3927],[7.39732,47.3903],[7.40009,47.3892],[7.39979,47.38719],[7.39621,47.38778],[7.39276,47.39165],[7.36659,47.38832],[7.36643,47.38819]]]}},{"type":"Feature","properties":{"name":"Val Terbi","cantonId":"jura","municipalityId":"val-terbi-6730"},"geometry":{"type":"Polygon","coordinates":[[[7.47452,47.30702],[7.44239,47.30865],[7.4403,47.32752],[7.41374,47.33301],[7.40864,47.33175],[7.40101,47.34106],[7.39941,47.35578],[7.40409,47.35383],[7.40645,47.35578],[7.41477,47.35519],[7.41671,47.3594],[7.42538,47.36667],[7.42922,47.37404],[7.44019,47.38028],[7.45365,47.37347],[7.44799,47.36912],[7.44429,47.3554],[7.43959,47.34677],[7.43741,47.34721],[7.44327,47.33179],[7.44935,47.32793],[7.46445,47.33316],[7.46225,47.33574],[7.46331,47.34146],[7.46069,47.34222],[7.46549,47.34511],[7.46225,47.34746],[7.46192,47.34926],[7.46473,47.34926],[7.46217,47.35146],[7.46276,47.35443],[7.4677,47.35482],[7.45966,47.35651],[7.45695,47.36121],[7.45685,47.36371],[7.45967,47.36454],[7.45855,47.37112],[7.48744,47.36969],[7.49993,47.37198],[7.52268,47.37213],[7.52465,47.36981],[7.52176,47.36515],[7.53324,47.36221],[7.53384,47.35966],[7.53967,47.36012],[7.54147,47.35574],[7.53688,47.35019],[7.52396,47.34749],[7.50266,47.35407],[7.48796,47.35046],[7.48606,47.34827],[7.48713,47.33602],[7.49875,47.33641],[7.50601,47.32817],[7.53149,47.3211],[7.55836,47.32236],[7.52347,47.31424],[7.49744,47.30231],[7.48638,47.30213],[7.47458,47.30702],[7.47452,47.30702]]]}},{"type":"Feature","properties":{"name":"Vendlincourt","cantonId":"jura","municipalityId":"vendlincourt-6806"},"geometry":{"type":"Polygon","coordinates":[[[7.15255,47.43921],[7.14605,47.44096],[7.12989,47.43922],[7.12799,47.44324],[7.12287,47.44506],[7.12137,47.44877],[7.12375,47.45395],[7.12301,47.46235],[7.11679,47.46153],[7.11824,47.46562],[7.13115,47.46002],[7.153,47.46027],[7.17889,47.464],[7.17816,47.45803],[7.17022,47.44299],[7.1528,47.43953],[7.15255,47.43921]]]}}]}
