{"type":"FeatureCollection","features":[{"type":"Feature","properties":{"name":"Adligenswil","cantonId":"lucerne","municipalityId":"adligenswil-1051"},"geometry":{"type":"Polygon","coordinates":[[[8.38944,47.06808],[8.3572,47.0569],[8.35337,47.06147],[8.34565,47.06394],[8.34784,47.06545],[8.34536,47.06797],[8.34045,47.0675],[8.351,47.07299],[8.35446,47.07869],[8.36545,47.08253],[8.36732,47.08509],[8.37584,47.08651],[8.3804,47.08485],[8.38206,47.08654],[8.38818,47.07936],[8.39462,47.07768],[8.38924,47.0745],[8.38917,47.06869],[8.38944,47.06808]]]}},{"type":"Feature","properties":{"name":"Aesch (LU)","cantonId":"lucerne","municipalityId":"aesch-lu-1021"},"geometry":{"type":"Polygon","coordinates":[[[8.22249,47.25875],[8.22859,47.27341],[8.24328,47.27265],[8.25068,47.25696],[8.2554,47.25428],[8.26469,47.25339],[8.2594,47.25196],[8.2596,47.2492],[8.23309,47.24459],[8.22462,47.24973],[8.22249,47.25875]]]}},{"type":"Feature","properties":{"name":"Alberswil","cantonId":"lucerne","municipalityId":"alberswil-1121"},"geometry":{"type":"Polygon","coordinates":[[[8.00305,47.13793],[7.998,47.13662],[7.99714,47.1391],[7.993,47.13899],[7.99152,47.13306],[7.98591,47.13133],[7.99089,47.13888],[7.98881,47.14261],[7.98548,47.14271],[7.97949,47.14807],[7.98833,47.15361],[7.98854,47.15612],[7.99464,47.15678],[7.99696,47.15996],[8.00153,47.15981],[8.00729,47.15222],[8.00701,47.14612],[8.0041,47.14621],[8.00465,47.13918],[8.00285,47.13812],[8.00305,47.13793]]]}},{"type":"Feature","properties":{"name":"Altbüron","cantonId":"lucerne","municipalityId":"altbueron-1122"},"geometry":{"type":"Polygon","coordinates":[[[7.91776,47.18488],[7.9065,47.18202],[7.90192,47.17839],[7.8836,47.17861],[7.88107,47.17616],[7.87588,47.18322],[7.85997,47.19237],[7.85941,47.19796],[7.86757,47.20247],[7.86582,47.20417],[7.86762,47.20557],[7.87238,47.20468],[7.88021,47.19991],[7.88751,47.20024],[7.88762,47.19551],[7.90074,47.191],[7.8998,47.18819],[7.91431,47.18868],[7.91777,47.18495],[7.91776,47.18488]]]}},{"type":"Feature","properties":{"name":"Altishofen","cantonId":"lucerne","municipalityId":"altishofen-1123"},"geometry":{"type":"MultiPolygon","coordinates":[[[[7.91776,47.18488],[7.92797,47.18311],[7.92789,47.1861],[7.93157,47.18525],[7.9336,47.19058],[7.92961,47.19234],[7.92545,47.19002],[7.91689,47.19738],[7.94017,47.1977],[7.94627,47.20125],[7.94681,47.20976],[7.94889,47.21214],[7.95436,47.21375],[7.96566,47.21056],[7.96672,47.21306],[7.97467,47.21364],[7.97398,47.21052],[7.97748,47.20637],[7.97352,47.20363],[7.97599,47.20172],[7.9723,47.19152],[7.96454,47.18935],[7.95936,47.19128],[7.95425,47.18784],[7.96034,47.18482],[7.96898,47.18444],[7.96859,47.18216],[7.96317,47.18175],[7.96005,47.17757],[7.9596,47.17444],[7.96356,47.17092],[7.96247,47.16834],[7.943,47.16749],[7.93182,47.17091],[7.91979,47.16945],[7.9163,47.17158],[7.91789,47.17558],[7.91401,47.17728],[7.91673,47.17788],[7.91714,47.18062],[7.91336,47.18257],[7.91429,47.18486],[7.91752,47.1849],[7.91776,47.18488]]],[[[7.93376,47.16129],[7.92785,47.15931],[7.92753,47.16283],[7.92521,47.16241],[7.93192,47.16608],[7.93375,47.16136],[7.93376,47.16129]]]]}},{"type":"Feature","properties":{"name":"Ballwil","cantonId":"lucerne","municipalityId":"ballwil-1023"},"geometry":{"type":"Polygon","coordinates":[[[8.31123,47.15836],[8.32482,47.1608],[8.32858,47.15781],[8.33103,47.15921],[8.3434,47.1577],[8.34436,47.15503],[8.34985,47.15699],[8.35275,47.15312],[8.35984,47.15332],[8.36218,47.14609],[8.35972,47.14202],[8.36109,47.13596],[8.35896,47.13464],[8.33622,47.12958],[8.32922,47.13353],[8.32904,47.13792],[8.33091,47.13908],[8.32719,47.14126],[8.32866,47.14255],[8.32191,47.14178],[8.32148,47.14528],[8.3146,47.14337],[8.30939,47.15119],[8.30977,47.15746],[8.31123,47.15836]]]}},{"type":"Feature","properties":{"name":"Beromünster","cantonId":"lucerne","municipalityId":"beromuenster-1081"},"geometry":{"type":"Polygon","coordinates":[[[8.19867,47.1616],[8.19282,47.16313],[8.18901,47.16906],[8.18246,47.16688],[8.16328,47.168],[8.15935,47.17044],[8.15873,47.17384],[8.1509,47.17747],[8.14738,47.18273],[8.14926,47.18378],[8.13697,47.19054],[8.13312,47.19579],[8.14109,47.20124],[8.1394,47.20269],[8.14824,47.20506],[8.149,47.20876],[8.15228,47.20809],[8.15259,47.21157],[8.16162,47.21684],[8.19403,47.2263],[8.20485,47.22582],[8.20276,47.23001],[8.20578,47.23826],[8.20449,47.24263],[8.20774,47.24733],[8.21975,47.25216],[8.22249,47.25875],[8.22462,47.24973],[8.21685,47.24585],[8.22038,47.23918],[8.21779,47.23342],[8.22009,47.23061],[8.21838,47.22498],[8.22446,47.21231],[8.22049,47.21099],[8.22332,47.20838],[8.22186,47.20771],[8.22451,47.20342],[8.2251,47.19232],[8.22746,47.18706],[8.23187,47.18566],[8.23001,47.18491],[8.23252,47.18315],[8.22912,47.18265],[8.23199,47.17992],[8.23095,47.177],[8.23291,47.17712],[8.23137,47.16894],[8.23335,47.16734],[8.23168,47.1654],[8.23539,47.1616],[8.23317,47.15683],[8.22195,47.15665],[8.20911,47.15713],[8.19916,47.16146],[8.19867,47.1616]]]}},{"type":"Feature","properties":{"name":"Buchrain","cantonId":"lucerne","municipalityId":"buchrain-1052"},"geometry":{"type":"Polygon","coordinates":[[[8.35611,47.11427],[8.36249,47.11469],[8.36235,47.1081],[8.35883,47.10571],[8.35904,47.10352],[8.36543,47.10059],[8.34627,47.08806],[8.34223,47.09063],[8.3277,47.09084],[8.33713,47.09682],[8.3336,47.09776],[8.33653,47.09928],[8.33524,47.10212],[8.33755,47.10345],[8.33441,47.10695],[8.33816,47.10857],[8.33844,47.11128],[8.34724,47.11207],[8.35302,47.11562],[8.35539,47.11428],[8.35611,47.11427]]]}},{"type":"Feature","properties":{"name":"Büron","cantonId":"lucerne","municipalityId":"bueron-1082"},"geometry":{"type":"Polygon","coordinates":[[[8.08825,47.19732],[8.08741,47.20246],[8.07571,47.22032],[8.08359,47.21961],[8.08268,47.22102],[8.08798,47.22222],[8.08818,47.22498],[8.09641,47.22603],[8.09597,47.2291],[8.11476,47.21398],[8.10715,47.20573],[8.09651,47.20269],[8.08849,47.19727],[8.08825,47.19732]]]}},{"type":"Feature","properties":{"name":"Buttisholz","cantonId":"lucerne","municipalityId":"buttisholz-1083"},"geometry":{"type":"Polygon","coordinates":[[[8.12927,47.11512],[8.12966,47.11005],[8.11648,47.10925],[8.11673,47.10558],[8.10457,47.09922],[8.099,47.10049],[8.09061,47.09735],[8.09065,47.09232],[8.08806,47.09116],[8.08994,47.09115],[8.0896,47.08935],[8.08401,47.08852],[8.08245,47.0863],[8.07553,47.09184],[8.0798,47.09407],[8.07767,47.09675],[8.07161,47.09791],[8.0664,47.10241],[8.05448,47.10512],[8.05456,47.10814],[8.06079,47.11375],[8.0655,47.11498],[8.06471,47.11718],[8.07279,47.12113],[8.07478,47.12318],[8.07337,47.12615],[8.07691,47.12604],[8.08083,47.12926],[8.08422,47.13628],[8.08743,47.13481],[8.09435,47.14052],[8.10002,47.14017],[8.10476,47.1328],[8.11844,47.1254],[8.12939,47.11543],[8.12927,47.11512]]]}},{"type":"Feature","properties":{"name":"Dagmersellen","cantonId":"lucerne","municipalityId":"dagmersellen-1125"},"geometry":{"type":"Polygon","coordinates":[[[8.01903,47.1924],[8.01181,47.19561],[8.00223,47.19443],[7.97514,47.20249],[7.97358,47.20375],[7.97748,47.20637],[7.97398,47.21052],[7.97467,47.21364],[7.96672,47.21306],[7.96566,47.21056],[7.95247,47.21348],[7.96398,47.21683],[7.9671,47.22165],[7.97546,47.227],[7.97357,47.22955],[7.97606,47.23503],[7.9812,47.23512],[7.98892,47.23151],[8.01042,47.23581],[8.01686,47.2328],[8.02987,47.23202],[8.03155,47.2275],[8.03758,47.22559],[8.0406,47.22186],[8.03981,47.21866],[8.04678,47.2176],[8.05478,47.21263],[8.04999,47.20467],[8.05545,47.20326],[8.05022,47.19997],[8.04633,47.18994],[8.03639,47.19013],[8.02434,47.19556],[8.01909,47.19288],[8.01903,47.1924]]]}},{"type":"Feature","properties":{"name":"Dierikon","cantonId":"lucerne","municipalityId":"dierikon-1053"},"geometry":{"type":"Polygon","coordinates":[[[8.35837,47.09526],[8.36947,47.10386],[8.38703,47.09804],[8.38929,47.0962],[8.38309,47.09399],[8.38312,47.09055],[8.37101,47.08452],[8.36556,47.0842],[8.36339,47.08713],[8.36522,47.08958],[8.36429,47.09293],[8.35974,47.0944],[8.35837,47.09526]]]}},{"type":"Feature","properties":{"name":"Doppleschwand","cantonId":"lucerne","municipalityId":"doppleschwand-1001"},"geometry":{"type":"Polygon","coordinates":[[[8.05803,47.02879],[8.06748,47.03231],[8.06741,47.01928],[8.0587,47.00351],[8.05932,47.00011],[8.06379,46.99994],[8.06254,46.9961],[8.03698,46.99806],[8.03173,47.00885],[8.03951,47.02113],[8.046,47.02195],[8.05779,47.02855],[8.05803,47.02879]]]}},{"type":"Feature","properties":{"name":"Ebikon","cantonId":"lucerne","municipalityId":"ebikon-1054"},"geometry":{"type":"Polygon","coordinates":[[[8.29054,47.06812],[8.31143,47.08085],[8.31868,47.08264],[8.3277,47.09084],[8.34223,47.09063],[8.34627,47.08806],[8.35837,47.09526],[8.36429,47.09293],[8.36522,47.08958],[8.36339,47.08713],[8.36545,47.08253],[8.35446,47.07869],[8.351,47.07299],[8.34045,47.0675],[8.32875,47.06671],[8.32228,47.06892],[8.31671,47.06669],[8.31377,47.06923],[8.29682,47.06262],[8.2921,47.06299],[8.29118,47.06755],[8.29054,47.06812]]]}},{"type":"Feature","properties":{"name":"Egolzwil","cantonId":"lucerne","municipalityId":"egolzwil-1127"},"geometry":{"type":"Polygon","coordinates":[[[8.01903,47.1924],[8.01741,47.19026],[8.01941,47.18772],[8.016,47.18771],[8.01311,47.1845],[8.01859,47.18334],[8.01275,47.17301],[8.00334,47.17308],[7.99721,47.17565],[7.99907,47.17719],[7.99494,47.18035],[7.99278,47.17822],[7.98905,47.18134],[7.98576,47.18025],[7.98431,47.18275],[7.9762,47.18469],[7.97923,47.18644],[7.98163,47.1839],[7.98564,47.18739],[7.9999,47.18939],[8.0032,47.19435],[8.0069,47.19518],[8.01685,47.19326],[8.01903,47.1924]]]}},{"type":"Feature","properties":{"name":"Eich","cantonId":"lucerne","municipalityId":"eich-1084"},"geometry":{"type":"Polygon","coordinates":[[[8.15935,47.17044],[8.17156,47.16666],[8.18901,47.16906],[8.19282,47.16313],[8.19867,47.1616],[8.19135,47.15756],[8.1903,47.15438],[8.17756,47.14941],[8.16476,47.137],[8.13431,47.15883],[8.14635,47.16513],[8.14642,47.16699],[8.15175,47.16647],[8.15289,47.16962],[8.15915,47.17046],[8.15935,47.17044]]]}},{"type":"Feature","properties":{"name":"Emmen","cantonId":"lucerne","municipalityId":"emmen-1024"},"geometry":{"type":"Polygon","coordinates":[[[8.3277,47.09084],[8.31868,47.08264],[8.31143,47.08085],[8.29283,47.06831],[8.28178,47.06717],[8.27254,47.07224],[8.26237,47.0648],[8.26037,47.06847],[8.25651,47.06949],[8.25258,47.06678],[8.24322,47.06804],[8.2467,47.0726],[8.23009,47.07941],[8.22478,47.09037],[8.2338,47.09255],[8.23767,47.08884],[8.24993,47.08523],[8.25773,47.08589],[8.26896,47.09157],[8.28144,47.09442],[8.28277,47.09682],[8.29233,47.09866],[8.29291,47.10155],[8.3008,47.1014],[8.30351,47.10594],[8.31515,47.10671],[8.31832,47.1098],[8.32842,47.11164],[8.33127,47.10942],[8.33825,47.11095],[8.33836,47.10903],[8.33441,47.10695],[8.33755,47.10345],[8.33524,47.10212],[8.33653,47.09928],[8.3336,47.09776],[8.33713,47.09682],[8.3282,47.09114],[8.3277,47.09084]]]}},{"type":"Feature","properties":{"name":"Entlebuch","cantonId":"lucerne","municipalityId":"entlebuch-1002"},"geometry":{"type":"MultiPolygon","coordinates":[[[[8.08585,46.90607],[8.07909,46.90883],[8.08314,46.91649],[8.10515,46.92582],[8.11996,46.92842],[8.1351,46.94088],[8.13542,46.94347],[8.12654,46.95226],[8.12611,46.95615],[8.11922,46.96079],[8.09141,46.96825],[8.07891,46.968],[8.06788,46.97332],[8.05948,46.98866],[8.05978,46.99554],[8.06254,46.9961],[8.06379,46.99994],[8.05932,47.00011],[8.05869,47.00276],[8.06741,47.01928],[8.06829,47.03352],[8.07779,47.0304],[8.07887,47.03423],[8.09048,47.03517],[8.10166,47.03115],[8.10766,47.02637],[8.1169,47.02812],[8.11878,47.01816],[8.11486,47.01439],[8.11511,47.00679],[8.12834,47.01294],[8.12728,47.01111],[8.13172,47.00564],[8.14417,47.00211],[8.14034,46.99143],[8.14448,46.97359],[8.14621,46.97062],[8.15491,46.96978],[8.15692,46.96591],[8.16226,46.96348],[8.15001,46.95692],[8.1511,46.95287],[8.16475,46.93884],[8.13466,46.92225],[8.11754,46.9031],[8.11275,46.89377],[8.10761,46.89489],[8.10644,46.89844],[8.10855,46.90827],[8.09479,46.91197],[8.08662,46.90663],[8.08585,46.90607]]],[[[8.02278,46.97653],[8.0151,46.97269],[8.00997,46.97954],[8.01687,46.98311],[8.02265,46.97696],[8.02278,46.97653]]]]}},{"type":"Feature","properties":{"name":"Ermensee","cantonId":"lucerne","municipalityId":"ermensee-1025"},"geometry":{"type":"Polygon","coordinates":[[[8.22822,47.20934],[8.22205,47.21614],[8.21838,47.22498],[8.22009,47.23061],[8.21779,47.23342],[8.23458,47.23874],[8.23985,47.23913],[8.24517,47.23348],[8.25248,47.23344],[8.25594,47.2291],[8.25058,47.22736],[8.25119,47.22301],[8.24349,47.22075],[8.24446,47.21905],[8.2419,47.21633],[8.23847,47.21646],[8.23825,47.21046],[8.23548,47.21182],[8.22854,47.20938],[8.22822,47.20934]]]}},{"type":"Feature","properties":{"name":"Eschenbach (LU)","cantonId":"lucerne","municipalityId":"eschenbach-lu-1026"},"geometry":{"type":"Polygon","coordinates":[[[8.33622,47.12958],[8.34012,47.12582],[8.33271,47.12308],[8.33994,47.11899],[8.34021,47.11608],[8.34657,47.11646],[8.34932,47.11339],[8.33127,47.10942],[8.32842,47.11164],[8.32096,47.1105],[8.31365,47.10653],[8.30951,47.10785],[8.31021,47.11213],[8.30442,47.11512],[8.29809,47.11498],[8.28861,47.11084],[8.28163,47.11267],[8.28473,47.11677],[8.2887,47.11795],[8.28589,47.11964],[8.28632,47.12354],[8.27987,47.12657],[8.29305,47.13606],[8.29328,47.13818],[8.28811,47.13718],[8.2884,47.14147],[8.29972,47.14173],[8.3037,47.14387],[8.30384,47.14189],[8.3091,47.14021],[8.3152,47.14434],[8.32148,47.14528],[8.32191,47.14178],[8.32866,47.14255],[8.32719,47.14126],[8.33091,47.13908],[8.32904,47.13792],[8.32922,47.13353],[8.33622,47.12967],[8.33622,47.12958]]]}},{"type":"Feature","properties":{"name":"Escholzmatt-Marbach","cantonId":"lucerne","municipalityId":"escholzmatt-marbach-1010"},"geometry":{"type":"Polygon","coordinates":[[[7.95082,46.79965],[7.94675,46.80525],[7.9224,46.82],[7.87708,46.83706],[7.87045,46.84385],[7.86762,46.85036],[7.8673,46.85868],[7.8695,46.86434],[7.86469,46.86628],[7.86427,46.86955],[7.85778,46.87075],[7.85616,46.88085],[7.8586,46.88529],[7.87306,46.88967],[7.87534,46.89576],[7.8818,46.89965],[7.8798,46.90126],[7.88312,46.90663],[7.88027,46.9108],[7.86703,46.91477],[7.87267,46.92429],[7.89751,46.93463],[7.90793,46.93268],[7.91527,46.93463],[7.92087,46.94181],[7.92169,46.94673],[7.93166,46.95051],[7.93225,46.96165],[7.94571,46.96826],[7.94392,46.97718],[7.9473,46.97926],[7.95244,46.98125],[7.95744,46.98008],[7.96008,46.97545],[7.95977,46.97246],[7.94891,46.97556],[7.95005,46.97312],[7.94683,46.97074],[7.95449,46.96538],[7.96454,46.96211],[7.95733,46.96016],[7.95693,46.95777],[7.95472,46.95891],[7.95312,46.95612],[7.9652,46.94393],[7.97161,46.93955],[7.97919,46.93852],[7.98591,46.94052],[7.98682,46.9363],[7.99239,46.93176],[7.99273,46.92692],[7.9972,46.92476],[7.99591,46.92361],[7.99862,46.92133],[7.99799,46.91788],[8.01161,46.92447],[8.0152,46.92475],[8.01565,46.92263],[8.01507,46.91787],[7.99233,46.91464],[7.9927,46.91161],[7.97788,46.90472],[7.9702,46.8962],[7.96508,46.89518],[7.96443,46.89164],[7.95737,46.88495],[7.95486,46.88445],[7.95358,46.88651],[7.94961,46.88312],[7.95762,46.87839],[7.96112,46.87096],[7.95599,46.86556],[7.96373,46.86755],[7.96492,46.86348],[7.968,46.86223],[7.96639,46.86011],[7.97045,46.85436],[7.97001,46.84994],[7.97303,46.84766],[7.96657,46.83905],[7.95788,46.83447],[7.9503,46.82193],[7.94786,46.81396],[7.95466,46.81028],[7.95262,46.807],[7.95578,46.8034],[7.95116,46.7998],[7.95082,46.79965]]]}},{"type":"Feature","properties":{"name":"Ettiswil","cantonId":"lucerne","municipalityId":"ettiswil-1128"},"geometry":{"type":"Polygon","coordinates":[[[8.00305,47.13793],[8.00465,47.13918],[8.0041,47.14621],[8.00701,47.14612],[8.00729,47.15222],[8.00153,47.15981],[8.01499,47.15891],[8.01909,47.16989],[8.0241,47.16991],[8.02242,47.17297],[8.02837,47.17294],[8.04162,47.17761],[8.05452,47.17484],[8.05236,47.17073],[8.05603,47.17027],[8.05629,47.16774],[8.05402,47.16669],[8.06105,47.16515],[8.06006,47.15818],[8.04939,47.15603],[8.04357,47.14893],[8.03172,47.14446],[8.02912,47.13841],[8.02565,47.13739],[8.02696,47.13416],[8.01651,47.1291],[8.00313,47.13785],[8.00305,47.13793]]]}},{"type":"Feature","properties":{"name":"Fischbach","cantonId":"lucerne","municipalityId":"fischbach-1129"},"geometry":{"type":"Polygon","coordinates":[[[7.88231,47.14744],[7.89394,47.15151],[7.89309,47.15519],[7.90246,47.16643],[7.91802,47.17086],[7.92671,47.16902],[7.92512,47.16573],[7.9289,47.16588],[7.92501,47.16332],[7.92753,47.16283],[7.92785,47.15931],[7.92248,47.15527],[7.9239,47.14952],[7.919,47.14431],[7.90158,47.13738],[7.90139,47.13477],[7.89572,47.13346],[7.89111,47.12811],[7.88778,47.12778],[7.8865,47.13168],[7.88981,47.13203],[7.88848,47.13443],[7.89001,47.13458],[7.89011,47.14072],[7.88191,47.14715],[7.88231,47.14744]]]}},{"type":"Feature","properties":{"name":"Flühli","cantonId":"lucerne","municipalityId":"fluehli-1004"},"geometry":{"type":"Polygon","coordinates":[[[8.04694,46.78711],[8.03139,46.79024],[8.02071,46.78906],[7.99575,46.78176],[7.99409,46.77888],[7.98458,46.77498],[7.97348,46.77836],[7.96871,46.78512],[7.95246,46.79312],[7.95384,46.79577],[7.95082,46.79965],[7.95562,46.80288],[7.95262,46.807],[7.95487,46.80985],[7.94786,46.81396],[7.94838,46.81701],[7.95754,46.83406],[7.96657,46.83905],[7.97303,46.84766],[7.97001,46.84994],[7.97045,46.85436],[7.96639,46.86011],[7.968,46.86223],[7.96492,46.86348],[7.96373,46.86755],[7.95599,46.86556],[7.96112,46.87096],[7.95762,46.87839],[7.94961,46.88312],[7.95358,46.88651],[7.95486,46.88445],[7.95737,46.88495],[7.96443,46.89164],[7.96508,46.89518],[7.9702,46.8962],[7.97788,46.90472],[7.9927,46.91161],[7.99233,46.91464],[8.01507,46.91787],[8.01434,46.91554],[8.01892,46.91438],[8.02985,46.91916],[8.03489,46.91578],[8.05499,46.91262],[8.05498,46.91081],[8.06055,46.91037],[8.06609,46.90624],[8.06435,46.90435],[8.06983,46.89572],[8.06969,46.89076],[8.06701,46.88782],[8.07101,46.88155],[8.0716,46.87371],[8.06913,46.87122],[8.0697,46.86879],[8.06599,46.86697],[8.06728,46.86242],[8.06569,46.8596],[8.05752,46.85748],[8.05895,46.85343],[8.05599,46.8493],[8.04577,46.84417],[8.0422,46.83648],[8.06449,46.80806],[8.06387,46.80298],[8.05531,46.79916],[8.0561,46.79294],[8.04935,46.78823],[8.04694,46.78711]]]}},{"type":"Feature","properties":{"name":"Geuensee","cantonId":"lucerne","municipalityId":"geuensee-1085"},"geometry":{"type":"Polygon","coordinates":[[[8.08825,47.19732],[8.09651,47.20269],[8.10715,47.20573],[8.11476,47.21398],[8.12281,47.21632],[8.1325,47.21359],[8.1338,47.20765],[8.13925,47.20729],[8.13919,47.2055],[8.14143,47.20823],[8.14252,47.20364],[8.13311,47.19574],[8.12969,47.19742],[8.10994,47.18965],[8.10951,47.19141],[8.09055,47.19328],[8.08837,47.19619],[8.08825,47.19732]]]}},{"type":"Feature","properties":{"name":"Gisikon","cantonId":"lucerne","municipalityId":"gisikon-1055"},"geometry":{"type":"Polygon","coordinates":[[[8.39953,47.13319],[8.4139,47.1248],[8.40859,47.12037],[8.39564,47.12208],[8.39888,47.13228],[8.39953,47.13319]]]}},{"type":"Feature","properties":{"name":"Greppen","cantonId":"lucerne","municipalityId":"greppen-1056"},"geometry":{"type":"Polygon","coordinates":[[[8.40048,47.05967],[8.43141,47.06551],[8.44139,47.06308],[8.44599,47.06034],[8.44448,47.05925],[8.44593,47.05826],[8.46184,47.05023],[8.4559,47.04762],[8.42802,47.04879],[8.41176,47.05469],[8.40048,47.05967]]]}},{"type":"Feature","properties":{"name":"Grossdietwil","cantonId":"lucerne","municipalityId":"grossdietwil-1131"},"geometry":{"type":"MultiPolygon","coordinates":[[[[7.88231,47.14744],[7.87746,47.15356],[7.87539,47.16155],[7.87682,47.16704],[7.88327,47.17274],[7.8809,47.17714],[7.9008,47.17818],[7.9065,47.18202],[7.91518,47.18254],[7.91673,47.17788],[7.91401,47.17728],[7.91789,47.17558],[7.91709,47.17086],[7.90246,47.16643],[7.89309,47.15519],[7.89394,47.15151],[7.88256,47.14731],[7.88231,47.14744]]],[[[7.91776,47.18488],[7.91431,47.18868],[7.8998,47.18819],[7.90074,47.191],[7.88762,47.19551],[7.88751,47.20024],[7.88422,47.20042],[7.88967,47.20167],[7.90131,47.19827],[7.9101,47.20286],[7.91269,47.19982],[7.91673,47.19972],[7.91843,47.19781],[7.91686,47.19607],[7.92486,47.1903],[7.92693,47.18961],[7.92961,47.19234],[7.9336,47.19058],[7.93157,47.18525],[7.92789,47.1861],[7.92797,47.18311],[7.91792,47.18486],[7.91776,47.18488]]],[[[7.92554,47.16952],[7.93182,47.17091],[7.93192,47.16608],[7.9253,47.16294],[7.9289,47.16588],[7.92512,47.16573],[7.92702,47.16884],[7.92545,47.16926],[7.92554,47.16952]]]]}},{"type":"Feature","properties":{"name":"Grosswangen","cantonId":"lucerne","municipalityId":"grosswangen-1086"},"geometry":{"type":"Polygon","coordinates":[[[8.09419,47.14047],[8.08743,47.13481],[8.08422,47.13628],[8.08083,47.12926],[8.07691,47.12604],[8.07337,47.12615],[8.07478,47.12318],[8.07279,47.12113],[8.05939,47.11281],[8.0585,47.10996],[8.05456,47.10814],[8.05436,47.1039],[8.05093,47.10315],[8.03598,47.10843],[8.03366,47.11111],[8.03573,47.11743],[8.02782,47.11883],[8.02975,47.12048],[8.02509,47.12027],[8.01539,47.12818],[8.02696,47.13416],[8.02565,47.13739],[8.02912,47.13841],[8.03172,47.14446],[8.04357,47.14893],[8.04939,47.15603],[8.06616,47.15952],[8.07578,47.15684],[8.08839,47.14783],[8.08854,47.14302],[8.09212,47.14062],[8.09419,47.14047]]]}},{"type":"Feature","properties":{"name":"Hasle (LU)","cantonId":"lucerne","municipalityId":"hasle-lu-1005"},"geometry":{"type":"Polygon","coordinates":[[[8.06214,46.90957],[8.07054,46.91642],[8.06451,46.92269],[8.06495,46.93457],[8.05959,46.93067],[8.05562,46.93072],[8.05728,46.93544],[8.0454,46.93548],[8.04375,46.93771],[8.04788,46.9461],[8.04261,46.95007],[8.04433,46.9519],[8.04326,46.95518],[8.04761,46.96296],[8.027,46.97804],[8.02278,46.97653],[8.01687,46.98311],[8.01973,46.98642],[8.03361,46.99251],[8.03496,46.99943],[8.04446,46.99646],[8.06005,46.99573],[8.06077,46.98447],[8.06858,46.97272],[8.07891,46.968],[8.09141,46.96825],[8.11922,46.96079],[8.12611,46.95615],[8.12654,46.95226],[8.13542,46.94347],[8.1351,46.94088],[8.11996,46.92842],[8.10515,46.92582],[8.08107,46.91491],[8.07909,46.90883],[8.08611,46.90425],[8.0826,46.89917],[8.06788,46.89662],[8.06435,46.90435],[8.06609,46.90624],[8.06342,46.90898],[8.06214,46.90957]]]}},{"type":"Feature","properties":{"name":"Hergiswil bei Willisau","cantonId":"lucerne","municipalityId":"hergiswil-bei-willisau-1132"},"geometry":{"type":"Polygon","coordinates":[[[7.95009,47.00704],[7.94115,47.00563],[7.93892,47.02179],[7.94351,47.02653],[7.94356,47.03378],[7.93476,47.03876],[7.93671,47.04193],[7.92646,47.06006],[7.92886,47.06574],[7.92564,47.0722],[7.92832,47.0745],[7.92393,47.07975],[7.92983,47.08213],[7.92795,47.08458],[7.93291,47.0877],[7.93049,47.08851],[7.93114,47.09106],[7.92891,47.09306],[7.93272,47.09429],[7.92954,47.09655],[7.9373,47.09944],[7.94187,47.09943],[7.94186,47.09644],[7.94677,47.09504],[7.96323,47.1002],[7.97238,47.09911],[7.97745,47.09645],[7.97696,47.08962],[7.98347,47.08703],[7.97617,47.08367],[7.9849,47.08169],[7.97997,47.07175],[7.9829,47.06902],[7.98204,47.06486],[7.98646,47.05514],[7.98271,47.05077],[7.98906,47.04378],[7.969,47.03535],[7.96607,47.03271],[7.96942,47.02962],[7.95027,47.01907],[7.9485,47.01314],[7.95012,47.00725],[7.95009,47.00704]]]}},{"type":"Feature","properties":{"name":"Hildisrieden","cantonId":"lucerne","municipalityId":"hildisrieden-1088"},"geometry":{"type":"Polygon","coordinates":[[[8.23147,47.13281],[8.21911,47.13993],[8.21564,47.14462],[8.21745,47.14586],[8.21604,47.14763],[8.20964,47.14846],[8.20973,47.15196],[8.20322,47.15319],[8.20218,47.15606],[8.23317,47.15683],[8.23454,47.16065],[8.2446,47.1569],[8.24825,47.15762],[8.24918,47.15382],[8.25287,47.15228],[8.25111,47.15135],[8.25299,47.14582],[8.24689,47.14035],[8.24889,47.13773],[8.2439,47.13574],[8.24305,47.13327],[8.23173,47.13272],[8.23147,47.13281]]]}},{"type":"Feature","properties":{"name":"Hitzkirch","cantonId":"lucerne","municipalityId":"hitzkirch-1030"},"geometry":{"type":"Polygon","coordinates":[[[8.31845,47.22346],[8.30713,47.22226],[8.30843,47.21811],[8.29973,47.21865],[8.29705,47.21511],[8.28916,47.21293],[8.29126,47.21079],[8.28578,47.20803],[8.289,47.20475],[8.2852,47.19989],[8.26955,47.1969],[8.24051,47.1847],[8.24065,47.18866],[8.2356,47.19733],[8.23892,47.20312],[8.23592,47.20884],[8.22935,47.20513],[8.22822,47.20934],[8.23548,47.21182],[8.23825,47.21046],[8.23847,47.21646],[8.2419,47.21633],[8.24446,47.21905],[8.24349,47.22075],[8.25119,47.22301],[8.25058,47.22736],[8.25594,47.2291],[8.25248,47.23344],[8.24517,47.23348],[8.23985,47.23913],[8.21883,47.23408],[8.2187,47.23852],[8.22038,47.23918],[8.21685,47.24585],[8.21951,47.2476],[8.22462,47.24973],[8.23309,47.24459],[8.2596,47.2492],[8.2594,47.25196],[8.26363,47.25199],[8.26474,47.25407],[8.28644,47.24775],[8.29326,47.25379],[8.29905,47.25548],[8.31173,47.24545],[8.31808,47.22354],[8.31845,47.22346]]]}},{"type":"Feature","properties":{"name":"Hochdorf","cantonId":"lucerne","municipalityId":"hochdorf-1031"},"geometry":{"type":"Polygon","coordinates":[[[8.31123,47.15836],[8.30883,47.1568],[8.30939,47.15119],[8.3146,47.14337],[8.3091,47.14021],[8.30384,47.14189],[8.3037,47.14387],[8.29972,47.14173],[8.28716,47.14151],[8.28125,47.13587],[8.28126,47.14178],[8.28436,47.14419],[8.28385,47.14696],[8.28731,47.15231],[8.27967,47.15404],[8.27609,47.161],[8.28361,47.16459],[8.28059,47.17317],[8.27547,47.17688],[8.26552,47.19039],[8.27989,47.19361],[8.28032,47.18935],[8.28373,47.19027],[8.28406,47.18634],[8.29073,47.18554],[8.29209,47.18081],[8.29839,47.17831],[8.30063,47.16784],[8.30364,47.16812],[8.31012,47.15902],[8.31123,47.15836]]]}},{"type":"Feature","properties":{"name":"Hohenrain","cantonId":"lucerne","municipalityId":"hohenrain-1032"},"geometry":{"type":"Polygon","coordinates":[[[8.31845,47.22346],[8.32093,47.22113],[8.31946,47.21561],[8.32521,47.21471],[8.3288,47.20788],[8.33028,47.19768],[8.33969,47.18613],[8.33799,47.18403],[8.34095,47.17376],[8.34646,47.16997],[8.34912,47.166],[8.34762,47.16454],[8.35837,47.15661],[8.35837,47.15328],[8.35275,47.15312],[8.34985,47.15699],[8.34436,47.15503],[8.3434,47.1577],[8.33103,47.15921],[8.32858,47.15781],[8.32482,47.1608],[8.31203,47.15792],[8.30751,47.16055],[8.30364,47.16812],[8.30063,47.16784],[8.29839,47.17831],[8.29209,47.18081],[8.29073,47.18554],[8.28406,47.18634],[8.28373,47.19027],[8.28032,47.18935],[8.27989,47.19361],[8.26552,47.19039],[8.26292,47.19407],[8.27747,47.19938],[8.2852,47.19989],[8.289,47.20475],[8.28578,47.20803],[8.29126,47.21079],[8.28916,47.21293],[8.29705,47.21511],[8.29973,47.21865],[8.30843,47.21811],[8.30713,47.22226],[8.3182,47.2233],[8.31845,47.22346]]]}},{"type":"Feature","properties":{"name":"Horw","cantonId":"lucerne","municipalityId":"horw-1058"},"geometry":{"type":"Polygon","coordinates":[[[8.33446,46.989],[8.31885,46.99956],[8.29479,46.99814],[8.28887,46.99459],[8.278,46.99797],[8.26005,46.99627],[8.25814,47.00014],[8.27155,47.00418],[8.27691,47.00346],[8.28225,47.01002],[8.28958,47.01096],[8.29243,47.01371],[8.3002,47.0139],[8.30527,47.01786],[8.30258,47.0264],[8.30572,47.02725],[8.30773,47.03406],[8.31322,47.03566],[8.3319,47.03172],[8.33369,47.03542],[8.34355,47.03693],[8.35402,47.02209],[8.36852,47.01995],[8.33446,46.989]]]}},{"type":"Feature","properties":{"name":"Inwil","cantonId":"lucerne","municipalityId":"inwil-1033"},"geometry":{"type":"Polygon","coordinates":[[[8.35611,47.11427],[8.35302,47.11562],[8.34906,47.1134],[8.34936,47.11532],[8.34657,47.11646],[8.34021,47.11608],[8.33994,47.11899],[8.33271,47.12308],[8.34012,47.12582],[8.33622,47.12958],[8.36109,47.13596],[8.35972,47.14202],[8.36218,47.14609],[8.37483,47.14304],[8.37609,47.13925],[8.40421,47.13822],[8.39888,47.13228],[8.39573,47.12394],[8.38592,47.11965],[8.36525,47.11863],[8.3573,47.11526],[8.35611,47.11427]]]}},{"type":"Feature","properties":{"name":"Knutwil","cantonId":"lucerne","municipalityId":"knutwil-1089"},"geometry":{"type":"Polygon","coordinates":[[[8.08825,47.19732],[8.09434,47.18471],[8.08783,47.18393],[8.08262,47.18043],[8.07992,47.17504],[8.07565,47.17631],[8.06981,47.17243],[8.06289,47.17631],[8.06817,47.18201],[8.06654,47.18177],[8.06468,47.18787],[8.05287,47.18773],[8.04774,47.1918],[8.05022,47.19997],[8.05545,47.20326],[8.04999,47.20467],[8.05478,47.21263],[8.05768,47.21077],[8.06824,47.21082],[8.0722,47.21302],[8.0719,47.21658],[8.07737,47.21743],[8.08741,47.20246],[8.08817,47.19809],[8.08825,47.19732]]]}},{"type":"Feature","properties":{"name":"Kriens","cantonId":"lucerne","municipalityId":"kriens-1059"},"geometry":{"type":"Polygon","coordinates":[[[8.23772,46.99183],[8.23304,46.99551],[8.23087,47.00379],[8.21797,47.0142],[8.21952,47.02344],[8.21192,47.02859],[8.21219,47.03133],[8.22692,47.03327],[8.23947,47.03889],[8.25218,47.04037],[8.272,47.04649],[8.28151,47.04614],[8.29833,47.03959],[8.29748,47.03541],[8.3047,47.02286],[8.30314,47.02012],[8.30527,47.01786],[8.29996,47.01376],[8.29243,47.01371],[8.28958,47.01096],[8.28225,47.01002],[8.27691,47.00346],[8.27155,47.00418],[8.25814,47.00014],[8.26005,46.99627],[8.24838,46.98743],[8.24397,46.98601],[8.23871,46.99078],[8.23772,46.99183]]]}},{"type":"Feature","properties":{"name":"Luthern","cantonId":"lucerne","municipalityId":"luthern-1135"},"geometry":{"type":"Polygon","coordinates":[[[7.90183,47.00625],[7.89694,47.01303],[7.90054,47.01797],[7.89476,47.02216],[7.89238,47.0301],[7.88408,47.03327],[7.88144,47.04069],[7.87477,47.04096],[7.86653,47.04965],[7.86813,47.05184],[7.86603,47.05342],[7.87391,47.0617],[7.87122,47.06245],[7.87163,47.06483],[7.87729,47.07158],[7.87613,47.07345],[7.8782,47.0744],[7.87836,47.07847],[7.89943,47.09187],[7.9095,47.10522],[7.91612,47.10522],[7.91956,47.09969],[7.92547,47.09926],[7.92936,47.09498],[7.9235,47.08658],[7.9257,47.08498],[7.92365,47.08018],[7.92832,47.0745],[7.92564,47.0722],[7.92886,47.06574],[7.92646,47.06006],[7.93671,47.04193],[7.93476,47.03876],[7.94356,47.03378],[7.9436,47.02679],[7.93895,47.02203],[7.94189,47.00796],[7.94033,47.00503],[7.93267,47.00424],[7.92288,47.01055],[7.90258,47.00628],[7.90183,47.00625]]]}},{"type":"Feature","properties":{"name":"Luzern","cantonId":"lucerne","municipalityId":"luzern-1061"},"geometry":{"type":"MultiPolygon","coordinates":[[[[8.20667,47.07129],[8.21042,47.07518],[8.21873,47.07536],[8.21914,47.07998],[8.22726,47.08352],[8.23086,47.07884],[8.2467,47.0726],[8.24322,47.06804],[8.25258,47.06678],[8.25651,47.06949],[8.26037,47.06847],[8.26237,47.0648],[8.27283,47.07226],[8.28178,47.06717],[8.29054,47.06812],[8.2921,47.06299],[8.29682,47.06262],[8.31377,47.06923],[8.31671,47.06669],[8.32228,47.06892],[8.32875,47.06671],[8.34536,47.06797],[8.34784,47.06545],[8.34565,47.06394],[8.35337,47.06147],[8.3572,47.0569],[8.35801,47.05327],[8.35232,47.05258],[8.34986,47.04735],[8.35321,47.04296],[8.35655,47.04313],[8.35773,47.03977],[8.33369,47.03542],[8.3319,47.03172],[8.31322,47.03566],[8.30773,47.03406],[8.30572,47.02725],[8.30258,47.0264],[8.29748,47.03541],[8.29833,47.03959],[8.27937,47.04666],[8.26698,47.04577],[8.25218,47.04037],[8.23971,47.03866],[8.24078,47.04145],[8.23826,47.04739],[8.24359,47.04846],[8.24849,47.05353],[8.23092,47.063],[8.20964,47.06785],[8.20702,47.07117],[8.20667,47.07129]]],[[[8.38559,46.99831],[8.3827,47.00137],[8.38471,47.00291],[8.3838,47.01771],[8.40645,47.01559],[8.42799,47.0172],[8.42601,46.99814],[8.39635,47.00087],[8.38609,46.99849],[8.38559,46.99831]]]]}},{"type":"Feature","properties":{"name":"Malters","cantonId":"lucerne","municipalityId":"malters-1062"},"geometry":{"type":"Polygon","coordinates":[[[8.21163,47.02909],[8.17654,47.02479],[8.1569,47.01947],[8.14196,47.0128],[8.12923,47.01271],[8.14237,47.02605],[8.14222,47.02914],[8.1451,47.03045],[8.15008,47.03937],[8.13321,47.04341],[8.13599,47.04953],[8.14236,47.04668],[8.15357,47.04692],[8.17349,47.05065],[8.17623,47.05684],[8.17483,47.0601],[8.17838,47.06081],[8.1791,47.06309],[8.18877,47.06405],[8.19322,47.06806],[8.20636,47.07124],[8.20964,47.06785],[8.23092,47.063],[8.24849,47.05353],[8.24359,47.04846],[8.23826,47.04739],[8.24084,47.0406],[8.23876,47.03841],[8.22692,47.03327],[8.21093,47.03026],[8.21163,47.02909]]]}},{"type":"Feature","properties":{"name":"Mauensee","cantonId":"lucerne","municipalityId":"mauensee-1091"},"geometry":{"type":"Polygon","coordinates":[[[8.08244,47.1802],[8.08655,47.17799],[8.08809,47.174],[8.09416,47.17135],[8.08143,47.16598],[8.07578,47.15684],[8.06616,47.15952],[8.06035,47.15808],[8.06105,47.16515],[8.05402,47.16669],[8.05629,47.16774],[8.05603,47.17027],[8.05236,47.17073],[8.05452,47.17484],[8.04162,47.17761],[8.03541,47.17593],[8.03669,47.19015],[8.04784,47.19095],[8.05287,47.18773],[8.06435,47.18806],[8.06654,47.18177],[8.06817,47.18201],[8.06289,47.17631],[8.06981,47.17243],[8.07565,47.17631],[8.07992,47.17504],[8.08193,47.1792],[8.08244,47.1802]]]}},{"type":"Feature","properties":{"name":"Meggen","cantonId":"lucerne","municipalityId":"meggen-1063"},"geometry":{"type":"Polygon","coordinates":[[[8.38944,47.06808],[8.39053,47.06132],[8.41176,47.05469],[8.37796,47.03008],[8.36852,47.01995],[8.35402,47.02209],[8.34355,47.03693],[8.35773,47.03977],[8.35655,47.04313],[8.35048,47.0453],[8.34984,47.04872],[8.35254,47.04996],[8.35061,47.05083],[8.35801,47.05327],[8.3572,47.0569],[8.36066,47.05885],[8.38916,47.06821],[8.38944,47.06808]]]}},{"type":"Feature","properties":{"name":"Meierskappel","cantonId":"lucerne","municipalityId":"meierskappel-1064"},"geometry":{"type":"Polygon","coordinates":[[[8.49374,47.11373],[8.49305,47.10017],[8.47627,47.10613],[8.47366,47.1122],[8.46435,47.11096],[8.45001,47.11442],[8.44843,47.11125],[8.4375,47.10931],[8.43737,47.10625],[8.41804,47.10243],[8.4147,47.10746],[8.41797,47.10954],[8.41493,47.11118],[8.41805,47.1176],[8.41507,47.12124],[8.43041,47.12331],[8.44162,47.12947],[8.44956,47.13101],[8.45561,47.11344],[8.46586,47.11706],[8.48038,47.12632],[8.49374,47.11373]]]}},{"type":"Feature","properties":{"name":"Menznau","cantonId":"lucerne","municipalityId":"menznau-1136"},"geometry":{"type":"Polygon","coordinates":[[[8.08048,47.07771],[8.07356,47.08217],[8.06623,47.08201],[8.06203,47.07786],[8.06786,47.07235],[8.06243,47.06733],[8.06209,47.0614],[8.04077,47.05703],[8.03061,47.05851],[8.02461,47.05058],[8.0249,47.0482],[8.01606,47.04993],[8.01856,47.04987],[8.01673,47.04226],[8.0337,47.03598],[8.02715,47.03358],[8.01997,47.02696],[8.01494,47.02545],[7.99744,47.02678],[7.98563,47.0303],[7.96942,47.02962],[7.96607,47.03271],[7.98807,47.0431],[7.99895,47.05157],[7.99709,47.05938],[8.00082,47.06349],[8.01853,47.0683],[8.01739,47.07115],[8.02408,47.07658],[8.02249,47.08007],[8.01889,47.0802],[8.01449,47.08821],[8.02574,47.09209],[8.02337,47.09524],[8.03039,47.10423],[8.04079,47.10751],[8.05093,47.10315],[8.05675,47.10503],[8.07767,47.09675],[8.0798,47.09407],[8.07553,47.09184],[8.08388,47.08523],[8.08048,47.07774],[8.08048,47.07771]]]}},{"type":"Feature","properties":{"name":"Nebikon","cantonId":"lucerne","municipalityId":"nebikon-1137"},"geometry":{"type":"Polygon","coordinates":[[[7.97514,47.20249],[8.00146,47.19541],[8.00273,47.19253],[7.9999,47.18939],[7.98564,47.18739],[7.98163,47.1839],[7.97855,47.18639],[7.97447,47.18402],[7.97436,47.18115],[7.96767,47.18193],[7.96898,47.18444],[7.96034,47.18482],[7.95425,47.18784],[7.95936,47.19128],[7.96454,47.18935],[7.9723,47.19152],[7.97528,47.20225],[7.97514,47.20249]]]}},{"type":"Feature","properties":{"name":"Neuenkirch","cantonId":"lucerne","municipalityId":"neuenkirch-1093"},"geometry":{"type":"Polygon","coordinates":[[[8.15741,47.11061],[8.16073,47.11565],[8.17751,47.12785],[8.18645,47.12144],[8.19549,47.11902],[8.20057,47.11985],[8.20073,47.12251],[8.20505,47.11991],[8.21105,47.12076],[8.21654,47.12732],[8.21533,47.1311],[8.21714,47.1319],[8.21471,47.13329],[8.2163,47.13521],[8.21348,47.14144],[8.21564,47.14462],[8.21911,47.13993],[8.23147,47.13281],[8.23034,47.13011],[8.2385,47.12385],[8.2392,47.12083],[8.23223,47.11476],[8.2369,47.11258],[8.22957,47.09596],[8.2304,47.09342],[8.2338,47.09255],[8.22373,47.08968],[8.2274,47.08355],[8.21914,47.07998],[8.21873,47.07536],[8.21042,47.07518],[8.20587,47.07023],[8.1949,47.06876],[8.19194,47.07212],[8.19405,47.07668],[8.19077,47.07862],[8.19067,47.08114],[8.18019,47.08251],[8.17715,47.08491],[8.17574,47.09602],[8.16309,47.10383],[8.15786,47.11036],[8.15741,47.11061]]]}},{"type":"Feature","properties":{"name":"Nottwil","cantonId":"lucerne","municipalityId":"nottwil-1094"},"geometry":{"type":"Polygon","coordinates":[[[8.15741,47.11061],[8.15494,47.10835],[8.1426,47.11398],[8.13528,47.11319],[8.12927,47.11512],[8.11844,47.1254],[8.10217,47.1358],[8.10169,47.13806],[8.10604,47.14012],[8.11289,47.14068],[8.1166,47.14449],[8.12194,47.14573],[8.12456,47.14343],[8.14223,47.15315],[8.17751,47.12785],[8.15645,47.11103],[8.15741,47.11061]]]}},{"type":"Feature","properties":{"name":"Oberkirch","cantonId":"lucerne","municipalityId":"oberkirch-1095"},"geometry":{"type":"Polygon","coordinates":[[[8.09419,47.14047],[8.08998,47.14058],[8.08839,47.14783],[8.07578,47.15684],[8.08143,47.16598],[8.09381,47.17109],[8.10579,47.163],[8.11253,47.16671],[8.12971,47.16664],[8.13431,47.15883],[8.14223,47.15315],[8.12456,47.14343],[8.12194,47.14573],[8.1166,47.14449],[8.11434,47.14129],[8.10169,47.13806],[8.10002,47.14017],[8.09435,47.14052],[8.09419,47.14047]]]}},{"type":"Feature","properties":{"name":"Pfaffnau","cantonId":"lucerne","municipalityId":"pfaffnau-1139"},"geometry":{"type":"Polygon","coordinates":[[[7.85627,47.20071],[7.84915,47.20979],[7.84692,47.21723],[7.83666,47.2238],[7.83919,47.23563],[7.85322,47.23242],[7.86741,47.23729],[7.90998,47.24394],[7.92193,47.2378],[7.92312,47.2328],[7.92545,47.23159],[7.92229,47.2236],[7.92359,47.22182],[7.91484,47.21503],[7.91447,47.21213],[7.91833,47.2107],[7.91153,47.2064],[7.90837,47.20094],[7.89818,47.19817],[7.88973,47.20165],[7.89308,47.20657],[7.89732,47.20539],[7.90649,47.20931],[7.90463,47.21162],[7.90622,47.21405],[7.89144,47.21999],[7.88578,47.21929],[7.87809,47.22175],[7.8698,47.22882],[7.86785,47.22818],[7.86898,47.22468],[7.86266,47.22415],[7.85735,47.21793],[7.8587,47.21529],[7.86146,47.21661],[7.8628,47.215],[7.86099,47.21183],[7.86862,47.20514],[7.86599,47.20465],[7.86757,47.20247],[7.85996,47.19862],[7.8563,47.20068],[7.85627,47.20071]]]}},{"type":"Feature","properties":{"name":"Rain","cantonId":"lucerne","municipalityId":"rain-1037"},"geometry":{"type":"Polygon","coordinates":[[[8.23147,47.13281],[8.24312,47.13331],[8.2439,47.13574],[8.24889,47.13773],[8.24689,47.14035],[8.2495,47.14344],[8.25684,47.14312],[8.25998,47.14521],[8.26033,47.14964],[8.26558,47.14939],[8.26523,47.14747],[8.26943,47.14706],[8.27563,47.14226],[8.28126,47.14178],[8.28146,47.13578],[8.28716,47.14151],[8.28811,47.13718],[8.29342,47.13679],[8.27987,47.12657],[8.28741,47.1215],[8.27794,47.1179],[8.26618,47.11826],[8.2664,47.12026],[8.24682,47.12016],[8.23429,47.12561],[8.23034,47.13011],[8.23142,47.13265],[8.23147,47.13281]]]}},{"type":"Feature","properties":{"name":"Reiden","cantonId":"lucerne","municipalityId":"reiden-1140"},"geometry":{"type":"Polygon","coordinates":[[[7.96161,47.25457],[7.97785,47.25746],[7.9876,47.26179],[7.99102,47.26135],[7.99101,47.25935],[7.9997,47.26218],[8.00548,47.26013],[8.01377,47.26203],[8.01754,47.25589],[8.01424,47.24142],[8.01688,47.23722],[8.01493,47.23503],[8.00947,47.23579],[7.98892,47.23151],[7.9812,47.23512],[7.97606,47.23503],[7.97357,47.22955],[7.97546,47.227],[7.9671,47.22165],[7.96421,47.21697],[7.94792,47.21167],[7.94627,47.20125],[7.94017,47.1977],[7.92995,47.19843],[7.92881,47.19639],[7.91343,47.19949],[7.9101,47.20286],[7.91153,47.2064],[7.91833,47.2107],[7.91447,47.21213],[7.91484,47.21503],[7.92359,47.22182],[7.92229,47.2236],[7.92545,47.23159],[7.92312,47.2328],[7.92193,47.2378],[7.93349,47.23589],[7.96162,47.25443],[7.96161,47.25457]]]}},{"type":"Feature","properties":{"name":"Rickenbach (LU)","cantonId":"lucerne","municipalityId":"rickenbach-lu-1097"},"geometry":{"type":"Polygon","coordinates":[[[8.14252,47.20364],[8.14032,47.2083],[8.14049,47.21848],[8.13441,47.22004],[8.12985,47.22793],[8.1317,47.23228],[8.12443,47.24137],[8.13559,47.24694],[8.16027,47.24883],[8.17491,47.25353],[8.17956,47.25065],[8.18023,47.24566],[8.17595,47.24043],[8.17112,47.24017],[8.16979,47.24195],[8.15595,47.23942],[8.15594,47.23781],[8.16188,47.23615],[8.15971,47.23313],[8.16558,47.22844],[8.17412,47.22749],[8.17279,47.22504],[8.176,47.2219],[8.17167,47.21865],[8.15586,47.21403],[8.15259,47.21157],[8.15228,47.20809],[8.149,47.20876],[8.14841,47.20517],[8.1427,47.20344],[8.14252,47.20364]]]}},{"type":"Feature","properties":{"name":"Römerswil","cantonId":"lucerne","municipalityId":"roemerswil-1039"},"geometry":{"type":"Polygon","coordinates":[[[8.26552,47.19039],[8.27547,47.17688],[8.28059,47.17317],[8.28361,47.16459],[8.27609,47.161],[8.27981,47.15383],[8.28731,47.15231],[8.28372,47.14325],[8.27563,47.14226],[8.26943,47.14706],[8.26523,47.14747],[8.26558,47.14939],[8.26033,47.14964],[8.25998,47.14521],[8.25209,47.14257],[8.25049,47.14343],[8.25299,47.14582],[8.25111,47.15139],[8.25287,47.15228],[8.24918,47.15382],[8.24949,47.15711],[8.23454,47.16065],[8.23496,47.16272],[8.23223,47.16368],[8.23291,47.17712],[8.23095,47.177],[8.23199,47.17992],[8.22912,47.18265],[8.23252,47.18315],[8.22621,47.1891],[8.22451,47.20342],[8.22186,47.20771],[8.22332,47.20838],[8.22049,47.21099],[8.22376,47.21243],[8.22652,47.21099],[8.22935,47.20513],[8.23592,47.20884],[8.23911,47.20146],[8.23661,47.20095],[8.2356,47.19733],[8.24065,47.18866],[8.24044,47.18472],[8.26292,47.19407],[8.26552,47.19039]]]}},{"type":"Feature","properties":{"name":"Roggliswil","cantonId":"lucerne","municipalityId":"roggliswil-1142"},"geometry":{"type":"Polygon","coordinates":[[[7.86862,47.20514],[7.86239,47.20934],[7.86146,47.21661],[7.8587,47.21529],[7.85735,47.21793],[7.86266,47.22415],[7.86898,47.22468],[7.86785,47.22818],[7.8698,47.22882],[7.87809,47.22175],[7.88578,47.21929],[7.89144,47.21999],[7.90601,47.21416],[7.90469,47.21096],[7.90707,47.2099],[7.89732,47.20539],[7.89308,47.20657],[7.88973,47.20165],[7.88224,47.19965],[7.87632,47.20121],[7.87523,47.20402],[7.8688,47.20507],[7.86862,47.20514]]]}},{"type":"Feature","properties":{"name":"Romoos","cantonId":"lucerne","municipalityId":"romoos-1007"},"geometry":{"type":"Polygon","coordinates":[[[8.05803,47.02879],[8.046,47.02195],[8.03951,47.02113],[8.03522,47.01614],[8.03166,47.01007],[8.0352,47.00162],[8.03476,46.99438],[8.0303,46.98996],[8.01973,46.98642],[8.01526,46.98192],[8.0069,46.97991],[8.00205,46.97611],[7.99329,46.97611],[7.97356,46.96972],[7.96023,46.97275],[7.95744,46.98008],[7.95244,46.98125],[7.9504,46.98542],[7.94839,46.99406],[7.95621,47.00342],[7.94951,47.00756],[7.9485,47.01314],[7.95074,47.01947],[7.9682,47.02958],[7.98563,47.0303],[7.99744,47.02678],[8.01606,47.02553],[8.03401,47.03604],[8.04179,47.03648],[8.05795,47.02878],[8.05803,47.02879]]]}},{"type":"Feature","properties":{"name":"Root","cantonId":"lucerne","municipalityId":"root-1065"},"geometry":{"type":"Polygon","coordinates":[[[8.4053,47.13747],[8.41222,47.14056],[8.41677,47.13055],[8.41436,47.12618],[8.41785,47.12238],[8.42033,47.12262],[8.41507,47.12124],[8.41805,47.1176],[8.41711,47.11273],[8.40522,47.1035],[8.39748,47.10273],[8.39652,47.09851],[8.39337,47.09958],[8.3881,47.09725],[8.36947,47.10386],[8.36372,47.10056],[8.35929,47.10307],[8.35883,47.10571],[8.36235,47.1081],[8.36249,47.11469],[8.35611,47.11427],[8.36452,47.11851],[8.38655,47.11981],[8.39251,47.12397],[8.39885,47.12129],[8.40979,47.12076],[8.4139,47.1248],[8.40116,47.13128],[8.39953,47.13319],[8.40343,47.13664],[8.4053,47.13747]]]}},{"type":"Feature","properties":{"name":"Rothenburg","cantonId":"lucerne","municipalityId":"rothenburg-1040"},"geometry":{"type":"Polygon","coordinates":[[[8.2338,47.09255],[8.2304,47.09342],[8.22957,47.09596],[8.2369,47.11258],[8.23223,47.11476],[8.23813,47.11848],[8.2385,47.12385],[8.24762,47.11998],[8.2664,47.12026],[8.26618,47.11826],[8.27071,47.11767],[8.28741,47.1215],[8.28589,47.11964],[8.2887,47.1179],[8.28244,47.11473],[8.28163,47.11267],[8.28358,47.11157],[8.28861,47.11084],[8.29979,47.11517],[8.31023,47.1121],[8.30871,47.10998],[8.31097,47.10655],[8.30351,47.10594],[8.3008,47.1014],[8.29291,47.10155],[8.29233,47.09866],[8.28277,47.09682],[8.28144,47.09442],[8.26896,47.09157],[8.25915,47.08621],[8.24993,47.08523],[8.23417,47.09179],[8.2338,47.09255]]]}},{"type":"Feature","properties":{"name":"Ruswil","cantonId":"lucerne","municipalityId":"ruswil-1098"},"geometry":{"type":"Polygon","coordinates":[[[8.15741,47.11061],[8.16309,47.10383],[8.17574,47.09602],[8.17715,47.08491],[8.18019,47.08251],[8.19067,47.08114],[8.19077,47.07862],[8.19413,47.07644],[8.19194,47.07212],[8.19619,47.06879],[8.18877,47.06405],[8.1791,47.06309],[8.17838,47.06081],[8.17483,47.0601],[8.17623,47.05684],[8.17349,47.05065],[8.15357,47.04692],[8.14236,47.04668],[8.13599,47.04953],[8.13321,47.04341],[8.11742,47.04574],[8.11229,47.05138],[8.10842,47.04931],[8.10342,47.05622],[8.10193,47.05459],[8.08726,47.05394],[8.08998,47.05859],[8.08724,47.06395],[8.08884,47.06985],[8.08653,47.07558],[8.08048,47.07774],[8.08401,47.08852],[8.0896,47.08935],[8.08994,47.09115],[8.08806,47.09116],[8.09065,47.09232],[8.09061,47.09735],[8.099,47.10049],[8.10457,47.09922],[8.11673,47.10558],[8.11648,47.10925],[8.12966,47.11005],[8.12927,47.11512],[8.13528,47.11319],[8.14212,47.1141],[8.15494,47.10835],[8.15729,47.10941],[8.15741,47.11061]]]}},{"type":"Feature","properties":{"name":"Schenkon","cantonId":"lucerne","municipalityId":"schenkon-1099"},"geometry":{"type":"Polygon","coordinates":[[[8.12971,47.16664],[8.12482,47.17211],[8.12643,47.17448],[8.12291,47.17427],[8.1233,47.17613],[8.11511,47.18002],[8.11692,47.18167],[8.11157,47.18129],[8.10809,47.18935],[8.11869,47.19176],[8.12973,47.19743],[8.1345,47.19499],[8.13697,47.19054],[8.14926,47.18378],[8.14738,47.18273],[8.1509,47.17747],[8.16015,47.17217],[8.15289,47.16962],[8.15175,47.16647],[8.14573,47.16664],[8.14635,47.16513],[8.13431,47.15883],[8.12971,47.16664]]]}},{"type":"Feature","properties":{"name":"Schlierbach","cantonId":"lucerne","municipalityId":"schlierbach-1100"},"geometry":{"type":"Polygon","coordinates":[[[8.09597,47.2291],[8.10484,47.22998],[8.10276,47.23021],[8.10141,47.23446],[8.10405,47.23462],[8.10252,47.2422],[8.10615,47.24435],[8.11959,47.24385],[8.12835,47.23813],[8.12753,47.23608],[8.1317,47.23228],[8.12985,47.22793],[8.13178,47.22381],[8.13441,47.22004],[8.14066,47.21799],[8.14107,47.20825],[8.13919,47.2055],[8.13925,47.20729],[8.1338,47.20765],[8.13062,47.21501],[8.12281,47.21632],[8.11476,47.21398],[8.09612,47.22891],[8.09597,47.2291]]]}},{"type":"Feature","properties":{"name":"Schötz","cantonId":"lucerne","municipalityId":"schoetz-1143"},"geometry":{"type":"Polygon","coordinates":[[[7.93376,47.16129],[7.93182,47.17091],[7.943,47.16749],[7.96247,47.16834],[7.96356,47.17092],[7.9596,47.17444],[7.96105,47.17967],[7.96495,47.18226],[7.97436,47.18115],[7.97447,47.18402],[7.98431,47.18275],[7.98576,47.18025],[7.98905,47.18134],[7.99278,47.17822],[7.99494,47.18035],[7.99907,47.17719],[7.99721,47.17565],[8.00346,47.17305],[8.01275,47.17301],[8.01531,47.17756],[8.02328,47.17753],[8.02072,47.17298],[8.0241,47.16991],[8.01909,47.16989],[8.01499,47.15891],[7.99696,47.15996],[7.99515,47.15705],[7.98854,47.15612],[7.98833,47.15361],[7.97784,47.14807],[7.97376,47.15022],[7.95805,47.14881],[7.95595,47.15202],[7.95146,47.15016],[7.94772,47.15338],[7.9501,47.15534],[7.944,47.15639],[7.94752,47.15868],[7.94075,47.15784],[7.93377,47.16119],[7.93376,47.16129]]]}},{"type":"Feature","properties":{"name":"Schongau","cantonId":"lucerne","municipalityId":"schongau-1041"},"geometry":{"type":"Polygon","coordinates":[[[8.25872,47.28719],[8.26174,47.28254],[8.27069,47.28347],[8.27322,47.28064],[8.27865,47.28212],[8.30027,47.27148],[8.29445,47.26557],[8.29905,47.25548],[8.28529,47.2477],[8.2672,47.25384],[8.2554,47.25428],[8.24742,47.26136],[8.241,47.276],[8.24463,47.28075],[8.24867,47.2812],[8.25073,47.28608],[8.2587,47.28719],[8.25872,47.28719]]]}},{"type":"Feature","properties":{"name":"Schüpfheim","cantonId":"lucerne","municipalityId":"schuepfheim-1008"},"geometry":{"type":"Polygon","coordinates":[[[7.95962,46.97358],[7.96567,46.97045],[7.97356,46.96972],[7.99329,46.97611],[8.00148,46.97592],[8.00829,46.98026],[8.0151,46.97269],[8.027,46.97804],[8.04761,46.96296],[8.04326,46.95518],[8.04433,46.9519],[8.04261,46.95007],[8.04788,46.9461],[8.04375,46.93771],[8.0454,46.93548],[8.05728,46.93544],[8.05562,46.93072],[8.05959,46.93067],[8.06495,46.93457],[8.06451,46.92269],[8.07054,46.91642],[8.06214,46.90957],[8.05498,46.91081],[8.05499,46.91262],[8.05031,46.91412],[8.03489,46.91578],[8.02985,46.91916],[8.01892,46.91438],[8.01533,46.91482],[8.0152,46.92475],[7.99799,46.91788],[7.99862,46.92133],[7.99591,46.92361],[7.9972,46.92476],[7.99273,46.92692],[7.99239,46.93176],[7.98682,46.9363],[7.98591,46.94052],[7.97919,46.93852],[7.97161,46.93955],[7.95388,46.95428],[7.95472,46.95891],[7.95693,46.95777],[7.95733,46.96016],[7.96454,46.96211],[7.94965,46.96779],[7.94703,46.97191],[7.95005,46.97312],[7.94891,46.97556],[7.95443,46.97265],[7.95962,46.97353],[7.95962,46.97358]]]}},{"type":"Feature","properties":{"name":"Schwarzenberg","cantonId":"lucerne","municipalityId":"schwarzenberg-1066"},"geometry":{"type":"Polygon","coordinates":[[[8.23772,46.99183],[8.22807,46.99261],[8.2181,46.98109],[8.22972,46.97214],[8.22704,46.96922],[8.20225,46.96697],[8.18734,46.97174],[8.16226,46.96348],[8.15692,46.96591],[8.15491,46.96978],[8.14621,46.97062],[8.1428,46.97725],[8.14357,46.98256],[8.14034,46.99143],[8.14417,47.00211],[8.13213,47.00539],[8.12723,47.01124],[8.14196,47.0128],[8.1569,47.01947],[8.17654,47.02479],[8.21163,47.02909],[8.2158,47.0273],[8.21952,47.02344],[8.21797,47.0142],[8.23087,47.00379],[8.23304,46.99551],[8.23739,46.992],[8.23772,46.99183]]]}},{"type":"Feature","properties":{"name":"Sempach","cantonId":"lucerne","municipalityId":"sempach-1102"},"geometry":{"type":"Polygon","coordinates":[[[8.17751,47.12785],[8.16476,47.137],[8.17756,47.14941],[8.1903,47.15438],[8.19135,47.15756],[8.19867,47.1616],[8.20766,47.15926],[8.20911,47.15713],[8.20218,47.15606],[8.20322,47.15319],[8.20973,47.15196],[8.20964,47.14846],[8.21745,47.14586],[8.21348,47.1416],[8.2163,47.13521],[8.21471,47.13329],[8.21714,47.1319],[8.21533,47.1311],[8.21593,47.12593],[8.20703,47.11961],[8.20073,47.12251],[8.20057,47.11985],[8.19572,47.11899],[8.18645,47.12144],[8.17751,47.12785]]]}},{"type":"Feature","properties":{"name":"Sursee","cantonId":"lucerne","municipalityId":"sursee-1103"},"geometry":{"type":"Polygon","coordinates":[[[8.08244,47.1802],[8.08792,47.18397],[8.09434,47.18471],[8.09055,47.19328],[8.10951,47.19141],[8.10809,47.18935],[8.11157,47.18129],[8.11692,47.18167],[8.11511,47.18002],[8.1233,47.17613],[8.12291,47.17427],[8.12643,47.17448],[8.12482,47.17211],[8.12971,47.16664],[8.11253,47.16671],[8.10579,47.163],[8.09926,47.16893],[8.08809,47.174],[8.0837,47.17997],[8.08244,47.1802]]]}},{"type":"Feature","properties":{"name":"Triengen","cantonId":"lucerne","municipalityId":"triengen-1104"},"geometry":{"type":"Polygon","coordinates":[[[8.01416,47.23456],[8.01688,47.23722],[8.0143,47.24081],[8.016,47.24417],[8.02917,47.24056],[8.03011,47.24222],[8.05134,47.24415],[8.06299,47.24667],[8.05717,47.25268],[8.05658,47.25544],[8.05861,47.2567],[8.07117,47.25471],[8.07838,47.26004],[8.08829,47.26288],[8.09879,47.26019],[8.10594,47.2521],[8.1091,47.24454],[8.10252,47.2422],[8.10405,47.23462],[8.10141,47.23446],[8.10276,47.23021],[8.10484,47.22998],[8.09634,47.22956],[8.09641,47.22603],[8.08818,47.22498],[8.08798,47.22222],[8.08268,47.22102],[8.08359,47.21961],[8.07571,47.22032],[8.07737,47.21743],[8.0719,47.21658],[8.0722,47.21302],[8.0686,47.21092],[8.05768,47.21077],[8.04678,47.2176],[8.03981,47.21866],[8.0406,47.22186],[8.03758,47.22559],[8.03155,47.2275],[8.02987,47.23202],[8.01503,47.23401],[8.01416,47.23456]]]}},{"type":"Feature","properties":{"name":"Udligenswil","cantonId":"lucerne","municipalityId":"udligenswil-1067"},"geometry":{"type":"Polygon","coordinates":[[[8.42058,47.10179],[8.4094,47.09271],[8.41069,47.08593],[8.40649,47.07889],[8.38916,47.07067],[8.38943,47.07476],[8.39462,47.07768],[8.38818,47.07936],[8.38206,47.08654],[8.37744,47.08559],[8.38312,47.09055],[8.38309,47.09399],[8.38849,47.09539],[8.3881,47.09725],[8.39206,47.09919],[8.39652,47.09851],[8.39748,47.10273],[8.40522,47.1035],[8.41493,47.11118],[8.41797,47.10954],[8.4147,47.10746],[8.42034,47.1019],[8.42058,47.10179]]]}},{"type":"Feature","properties":{"name":"Ufhusen","cantonId":"lucerne","municipalityId":"ufhusen-1145"},"geometry":{"type":"Polygon","coordinates":[[[7.87354,47.12405],[7.88619,47.12858],[7.90039,47.12515],[7.90449,47.12304],[7.90477,47.12017],[7.90815,47.12036],[7.9082,47.11336],[7.91619,47.11118],[7.91581,47.10948],[7.91962,47.11072],[7.91871,47.11442],[7.92471,47.11642],[7.92812,47.11464],[7.92552,47.11049],[7.92862,47.10806],[7.92089,47.10463],[7.92538,47.10244],[7.92547,47.09926],[7.91956,47.09969],[7.91612,47.10522],[7.90942,47.1052],[7.89943,47.09187],[7.87897,47.0788],[7.87671,47.07965],[7.88015,47.08126],[7.87831,47.08225],[7.88165,47.08875],[7.87791,47.09294],[7.87977,47.09482],[7.8736,47.09784],[7.8762,47.10165],[7.87292,47.1043],[7.87496,47.10943],[7.86816,47.11197],[7.87005,47.1159],[7.86693,47.1166],[7.8682,47.12136],[7.87359,47.12398],[7.87354,47.12405]]]}},{"type":"Feature","properties":{"name":"Vitznau","cantonId":"lucerne","municipalityId":"vitznau-1068"},"geometry":{"type":"Polygon","coordinates":[[[8.46817,46.99652],[8.46907,47.00928],[8.45848,47.01133],[8.46864,47.02199],[8.47237,47.03099],[8.47789,47.02745],[8.48052,47.03278],[8.47518,47.04313],[8.50125,47.02431],[8.5135,47.02168],[8.51406,47.01753],[8.50905,47.00449],[8.50077,47.0009],[8.4736,46.99554],[8.46817,46.99652]]]}},{"type":"Feature","properties":{"name":"Wauwil","cantonId":"lucerne","municipalityId":"wauwil-1146"},"geometry":{"type":"Polygon","coordinates":[[[8.01903,47.1924],[8.02434,47.19556],[8.0283,47.19243],[8.03672,47.19071],[8.03544,47.176],[8.02837,47.17294],[8.02072,47.17298],[8.02328,47.17753],[8.01531,47.17756],[8.01859,47.18334],[8.01311,47.1845],[8.016,47.18771],[8.01941,47.18772],[8.01741,47.19026],[8.01894,47.19205],[8.01903,47.1924]]]}},{"type":"Feature","properties":{"name":"Weggis","cantonId":"lucerne","municipalityId":"weggis-1069"},"geometry":{"type":"Polygon","coordinates":[[[8.45848,47.01133],[8.42799,47.0172],[8.40645,47.01559],[8.36852,47.01995],[8.37796,47.03008],[8.41176,47.05469],[8.42303,47.0497],[8.43497,47.04783],[8.4559,47.04762],[8.46184,47.05023],[8.47518,47.04313],[8.48052,47.03278],[8.47789,47.02745],[8.47237,47.03099],[8.46834,47.02185],[8.45848,47.01133]]]}},{"type":"Feature","properties":{"name":"Werthenstein","cantonId":"lucerne","municipalityId":"werthenstein-1009"},"geometry":{"type":"Polygon","coordinates":[[[8.13321,47.04341],[8.15008,47.03937],[8.13469,47.01695],[8.11564,47.00655],[8.11486,47.01439],[8.11878,47.01816],[8.1169,47.02812],[8.10766,47.02637],[8.10166,47.03115],[8.09048,47.03517],[8.07887,47.03423],[8.07779,47.0304],[8.0703,47.03258],[8.06829,47.03352],[8.06914,47.04175],[8.06541,47.05035],[8.07017,47.05779],[8.08056,47.05363],[8.09516,47.05374],[8.10335,47.05623],[8.10842,47.04931],[8.11229,47.05138],[8.11742,47.04574],[8.13158,47.04382],[8.13321,47.04341]]]}},{"type":"Feature","properties":{"name":"Wikon","cantonId":"lucerne","municipalityId":"wikon-1147"},"geometry":{"type":"Polygon","coordinates":[[[7.96161,47.25457],[7.95166,47.26569],[7.94917,47.27254],[7.95065,47.27478],[7.95603,47.27686],[7.97346,47.27448],[7.9869,47.27602],[7.99531,47.28155],[8.0048,47.27437],[8.00523,47.2693],[8.01377,47.26203],[8.00548,47.26013],[7.9997,47.26218],[7.99101,47.25935],[7.99102,47.26135],[7.98777,47.26182],[7.97785,47.25746],[7.96189,47.2544],[7.96161,47.25457]]]}},{"type":"Feature","properties":{"name":"Willisau","cantonId":"lucerne","municipalityId":"willisau-1151"},"geometry":{"type":"Polygon","coordinates":[[[8.00305,47.13793],[8.01005,47.13462],[8.02509,47.12027],[8.02975,47.12048],[8.02782,47.11883],[8.03573,47.11743],[8.03366,47.11111],[8.03848,47.10679],[8.02983,47.1037],[8.02337,47.09524],[8.02574,47.09209],[8.01449,47.08821],[8.01889,47.0802],[8.02249,47.08007],[8.02408,47.07658],[8.01739,47.07115],[8.01853,47.0683],[8.00082,47.06349],[7.99704,47.05898],[7.99947,47.05213],[7.98935,47.04394],[7.98271,47.05077],[7.98646,47.05514],[7.98204,47.06486],[7.9829,47.06902],[7.97997,47.07175],[7.98493,47.08152],[7.97627,47.08297],[7.9835,47.08689],[7.97696,47.08962],[7.97745,47.09645],[7.96542,47.10043],[7.94677,47.09504],[7.94186,47.09644],[7.94187,47.09943],[7.93159,47.09821],[7.92934,47.09577],[7.93272,47.09429],[7.92891,47.09306],[7.93114,47.09106],[7.93049,47.08851],[7.93291,47.0877],[7.92795,47.08458],[7.92983,47.08213],[7.92393,47.07975],[7.9257,47.08498],[7.92361,47.08749],[7.92936,47.09498],[7.92491,47.09816],[7.92538,47.10244],[7.92089,47.10463],[7.92875,47.10828],[7.92555,47.11032],[7.92814,47.11424],[7.92517,47.11613],[7.9259,47.11879],[7.94312,47.12129],[7.94577,47.12367],[7.94287,47.12508],[7.94623,47.12728],[7.94389,47.12866],[7.94562,47.13188],[7.95057,47.13328],[7.95012,47.13996],[7.94565,47.14412],[7.95437,47.14509],[7.95245,47.14701],[7.95637,47.14915],[7.9707,47.14858],[7.97376,47.15022],[7.97967,47.14839],[7.98548,47.14271],[7.98881,47.14261],[7.99089,47.13888],[7.98591,47.13133],[7.99152,47.13306],[7.993,47.13899],[7.99714,47.1391],[7.998,47.13662],[8.00255,47.13759],[8.00305,47.13793]]]}},{"type":"Feature","properties":{"name":"Wolhusen","cantonId":"lucerne","municipalityId":"wolhusen-1107"},"geometry":{"type":"Polygon","coordinates":[[[8.05803,47.02879],[8.04195,47.03643],[8.036,47.03503],[8.01721,47.04193],[8.01619,47.04484],[8.01856,47.04987],[8.01579,47.04966],[8.01986,47.05047],[8.0249,47.0482],[8.02461,47.05058],[8.03061,47.05851],[8.04077,47.05703],[8.06209,47.0614],[8.06243,47.06733],[8.06786,47.07235],[8.06203,47.07786],[8.06623,47.08201],[8.07407,47.08201],[8.08653,47.07558],[8.08884,47.06985],[8.08727,47.06372],[8.08997,47.05851],[8.08726,47.05394],[8.08019,47.05369],[8.06895,47.05724],[8.06901,47.05385],[8.06538,47.0501],[8.06914,47.04175],[8.06825,47.0334],[8.05806,47.0288],[8.05803,47.02879]]]}},{"type":"Feature","properties":{"name":"Zell (LU)","cantonId":"lucerne","municipalityId":"zell-lu-1150"},"geometry":{"type":"Polygon","coordinates":[[[7.93376,47.16129],[7.94075,47.15784],[7.94752,47.15868],[7.944,47.15639],[7.9501,47.15534],[7.94772,47.15338],[7.95146,47.15016],[7.95595,47.15202],[7.95857,47.14945],[7.95263,47.14732],[7.95437,47.14509],[7.94565,47.14412],[7.95012,47.13996],[7.95057,47.13328],[7.94562,47.13188],[7.94389,47.12866],[7.94623,47.12728],[7.94275,47.12572],[7.94603,47.12457],[7.94398,47.12182],[7.9259,47.11879],[7.92207,47.11415],[7.91871,47.11442],[7.91947,47.11048],[7.91581,47.10948],[7.91619,47.11118],[7.9082,47.11336],[7.90815,47.12036],[7.90477,47.12017],[7.90449,47.12304],[7.89055,47.12774],[7.89419,47.13252],[7.90139,47.13477],[7.90158,47.13738],[7.919,47.14431],[7.9239,47.14952],[7.92248,47.15527],[7.9331,47.16069],[7.93376,47.16129]]]}}]}
