{"type":"FeatureCollection","features":[{"type":"Feature","properties":{"name":"Boudry","cantonId":"neuchatel","municipalityId":"boudry-6404"},"geometry":{"type":"Polygon","coordinates":[[[6.87408,46.95597],[6.87106,46.94538],[6.86805,46.94884],[6.84691,46.95272],[6.8251,46.94096],[6.81462,46.94324],[6.79824,46.93898],[6.78731,46.9433],[6.78454,46.94516],[6.7835,46.95009],[6.78126,46.95001],[6.76067,46.94049],[6.75001,46.93978],[6.75091,46.94434],[6.73855,46.95331],[6.75175,46.94934],[6.77145,46.95862],[6.78395,46.96046],[6.78409,46.96306],[6.80798,46.96342],[6.82159,46.97085],[6.8315,46.96744],[6.82931,46.96644],[6.83499,46.95972],[6.83921,46.96236],[6.84306,46.95895],[6.85461,46.95866],[6.85681,46.96068],[6.86011,46.95829],[6.86431,46.96116],[6.87352,46.95606],[6.87408,46.95597]]]}},{"type":"Feature","properties":{"name":"Brot-Plamboz","cantonId":"neuchatel","municipalityId":"brot-plamboz-6433"},"geometry":{"type":"Polygon","coordinates":[[[6.74035,46.96028],[6.73361,46.95781],[6.71392,46.9667],[6.71864,46.97327],[6.71725,46.97643],[6.72844,46.982],[6.73519,46.98816],[6.73881,46.98768],[6.74428,46.99599],[6.78058,47.01829],[6.79516,47.01379],[6.79276,47.01021],[6.78623,47.00559],[6.78495,47.00222],[6.78273,47.00317],[6.77725,46.99871],[6.77493,47.00003],[6.76244,46.99292],[6.77858,46.97453],[6.74036,46.96028],[6.74035,46.96028]]]}},{"type":"Feature","properties":{"name":"Cornaux","cantonId":"neuchatel","municipalityId":"cornaux-6451"},"geometry":{"type":"Polygon","coordinates":[[[7.03728,47.03457],[7.03349,47.03034],[7.03327,47.02392],[7.02817,47.02305],[7.02639,47.03092],[7.02144,47.02916],[7.01409,47.02138],[7.00049,47.02403],[6.99833,47.02639],[7.00146,47.02929],[7.00455,47.03925],[7.01306,47.04302],[7.0284,47.04274],[7.03707,47.03742],[7.03678,47.0348],[7.03728,47.03457]]]}},{"type":"Feature","properties":{"name":"Cortaillod","cantonId":"neuchatel","municipalityId":"cortaillod-6408"},"geometry":{"type":"Polygon","coordinates":[[[6.87106,46.94538],[6.85464,46.94063],[6.85237,46.93818],[6.84691,46.93869],[6.83956,46.93245],[6.83251,46.93581],[6.82964,46.94049],[6.83198,46.94193],[6.82896,46.94261],[6.84677,46.95269],[6.86805,46.94884],[6.87085,46.94567],[6.87106,46.94538]]]}},{"type":"Feature","properties":{"name":"Cressier (NE)","cantonId":"neuchatel","municipalityId":"cressier-ne-6452"},"geometry":{"type":"Polygon","coordinates":[[[6.99178,47.05154],[7.00064,47.06039],[7.006,47.05884],[7.00517,47.05362],[7.01297,47.05085],[7.02212,47.05631],[7.02051,47.06119],[7.02283,47.06526],[7.02948,47.06837],[7.03308,47.06771],[7.03664,47.06369],[7.05031,47.05814],[7.05101,47.05585],[7.04801,47.05511],[7.05233,47.05104],[7.04953,47.05044],[7.05336,47.0433],[7.03728,47.03457],[7.03707,47.03742],[7.0284,47.04274],[7.02453,47.04206],[7.02204,47.04418],[7.00341,47.04278],[6.99515,47.04575],[6.99127,47.05135],[6.99178,47.05154]]]}},{"type":"Feature","properties":{"name":"La Brévine","cantonId":"neuchatel","municipalityId":"la-brevine-6432"},"geometry":{"type":"Polygon","coordinates":[[[6.65125,47.00012],[6.65537,46.9949],[6.65647,46.98654],[6.66673,46.975],[6.6387,46.9578],[6.63622,46.96036],[6.6216,46.95908],[6.60061,46.95071],[6.54828,46.94729],[6.53705,46.94383],[6.51388,46.95091],[6.50335,46.95203],[6.49736,46.95578],[6.48575,46.96748],[6.49593,46.97395],[6.50482,46.9657],[6.5189,46.97099],[6.57189,46.98205],[6.59142,46.99089],[6.61619,46.98193],[6.62156,46.98811],[6.64901,46.99908],[6.65125,47.00012]]]}},{"type":"Feature","properties":{"name":"La Chaux-de-Fonds","cantonId":"neuchatel","municipalityId":"la-chaux-de-fonds-6421"},"geometry":{"type":"Polygon","coordinates":[[[6.78634,47.06166],[6.78452,47.06249],[6.78499,47.07016],[6.77251,47.0752],[6.7642,47.08751],[6.76844,47.09163],[6.76778,47.09391],[6.77735,47.09718],[6.78626,47.10377],[6.80393,47.10988],[6.80405,47.11873],[6.79236,47.12705],[6.80606,47.13072],[6.80827,47.13545],[6.81573,47.13593],[6.82837,47.1465],[6.83933,47.14998],[6.8404,47.1539],[6.84992,47.15644],[6.85999,47.16575],[6.88881,47.13114],[6.88101,47.1084],[6.8718,47.10287],[6.86687,47.08512],[6.85231,47.0706],[6.84621,47.06657],[6.82819,47.08434],[6.81463,47.07775],[6.81149,47.07395],[6.79677,47.07064],[6.78637,47.06169],[6.78634,47.06166]]]}},{"type":"Feature","properties":{"name":"La Chaux-du-Milieu","cantonId":"neuchatel","municipalityId":"la-chaux-du-milieu-6435"},"geometry":{"type":"Polygon","coordinates":[[[6.74543,47.02312],[6.72512,47.00996],[6.71696,46.99925],[6.7114,46.9954],[6.69676,46.98879],[6.6791,46.98415],[6.66673,46.975],[6.65647,46.98654],[6.65537,46.9949],[6.65125,47.00012],[6.69706,47.01416],[6.69574,47.01634],[6.70676,47.02171],[6.72969,47.02584],[6.7114,47.03153],[6.73195,47.03143],[6.74398,47.0243],[6.74543,47.02312]]]}},{"type":"Feature","properties":{"name":"La Côte-aux-Fées","cantonId":"neuchatel","municipalityId":"la-cote-aux-fees-6504"},"geometry":{"type":"Polygon","coordinates":[[[6.52754,46.85872],[6.48211,46.8466],[6.46653,46.84784],[6.46537,46.85084],[6.46004,46.85131],[6.46298,46.87559],[6.49638,46.88199],[6.50651,46.87128],[6.52044,46.86224],[6.52754,46.85872]]]}},{"type":"Feature","properties":{"name":"La Grande Béroche","cantonId":"neuchatel","municipalityId":"la-grande-beroche-6417"},"geometry":{"type":"Polygon","coordinates":[[[6.83956,46.93245],[6.83722,46.92572],[6.83059,46.92696],[6.82193,46.92365],[6.82189,46.92176],[6.81974,46.92304],[6.81344,46.91783],[6.80493,46.91574],[6.78222,46.89705],[6.78044,46.89283],[6.76846,46.88906],[6.75531,46.87044],[6.74001,46.87199],[6.73339,46.86791],[6.74069,46.88333],[6.73801,46.88457],[6.74012,46.89482],[6.71671,46.90608],[6.71754,46.91587],[6.72371,46.93112],[6.72041,46.93333],[6.71889,46.93997],[6.75091,46.94434],[6.74971,46.93984],[6.75615,46.93945],[6.7835,46.95009],[6.78454,46.94516],[6.79731,46.93911],[6.81034,46.94071],[6.81462,46.94324],[6.8251,46.94096],[6.83198,46.94193],[6.82964,46.94049],[6.83251,46.93581],[6.83845,46.93285],[6.83956,46.93245]]]}},{"type":"Feature","properties":{"name":"La Sagne","cantonId":"neuchatel","municipalityId":"la-sagne-6423"},"geometry":{"type":"Polygon","coordinates":[[[6.78634,47.06166],[6.79677,47.07064],[6.81149,47.07395],[6.81463,47.07775],[6.82819,47.08434],[6.84621,47.06657],[6.8129,47.02803],[6.79541,47.01372],[6.75231,47.02845],[6.75098,47.03134],[6.77006,47.04026],[6.77399,47.0462],[6.7795,47.04821],[6.78648,47.06158],[6.78634,47.06166]]]}},{"type":"Feature","properties":{"name":"Laténa","cantonId":"neuchatel","municipalityId":"latena-6513"},"geometry":{"type":"MultiPolygon","coordinates":[[[[7.02631,47.0045],[7.01569,46.99748],[7.0201,47.00446],[7.02197,47.00402],[7.0154,47.00492],[7.01199,47.00153],[6.99589,47.00443],[6.99105,47.01055],[6.98486,47.00899],[6.98016,47.0113],[6.97004,47.00561],[6.96325,47.01792],[6.95663,47.02351],[6.96564,47.02887],[6.97957,47.0432],[6.99127,47.05135],[6.99325,47.04739],[6.99864,47.04441],[7.01306,47.04302],[7.00455,47.03925],[7.00146,47.02929],[6.99833,47.02639],[7.00049,47.02403],[7.01409,47.02138],[7.02144,47.02916],[7.02639,47.03092],[7.02817,47.02305],[7.03327,47.02392],[7.03329,47.01589],[7.02572,47.00554],[7.02631,47.0045]]],[[[6.99178,47.05154],[6.9869,47.06384],[6.99925,47.07549],[7.01308,47.09473],[7.01797,47.09497],[7.03626,47.0836],[7.02846,47.07436],[7.02521,47.07411],[7.02529,47.07104],[7.02949,47.06837],[7.02063,47.06256],[7.02212,47.05631],[7.01297,47.05085],[7.00517,47.05362],[7.006,47.05884],[7.00064,47.06039],[6.99337,47.05291],[6.99178,47.05154]]],[[[7.04017,46.97985],[7.02886,46.98177],[7.03937,46.98126],[7.04017,46.97985]]]]}},{"type":"Feature","properties":{"name":"Le Cerneux-Péquignot","cantonId":"neuchatel","municipalityId":"le-cerneux-pequignot-6434"},"geometry":{"type":"Polygon","coordinates":[[[6.65125,47.00012],[6.62156,46.98811],[6.61619,46.98193],[6.59142,46.99089],[6.59996,46.99255],[6.61798,46.99166],[6.63359,46.99816],[6.64037,47.00282],[6.65363,47.02235],[6.66072,47.02814],[6.67653,47.03512],[6.69891,47.03886],[6.71394,47.03042],[6.72969,47.02584],[6.70676,47.02171],[6.69574,47.01634],[6.69706,47.01416],[6.65213,47.00053],[6.65125,47.00012]]]}},{"type":"Feature","properties":{"name":"Le Landeron","cantonId":"neuchatel","municipalityId":"le-landeron-6455"},"geometry":{"type":"Polygon","coordinates":[[[7.03626,47.0836],[7.05661,47.07234],[7.07052,47.07846],[7.08014,47.07375],[7.08068,47.06647],[7.08304,47.06652],[7.08177,47.0646],[7.08759,47.05997],[7.0744,47.05673],[7.07243,47.05461],[7.078,47.05181],[7.07609,47.05056],[7.06507,47.04491],[7.05336,47.0433],[7.04953,47.05044],[7.05233,47.05104],[7.04801,47.05511],[7.05101,47.05585],[7.05031,47.05814],[7.02529,47.07104],[7.02521,47.07411],[7.02846,47.07436],[7.03574,47.08331],[7.03626,47.0836]]]}},{"type":"Feature","properties":{"name":"Le Locle","cantonId":"neuchatel","municipalityId":"le-locle-6436"},"geometry":{"type":"Polygon","coordinates":[[[6.74543,47.02312],[6.73195,47.03143],[6.7114,47.03153],[6.69891,47.03886],[6.71962,47.05204],[6.71199,47.05361],[6.70882,47.05807],[6.70166,47.05867],[6.69152,47.06668],[6.69342,47.06894],[6.70116,47.07012],[6.70658,47.07466],[6.70522,47.0764],[6.70755,47.07946],[6.70274,47.08215],[6.72589,47.09195],[6.732,47.08947],[6.75351,47.0909],[6.76494,47.08829],[6.77251,47.0752],[6.78499,47.07016],[6.78452,47.06249],[6.78687,47.06115],[6.78401,47.05942],[6.7795,47.04821],[6.77399,47.0462],[6.77006,47.04026],[6.75098,47.03134],[6.75236,47.02844],[6.74543,47.02312]]]}},{"type":"Feature","properties":{"name":"Les Planchettes","cantonId":"neuchatel","municipalityId":"les-planchettes-6422"},"geometry":{"type":"Polygon","coordinates":[[[6.73548,47.08971],[6.74441,47.09257],[6.74672,47.09757],[6.7407,47.10572],[6.74056,47.10963],[6.74686,47.11],[6.76473,47.12039],[6.77598,47.12137],[6.79236,47.12705],[6.80405,47.11873],[6.80393,47.10988],[6.78626,47.10377],[6.77735,47.09718],[6.76778,47.09391],[6.76844,47.09163],[6.76358,47.08777],[6.75351,47.0909],[6.73617,47.08975],[6.73548,47.08971]]]}},{"type":"Feature","properties":{"name":"Les Ponts-de-Martel","cantonId":"neuchatel","municipalityId":"les-ponts-de-martel-6437"},"geometry":{"type":"Polygon","coordinates":[[[6.74543,47.02312],[6.75236,47.02844],[6.78058,47.01829],[6.74428,46.99599],[6.73881,46.98768],[6.73519,46.98816],[6.72844,46.982],[6.71778,46.97718],[6.71864,46.97327],[6.71392,46.9667],[6.69153,46.97715],[6.68603,46.97734],[6.66903,46.97044],[6.66383,46.97045],[6.66291,46.97256],[6.6791,46.98415],[6.69676,46.98879],[6.7114,46.9954],[6.71696,46.99925],[6.72512,47.00996],[6.73809,47.01971],[6.74543,47.02312]]]}},{"type":"Feature","properties":{"name":"Les Verrières","cantonId":"neuchatel","municipalityId":"les-verrieres-6511"},"geometry":{"type":"Polygon","coordinates":[[[6.46947,46.95318],[6.47161,46.95572],[6.47875,46.95164],[6.4861,46.95083],[6.49125,46.9455],[6.48837,46.94545],[6.48751,46.94273],[6.49133,46.94119],[6.48931,46.93855],[6.49603,46.93083],[6.50123,46.93329],[6.50363,46.92484],[6.50005,46.92256],[6.50227,46.90629],[6.50769,46.90599],[6.51378,46.89868],[6.5055,46.89698],[6.50546,46.89366],[6.49638,46.88199],[6.46298,46.87559],[6.46462,46.89037],[6.45793,46.9008],[6.43589,46.92165],[6.4327,46.92869],[6.44968,46.93603],[6.46771,46.952],[6.46947,46.95318]]]}},{"type":"Feature","properties":{"name":"Lignières","cantonId":"neuchatel","municipalityId":"lignieres-6456"},"geometry":{"type":"Polygon","coordinates":[[[7.03626,47.0836],[7.01797,47.09497],[7.01308,47.09473],[7.02318,47.11213],[7.02874,47.10368],[7.04062,47.10901],[7.05715,47.09969],[7.07569,47.09627],[7.08683,47.0857],[7.08706,47.08155],[7.07701,47.07596],[7.07052,47.07846],[7.05661,47.07234],[7.03642,47.08348],[7.03626,47.0836]]]}},{"type":"Feature","properties":{"name":"Milvignes","cantonId":"neuchatel","municipalityId":"milvignes-6416"},"geometry":{"type":"Polygon","coordinates":[[[6.87408,46.95597],[6.86431,46.96116],[6.86011,46.95829],[6.85681,46.96068],[6.85461,46.95866],[6.84306,46.95895],[6.83921,46.96236],[6.83499,46.95972],[6.82931,46.96644],[6.8315,46.96744],[6.82085,46.9717],[6.82985,46.97627],[6.8477,46.9778],[6.84647,46.98397],[6.85262,46.98389],[6.86392,46.97785],[6.87603,46.98165],[6.89332,46.98348],[6.8951,46.97824],[6.88468,46.97702],[6.87934,46.97201],[6.87395,46.97121],[6.87409,46.95598],[6.87408,46.95597]]]}},{"type":"Feature","properties":{"name":"Neuchâtel","cantonId":"neuchatel","municipalityId":"neuchatel-6458"},"geometry":{"type":"Polygon","coordinates":[[[6.99178,47.05154],[6.97957,47.0432],[6.96564,47.02887],[6.95663,47.02351],[6.96325,47.01792],[6.97004,47.00561],[6.95831,47.00112],[6.95599,46.99632],[6.9361,46.98963],[6.9243,46.9898],[6.90811,46.98106],[6.89555,46.9782],[6.89332,46.98348],[6.87603,46.98165],[6.86392,46.97785],[6.85262,46.98389],[6.84594,46.98413],[6.84517,46.9895],[6.85451,46.99012],[6.85297,46.99308],[6.85521,46.99554],[6.86718,46.99858],[6.88093,47.00551],[6.87896,47.00581],[6.88366,47.01246],[6.88296,47.01596],[6.9003,47.02079],[6.9061,47.01908],[6.9103,47.03092],[6.91367,47.02767],[6.9091,47.02227],[6.91639,47.01742],[6.91304,47.00937],[6.95006,47.02914],[6.96435,47.03296],[6.9738,47.04187],[6.9869,47.06383],[6.99107,47.05517],[6.99178,47.05154]]]}},{"type":"Feature","properties":{"name":"Rochefort","cantonId":"neuchatel","municipalityId":"rochefort-6413"},"geometry":{"type":"Polygon","coordinates":[[[6.73855,46.95331],[6.73557,46.95518],[6.74035,46.96028],[6.77858,46.97453],[6.76244,46.99292],[6.77493,47.00003],[6.77725,46.99871],[6.78273,47.00317],[6.78495,47.00222],[6.79516,47.01379],[6.80964,47.00889],[6.81952,47.00113],[6.8238,47.00021],[6.82251,46.99891],[6.83864,46.99149],[6.84385,46.9917],[6.84842,46.98051],[6.8477,46.9778],[6.82985,46.97627],[6.80798,46.96342],[6.78409,46.96306],[6.78395,46.96046],[6.77145,46.95862],[6.75175,46.94934],[6.73874,46.95336],[6.73855,46.95331]]]}},{"type":"Feature","properties":{"name":"Val-de-Ruz","cantonId":"neuchatel","municipalityId":"val-de-ruz-6487"},"geometry":{"type":"Polygon","coordinates":[[[7.01308,47.09473],[6.99925,47.07549],[6.98535,47.0625],[6.96959,47.03717],[6.96435,47.03296],[6.95006,47.02914],[6.91304,47.00937],[6.91639,47.01742],[6.9091,47.02227],[6.91367,47.02767],[6.9103,47.03092],[6.9061,47.01908],[6.9003,47.02079],[6.88296,47.01596],[6.88366,47.01246],[6.87896,47.00581],[6.88093,47.00551],[6.86718,46.99858],[6.85521,46.99554],[6.85297,46.99308],[6.85451,46.99012],[6.84553,46.98909],[6.84385,46.9917],[6.83864,46.99149],[6.82251,46.99891],[6.8238,47.00021],[6.81952,47.00113],[6.80964,47.00889],[6.79541,47.01373],[6.8129,47.02803],[6.83161,47.05148],[6.86687,47.08512],[6.91574,47.10379],[6.92984,47.1126],[6.93635,47.10873],[6.93992,47.10916],[6.9476,47.11229],[6.99597,47.11889],[7.00777,47.12423],[7.0256,47.12414],[7.03017,47.12727],[7.03825,47.12644],[7.03998,47.12465],[7.02272,47.11176],[7.01662,47.10057],[7.01308,47.09473]]]}},{"type":"Feature","properties":{"name":"Val-de-Travers","cantonId":"neuchatel","municipalityId":"val-de-travers-6512"},"geometry":{"type":"Polygon","coordinates":[[[6.49638,46.88199],[6.50546,46.89366],[6.5055,46.89698],[6.51378,46.89868],[6.50769,46.90599],[6.50227,46.90629],[6.50005,46.92256],[6.50363,46.92484],[6.50168,46.93175],[6.50123,46.93329],[6.49603,46.93083],[6.48931,46.93855],[6.49133,46.94119],[6.48751,46.94273],[6.49085,46.94606],[6.4861,46.95083],[6.47875,46.95164],[6.47161,46.95572],[6.46947,46.95318],[6.48575,46.96748],[6.49152,46.96043],[6.50335,46.95203],[6.51388,46.95091],[6.53705,46.94383],[6.54828,46.94729],[6.60061,46.95071],[6.6216,46.95908],[6.63622,46.96036],[6.6387,46.9578],[6.66291,46.97256],[6.66383,46.97045],[6.66903,46.97044],[6.68603,46.97734],[6.69153,46.97715],[6.73361,46.95781],[6.74035,46.96028],[6.73557,46.95518],[6.75091,46.94434],[6.72079,46.94082],[6.71837,46.93899],[6.72085,46.9361],[6.66852,46.92057],[6.64723,46.91071],[6.64549,46.90617],[6.62711,46.88871],[6.61464,46.88892],[6.59863,46.88363],[6.58764,46.88432],[6.57481,46.88049],[6.53777,46.86686],[6.52777,46.85871],[6.50828,46.86983],[6.50224,46.87559],[6.49638,46.88199]]]}}]}
