{"type":"FeatureCollection","features":[{"type":"Feature","properties":{"name":"Beckenried","cantonId":"nidwalden","municipalityId":"beckenried-1501"},"geometry":{"type":"Polygon","coordinates":[[[8.42878,46.94561],[8.44236,46.9606],[8.45076,46.98358],[8.46524,46.98426],[8.49663,46.97642],[8.51937,46.97981],[8.52633,46.96583],[8.51154,46.95993],[8.49777,46.95964],[8.49829,46.95459],[8.48916,46.95176],[8.48901,46.94851],[8.48487,46.94699],[8.48899,46.93945],[8.48412,46.93094],[8.49024,46.93047],[8.49106,46.91841],[8.4861,46.91847],[8.48127,46.90852],[8.46776,46.90486],[8.46156,46.90644],[8.45399,46.91817],[8.44754,46.92276],[8.44775,46.9269],[8.45583,46.92495],[8.45445,46.92764],[8.45061,46.93198],[8.4345,46.93706],[8.4331,46.94359],[8.42919,46.94509],[8.42878,46.94561]]]}},{"type":"Feature","properties":{"name":"Buochs","cantonId":"nidwalden","municipalityId":"buochs-1502"},"geometry":{"type":"Polygon","coordinates":[[[8.42878,46.94561],[8.41792,46.94665],[8.39794,46.96813],[8.38721,46.96487],[8.38785,46.97243],[8.40611,46.97847],[8.41482,46.97855],[8.42823,46.98401],[8.45076,46.98358],[8.44337,46.96235],[8.42937,46.9462],[8.42878,46.94561]]]}},{"type":"Feature","properties":{"name":"Dallenwil","cantonId":"nidwalden","municipalityId":"dallenwil-1503"},"geometry":{"type":"Polygon","coordinates":[[[8.33813,46.92931],[8.37445,46.93814],[8.39378,46.93762],[8.39271,46.93062],[8.39707,46.92417],[8.39428,46.90947],[8.38506,46.91069],[8.38527,46.90868],[8.37765,46.90594],[8.37423,46.90776],[8.36029,46.90101],[8.34875,46.89062],[8.33772,46.89001],[8.33854,46.89704],[8.33629,46.90303],[8.34348,46.91489],[8.3384,46.91836],[8.34124,46.92618],[8.33975,46.92841],[8.33813,46.92931]]]}},{"type":"Feature","properties":{"name":"Emmetten","cantonId":"nidwalden","municipalityId":"emmetten-1504"},"geometry":{"type":"Polygon","coordinates":[[[8.54406,46.92785],[8.53172,46.92353],[8.51984,46.92283],[8.51533,46.91797],[8.50279,46.91442],[8.49812,46.91875],[8.49106,46.91841],[8.49024,46.93047],[8.48411,46.93151],[8.48899,46.93945],[8.48487,46.94699],[8.48901,46.94851],[8.48916,46.95176],[8.49829,46.95459],[8.49777,46.95964],[8.51154,46.95993],[8.52633,46.96583],[8.51937,46.97981],[8.5427,46.97959],[8.57105,46.99015],[8.57454,46.98235],[8.56852,46.97557],[8.56222,46.97292],[8.56306,46.97021],[8.56024,46.96558],[8.55483,46.96263],[8.55734,46.94752],[8.55564,46.94111],[8.55883,46.9404],[8.54358,46.93934],[8.54768,46.93481],[8.54407,46.92873],[8.54406,46.92785]]]}},{"type":"Feature","properties":{"name":"Ennetbürgen","cantonId":"nidwalden","municipalityId":"ennetbuergen-1505"},"geometry":{"type":"Polygon","coordinates":[[[8.38559,46.99831],[8.39635,47.00087],[8.42601,46.99814],[8.42799,47.0172],[8.46907,47.00928],[8.46524,46.98426],[8.42823,46.98401],[8.41482,46.97855],[8.40611,46.97847],[8.38785,46.97243],[8.38876,46.97775],[8.38464,46.9834],[8.38878,46.98891],[8.38637,46.99267],[8.37411,46.99507],[8.38539,46.99821],[8.38559,46.99831]]]}},{"type":"Feature","properties":{"name":"Ennetmoos","cantonId":"nidwalden","municipalityId":"ennetmoos-1506"},"geometry":{"type":"Polygon","coordinates":[[[8.33813,46.92931],[8.30964,46.9243],[8.30008,46.93023],[8.2883,46.93388],[8.29865,46.94621],[8.30992,46.95221],[8.30617,46.95571],[8.30903,46.9636],[8.3267,46.96887],[8.33147,46.96342],[8.34167,46.96576],[8.34333,46.96074],[8.3485,46.95941],[8.34532,46.93128],[8.3391,46.92943],[8.33813,46.92931]]]}},{"type":"Feature","properties":{"name":"Hergiswil (NW)","cantonId":"nidwalden","municipalityId":"hergiswil-nw-1507"},"geometry":{"type":"Polygon","coordinates":[[[8.30717,46.97591],[8.30135,46.97765],[8.28187,46.9758],[8.27252,46.9786],[8.26249,46.9781],[8.26086,46.98036],[8.25426,46.98011],[8.24412,46.97429],[8.22888,46.97314],[8.2181,46.98109],[8.22807,46.99261],[8.23772,46.99183],[8.24397,46.98601],[8.24838,46.98743],[8.25526,46.99414],[8.2655,46.99818],[8.278,46.99797],[8.28887,46.99459],[8.29479,46.99814],[8.31885,46.99956],[8.33446,46.989],[8.33134,46.97865],[8.30768,46.97578],[8.30717,46.97591]]]}},{"type":"Feature","properties":{"name":"Oberdorf (NW)","cantonId":"nidwalden","municipalityId":"oberdorf-nw-1508"},"geometry":{"type":"Polygon","coordinates":[[[8.42878,46.94561],[8.4331,46.94359],[8.4345,46.93706],[8.45061,46.93198],[8.45583,46.92495],[8.44775,46.9269],[8.44754,46.92276],[8.44028,46.9198],[8.42592,46.92144],[8.41643,46.92751],[8.40699,46.93003],[8.39268,46.9309],[8.39378,46.93762],[8.36944,46.93718],[8.36728,46.9466],[8.36887,46.95283],[8.38204,46.96349],[8.39794,46.96813],[8.41762,46.94687],[8.42784,46.94551],[8.42878,46.94561]]]}},{"type":"Feature","properties":{"name":"Stans","cantonId":"nidwalden","municipalityId":"stans-1509"},"geometry":{"type":"Polygon","coordinates":[[[8.38504,46.98154],[8.38876,46.97775],[8.38698,46.96508],[8.37902,46.96186],[8.36887,46.95283],[8.36728,46.9466],[8.36972,46.93588],[8.34532,46.93128],[8.3487,46.95829],[8.34333,46.96074],[8.34167,46.96576],[8.34293,46.96939],[8.34796,46.97094],[8.35052,46.9695],[8.35237,46.97258],[8.36684,46.97798],[8.38471,46.9816],[8.38504,46.98154]]]}},{"type":"Feature","properties":{"name":"Stansstad","cantonId":"nidwalden","municipalityId":"stansstad-1510"},"geometry":{"type":"Polygon","coordinates":[[[8.38559,46.99831],[8.37411,46.99507],[8.38637,46.99267],[8.38878,46.98891],[8.38504,46.98154],[8.36684,46.97798],[8.35237,46.97258],[8.35052,46.9695],[8.34796,46.97094],[8.34293,46.96939],[8.34167,46.96576],[8.33661,46.96449],[8.33147,46.96342],[8.3267,46.96887],[8.30903,46.9636],[8.31098,46.96897],[8.30717,46.97591],[8.3313,46.97862],[8.33446,46.989],[8.36852,47.01995],[8.3838,47.01771],[8.38471,47.00291],[8.3827,47.00137],[8.3854,46.99846],[8.38559,46.99831]]]}},{"type":"Feature","properties":{"name":"Wolfenschiessen","cantonId":"nidwalden","municipalityId":"wolfenschiessen-1511"},"geometry":{"type":"Polygon","coordinates":[[[8.47084,46.85484],[8.43912,46.85352],[8.43,46.85022],[8.42019,46.85198],[8.4188,46.86275],[8.41283,46.86984],[8.40601,46.86542],[8.39871,46.86473],[8.38428,46.85442],[8.38134,46.85658],[8.37478,46.84791],[8.37506,46.85799],[8.37836,46.86256],[8.38468,46.86597],[8.38023,46.87037],[8.38202,46.87199],[8.38074,46.87355],[8.37273,46.87418],[8.36936,46.86761],[8.36413,46.86732],[8.36131,46.86251],[8.36392,46.85948],[8.37082,46.8595],[8.37075,46.85183],[8.36832,46.84976],[8.37061,46.83601],[8.37756,46.82348],[8.37385,46.81621],[8.38781,46.81256],[8.38866,46.80934],[8.38481,46.80368],[8.39654,46.79545],[8.40165,46.79557],[8.40802,46.79077],[8.41955,46.78906],[8.42488,46.78106],[8.42641,46.77444],[8.41658,46.77839],[8.39523,46.77151],[8.39117,46.77779],[8.38232,46.78018],[8.37736,46.78582],[8.34435,46.79997],[8.34329,46.80453],[8.32632,46.81487],[8.32214,46.82021],[8.32562,46.82403],[8.33497,46.82754],[8.33588,46.83183],[8.33226,46.83365],[8.33258,46.83782],[8.32791,46.84687],[8.33084,46.85667],[8.33456,46.86124],[8.33424,46.86725],[8.32965,46.87142],[8.32838,46.87797],[8.33305,46.88195],[8.33321,46.88617],[8.3386,46.89035],[8.34875,46.89062],[8.36029,46.90101],[8.37423,46.90776],[8.37765,46.90594],[8.38527,46.90868],[8.38506,46.91069],[8.39428,46.90947],[8.39707,46.92417],[8.39268,46.9309],[8.41236,46.92876],[8.42008,46.9237],[8.43206,46.92009],[8.44028,46.9198],[8.44891,46.92268],[8.45359,46.91857],[8.46427,46.90473],[8.45868,46.89805],[8.46767,46.89755],[8.47407,46.89342],[8.47298,46.89147],[8.4791,46.88251],[8.4672,46.87624],[8.47135,46.86812],[8.46791,46.86064],[8.47067,46.85526],[8.47084,46.85484]]]}}]}
