{"type":"FeatureCollection","features":[{"type":"Feature","properties":{"name":"Alpnach","cantonId":"obwalden","municipalityId":"alpnach-1401"},"geometry":{"type":"Polygon","coordinates":[[[8.27767,46.9219],[8.25419,46.92792],[8.24576,46.92091],[8.23314,46.92104],[8.23493,46.92311],[8.22918,46.92454],[8.22722,46.92903],[8.21699,46.93072],[8.20098,46.92849],[8.19464,46.92528],[8.16914,46.92307],[8.16518,46.92716],[8.16521,46.93109],[8.15687,46.93339],[8.16485,46.9396],[8.1535,46.94995],[8.15011,46.95752],[8.16454,46.96466],[8.18193,46.96852],[8.18734,46.97174],[8.20303,46.96693],[8.22704,46.96922],[8.22987,46.97372],[8.24412,46.97429],[8.25426,46.98011],[8.28187,46.9758],[8.30135,46.97765],[8.30717,46.97591],[8.31098,46.96897],[8.30617,46.95571],[8.30992,46.95221],[8.29816,46.94578],[8.27743,46.92232],[8.27767,46.9219]]]}},{"type":"Feature","properties":{"name":"Engelberg","cantonId":"obwalden","municipalityId":"engelberg-1402"},"geometry":{"type":"Polygon","coordinates":[[[8.50689,46.84547],[8.50437,46.84117],[8.48897,46.83565],[8.48632,46.83203],[8.48342,46.82701],[8.48369,46.81986],[8.47813,46.81371],[8.48324,46.80875],[8.48198,46.80325],[8.47232,46.79937],[8.46427,46.80053],[8.47133,46.79552],[8.48114,46.79842],[8.48194,46.79389],[8.47856,46.78927],[8.4883,46.78146],[8.49144,46.77252],[8.47409,46.7677],[8.46036,46.76909],[8.44833,46.76341],[8.44613,46.76641],[8.44662,46.77026],[8.4355,46.7725],[8.42268,46.77042],[8.41689,46.77428],[8.39639,46.76549],[8.39523,46.77151],[8.41658,46.77839],[8.42641,46.77444],[8.42638,46.77714],[8.41955,46.78906],[8.40802,46.79077],[8.40165,46.79557],[8.39654,46.79545],[8.38481,46.80368],[8.38866,46.80934],[8.38781,46.81256],[8.37385,46.81621],[8.37756,46.82348],[8.37061,46.83601],[8.36832,46.84976],[8.37075,46.85183],[8.37082,46.8595],[8.36392,46.85948],[8.36176,46.86187],[8.36413,46.86732],[8.36936,46.86761],[8.37017,46.87175],[8.37342,46.87449],[8.38011,46.87402],[8.38202,46.87199],[8.38023,46.87037],[8.38468,46.86597],[8.37836,46.86256],[8.37506,46.85799],[8.37478,46.84791],[8.38134,46.85658],[8.38428,46.85442],[8.39871,46.86473],[8.40601,46.86542],[8.41283,46.86984],[8.4188,46.86275],[8.42019,46.85198],[8.43,46.85022],[8.43912,46.85352],[8.47457,46.85454],[8.48005,46.85724],[8.4902,46.85303],[8.49788,46.85372],[8.50681,46.84547],[8.50689,46.84547]]]}},{"type":"Feature","properties":{"name":"Giswil","cantonId":"obwalden","municipalityId":"giswil-1403"},"geometry":{"type":"Polygon","coordinates":[[[8.09005,46.78764],[8.07733,46.78593],[8.06902,46.78864],[8.05983,46.78639],[8.05507,46.78843],[8.04694,46.78711],[8.0561,46.79294],[8.05489,46.79863],[8.06387,46.80298],[8.06449,46.80806],[8.0422,46.83648],[8.04577,46.84417],[8.05599,46.8493],[8.05895,46.85343],[8.05752,46.85748],[8.06569,46.8596],[8.06728,46.86242],[8.06599,46.86697],[8.0697,46.86879],[8.06913,46.87122],[8.0716,46.87371],[8.07061,46.87765],[8.07704,46.87701],[8.08043,46.87433],[8.08634,46.87655],[8.09678,46.87187],[8.10797,46.87439],[8.11374,46.87975],[8.12037,46.87967],[8.13317,46.88688],[8.14328,46.8773],[8.15395,46.87454],[8.16081,46.86877],[8.17281,46.86658],[8.19212,46.8545],[8.18645,46.84628],[8.20882,46.82756],[8.21575,46.81715],[8.21525,46.81376],[8.19805,46.81075],[8.18127,46.81961],[8.15872,46.81871],[8.14448,46.81076],[8.13686,46.79895],[8.12082,46.79561],[8.10112,46.79642],[8.09037,46.78811],[8.09005,46.78764]]]}},{"type":"Feature","properties":{"name":"Kerns","cantonId":"obwalden","municipalityId":"kerns-1404"},"geometry":{"type":"Polygon","coordinates":[[[8.31588,46.7701],[8.28349,46.75316],[8.26891,46.75426],[8.25939,46.76381],[8.23876,46.76969],[8.23849,46.77339],[8.23239,46.77969],[8.25096,46.78531],[8.25298,46.78696],[8.25345,46.79417],[8.25723,46.79369],[8.26273,46.7998],[8.26817,46.80154],[8.27007,46.80515],[8.27926,46.80619],[8.28276,46.8137],[8.2835,46.82295],[8.28581,46.8251],[8.28659,46.83572],[8.29677,46.8474],[8.29674,46.85136],[8.29181,46.85554],[8.2723,46.86608],[8.27361,46.88335],[8.26194,46.88623],[8.26279,46.88852],[8.25991,46.89162],[8.26393,46.8976],[8.25789,46.89671],[8.26931,46.90861],[8.2648,46.9108],[8.27036,46.91291],[8.2883,46.93388],[8.30008,46.93023],[8.30964,46.9243],[8.33813,46.92931],[8.3411,46.92672],[8.3384,46.91836],[8.34348,46.91489],[8.33629,46.90303],[8.33814,46.89069],[8.32838,46.87797],[8.32965,46.87142],[8.33424,46.86725],[8.33456,46.86124],[8.33084,46.85667],[8.32791,46.84687],[8.33258,46.83782],[8.33226,46.83365],[8.33588,46.83183],[8.33497,46.82754],[8.32201,46.82063],[8.32632,46.81487],[8.34329,46.80453],[8.34435,46.79997],[8.36919,46.78914],[8.35992,46.78296],[8.3337,46.78059],[8.32082,46.77334],[8.31588,46.7701]]]}},{"type":"Feature","properties":{"name":"Lungern","cantonId":"obwalden","municipalityId":"lungern-1405"},"geometry":{"type":"Polygon","coordinates":[[[8.10235,46.77379],[8.09956,46.77827],[8.09078,46.78436],[8.0914,46.79024],[8.10112,46.79642],[8.12082,46.79561],[8.13686,46.79895],[8.14448,46.81076],[8.1533,46.81685],[8.18127,46.81961],[8.19805,46.81075],[8.21525,46.81376],[8.21669,46.80904],[8.20873,46.7895],[8.22091,46.79073],[8.22576,46.78497],[8.23337,46.78118],[8.23239,46.77969],[8.23849,46.77339],[8.23907,46.7696],[8.23355,46.76172],[8.22198,46.76106],[8.208,46.76945],[8.19631,46.76792],[8.1898,46.77031],[8.1721,46.76413],[8.16794,46.76535],[8.16313,46.7613],[8.14695,46.75483],[8.12183,46.77037],[8.11125,46.77381],[8.10526,46.77293],[8.10235,46.77379]]]}},{"type":"Feature","properties":{"name":"Sachseln","cantonId":"obwalden","municipalityId":"sachseln-1406"},"geometry":{"type":"Polygon","coordinates":[[[8.21525,46.81376],[8.21575,46.81715],[8.20882,46.82756],[8.18645,46.84628],[8.19212,46.8545],[8.20119,46.85421],[8.20487,46.86079],[8.23363,46.87594],[8.23547,46.88141],[8.24708,46.88143],[8.26089,46.88947],[8.26279,46.88852],[8.26202,46.88618],[8.27184,46.88478],[8.27371,46.88118],[8.27212,46.87617],[8.27425,46.87428],[8.2723,46.86608],[8.2843,46.86092],[8.29708,46.85054],[8.29666,46.84716],[8.2849,46.83153],[8.28626,46.82707],[8.27926,46.80619],[8.27007,46.80515],[8.26817,46.80154],[8.26273,46.7998],[8.25723,46.79369],[8.25345,46.79417],[8.25298,46.78696],[8.25096,46.78531],[8.23922,46.78111],[8.23337,46.78118],[8.22576,46.78497],[8.22091,46.79073],[8.20873,46.7895],[8.21669,46.80904],[8.21589,46.81331],[8.21525,46.81376]]]}},{"type":"Feature","properties":{"name":"Sarnen","cantonId":"obwalden","municipalityId":"sarnen-1407"},"geometry":{"type":"Polygon","coordinates":[[[8.27767,46.9219],[8.27036,46.91291],[8.2648,46.9108],[8.26931,46.90861],[8.25801,46.8976],[8.26087,46.89594],[8.26393,46.8976],[8.25991,46.89162],[8.26252,46.88907],[8.25542,46.88741],[8.24708,46.88143],[8.23547,46.88141],[8.23363,46.87594],[8.20487,46.86079],[8.20119,46.85421],[8.19212,46.8545],[8.17281,46.86658],[8.16081,46.86877],[8.15395,46.87454],[8.14328,46.8773],[8.13317,46.88688],[8.13005,46.88654],[8.12476,46.88137],[8.11374,46.87975],[8.10797,46.87439],[8.09861,46.87216],[8.08634,46.87655],[8.07878,46.87464],[8.07704,46.87701],[8.07049,46.87756],[8.07101,46.88155],[8.06701,46.88782],[8.06969,46.89076],[8.06983,46.89572],[8.0826,46.89917],[8.08585,46.90607],[8.09479,46.91197],[8.10855,46.90827],[8.10644,46.89844],[8.11127,46.89273],[8.12225,46.90916],[8.13466,46.92225],[8.15624,46.93346],[8.16521,46.93109],[8.16518,46.92716],[8.16914,46.92307],[8.19464,46.92528],[8.20098,46.92849],[8.21699,46.93072],[8.22722,46.92903],[8.22918,46.92454],[8.23493,46.92311],[8.23314,46.92104],[8.24576,46.92091],[8.25419,46.92792],[8.27731,46.92196],[8.27767,46.9219]]]}}]}
