{"type":"FeatureCollection","features":[{"type":"Feature","properties":{"name":"Bargen (SH)","cantonId":"schaffhausen","municipalityId":"bargen-sh-2931"},"geometry":{"type":"Polygon","coordinates":[[[8.61766,47.78012],[8.61187,47.78004],[8.60806,47.78415],[8.57733,47.78167],[8.57496,47.78962],[8.562,47.7926],[8.56307,47.80378],[8.56803,47.80845],[8.5731,47.80607],[8.5754,47.7996],[8.58775,47.80265],[8.59286,47.79871],[8.60086,47.80301],[8.61142,47.8019],[8.62215,47.79486],[8.62051,47.78894],[8.61577,47.78714],[8.61727,47.78086],[8.61766,47.78012]]]}},{"type":"Feature","properties":{"name":"Beggingen","cantonId":"schaffhausen","municipalityId":"beggingen-2951"},"geometry":{"type":"Polygon","coordinates":[[[8.56639,47.77791],[8.57008,47.76118],[8.569,47.7531],[8.56187,47.7468],[8.54864,47.74756],[8.5487,47.74955],[8.53816,47.75168],[8.531,47.75112],[8.52559,47.75589],[8.51544,47.75746],[8.51109,47.7603],[8.50935,47.76485],[8.5113,47.76702],[8.51645,47.76669],[8.52648,47.77801],[8.53246,47.77803],[8.55292,47.78463],[8.56331,47.78057],[8.56289,47.77789],[8.56609,47.77833],[8.56639,47.77791]]]}},{"type":"Feature","properties":{"name":"Beringen","cantonId":"schaffhausen","municipalityId":"beringen-2932"},"geometry":{"type":"Polygon","coordinates":[[[8.55389,47.73255],[8.56428,47.72634],[8.58491,47.72677],[8.59026,47.72266],[8.58734,47.71859],[8.59455,47.71228],[8.59229,47.71084],[8.59374,47.70638],[8.59727,47.70318],[8.60227,47.70449],[8.60449,47.70219],[8.60296,47.70092],[8.60442,47.69438],[8.6081,47.69131],[8.59693,47.6878],[8.5825,47.68685],[8.58433,47.68026],[8.58309,47.67417],[8.57561,47.67023],[8.56565,47.67165],[8.54683,47.6675],[8.55047,47.67063],[8.54506,47.67382],[8.54821,47.67929],[8.54293,47.68168],[8.54442,47.6866],[8.54193,47.68841],[8.55326,47.69258],[8.56108,47.69236],[8.56069,47.6939],[8.56318,47.69408],[8.56295,47.70158],[8.56631,47.7027],[8.5601,47.71506],[8.54683,47.71839],[8.55084,47.71885],[8.54942,47.72119],[8.54396,47.72095],[8.54617,47.72654],[8.55315,47.73237],[8.55389,47.73255]]]}},{"type":"Feature","properties":{"name":"Buch (SH)","cantonId":"schaffhausen","municipalityId":"buch-sh-2961"},"geometry":{"type":"Polygon","coordinates":[[[8.79373,47.70423],[8.76935,47.70684],[8.77287,47.71322],[8.76976,47.71845],[8.7748,47.71907],[8.77735,47.72086],[8.77631,47.72272],[8.78077,47.72166],[8.78484,47.72735],[8.79182,47.7288],[8.7992,47.72712],[8.79568,47.72172],[8.79951,47.71932],[8.79426,47.71771],[8.79166,47.71438],[8.79396,47.71328],[8.79146,47.71199],[8.79137,47.7087],[8.79439,47.70628],[8.79381,47.70446],[8.79373,47.70423]]]}},{"type":"Feature","properties":{"name":"Buchberg","cantonId":"schaffhausen","municipalityId":"buchberg-2933"},"geometry":{"type":"MultiPolygon","coordinates":[[[[8.5541,47.55318],[8.55085,47.55634],[8.54848,47.56416],[8.5416,47.56993],[8.54622,47.57131],[8.54639,47.57416],[8.53485,47.5755],[8.54014,47.57821],[8.53356,47.58216],[8.53701,47.58343],[8.53535,47.58712],[8.54631,47.58581],[8.55203,47.58344],[8.55076,47.5804],[8.56095,47.57936],[8.55885,47.57835],[8.56877,47.57534],[8.56635,47.57302],[8.56491,47.56463],[8.56186,47.56184],[8.56368,47.56123],[8.56169,47.55817],[8.56325,47.5576],[8.55873,47.55289],[8.55428,47.55303],[8.5541,47.55318]]],[[[8.54544,47.59185],[8.55549,47.59396],[8.55663,47.59781],[8.55886,47.59625],[8.56034,47.58802],[8.55253,47.58606],[8.54574,47.59164],[8.54544,47.59185]]],[[[8.58738,47.59434],[8.58558,47.59657],[8.58939,47.60006],[8.59427,47.59644],[8.59212,47.59535],[8.58738,47.59434]]]]}},{"type":"Feature","properties":{"name":"Büttenhardt","cantonId":"schaffhausen","municipalityId":"buettenhardt-2914"},"geometry":{"type":"Polygon","coordinates":[[[8.64525,47.76497],[8.6508,47.76396],[8.65552,47.76603],[8.6592,47.76344],[8.65356,47.761],[8.65874,47.75805],[8.65919,47.75561],[8.65365,47.75077],[8.65335,47.74639],[8.64448,47.74376],[8.63796,47.73826],[8.62972,47.74248],[8.63162,47.74968],[8.63859,47.75642],[8.63384,47.76013],[8.6424,47.76521],[8.6446,47.76441],[8.64525,47.76497]]]}},{"type":"Feature","properties":{"name":"Dörflingen","cantonId":"schaffhausen","municipalityId":"doerflingen-2915"},"geometry":{"type":"Polygon","coordinates":[[[8.71794,47.72162],[8.72483,47.72128],[8.73631,47.71633],[8.7322,47.71176],[8.72772,47.70044],[8.72802,47.69276],[8.71787,47.69069],[8.71763,47.69493],[8.7114,47.69633],[8.71181,47.70174],[8.70464,47.71343],[8.69535,47.71499],[8.69256,47.71809],[8.69602,47.72216],[8.71556,47.72179],[8.71794,47.72162]]]}},{"type":"Feature","properties":{"name":"Gächlingen","cantonId":"schaffhausen","municipalityId":"gaechlingen-2901"},"geometry":{"type":"Polygon","coordinates":[[[8.48024,47.72581],[8.49549,47.73011],[8.4948,47.73206],[8.50518,47.74053],[8.51051,47.7409],[8.51865,47.73783],[8.5187,47.73536],[8.5239,47.73454],[8.51819,47.73012],[8.51089,47.73233],[8.49774,47.72732],[8.5001,47.72559],[8.49766,47.72372],[8.50728,47.7151],[8.50532,47.71387],[8.51524,47.70528],[8.51587,47.70225],[8.50408,47.70037],[8.50456,47.69884],[8.50003,47.69716],[8.4968,47.69857],[8.49069,47.69628],[8.48701,47.70067],[8.48293,47.70065],[8.48327,47.7044],[8.48734,47.7079],[8.48541,47.70984],[8.48748,47.71524],[8.48531,47.71622],[8.48758,47.71951],[8.48328,47.719],[8.48047,47.7252],[8.48024,47.72581]]]}},{"type":"Feature","properties":{"name":"Hallau","cantonId":"schaffhausen","municipalityId":"hallau-2971"},"geometry":{"type":"Polygon","coordinates":[[[8.45494,47.72245],[8.4576,47.72202],[8.46383,47.71397],[8.46121,47.71044],[8.46679,47.70832],[8.46626,47.70585],[8.47191,47.70108],[8.47002,47.69984],[8.47233,47.69828],[8.47091,47.6972],[8.47982,47.69438],[8.47742,47.69365],[8.47943,47.69151],[8.45679,47.67951],[8.44954,47.68493],[8.45124,47.68627],[8.4457,47.68677],[8.44609,47.68829],[8.42079,47.68387],[8.41198,47.69441],[8.40641,47.69557],[8.40464,47.69803],[8.41712,47.71018],[8.4261,47.71129],[8.43647,47.7182],[8.44167,47.71789],[8.44019,47.71974],[8.44534,47.72307],[8.45377,47.72258],[8.45494,47.72245]]]}},{"type":"Feature","properties":{"name":"Hemishofen","cantonId":"schaffhausen","municipalityId":"hemishofen-2962"},"geometry":{"type":"Polygon","coordinates":[[[8.83693,47.67127],[8.81733,47.67773],[8.80776,47.67708],[8.80504,47.67824],[8.80878,47.68327],[8.8135,47.68447],[8.81554,47.6901],[8.81759,47.69001],[8.81762,47.68744],[8.83692,47.68935],[8.83592,47.69353],[8.84215,47.69481],[8.83926,47.69686],[8.83982,47.70153],[8.85336,47.70475],[8.87123,47.70481],[8.87296,47.70378],[8.86969,47.70187],[8.87615,47.69685],[8.87472,47.69448],[8.86328,47.6924],[8.86631,47.69638],[8.86322,47.69843],[8.86062,47.69626],[8.85808,47.69874],[8.85153,47.69762],[8.85081,47.69465],[8.85772,47.69265],[8.85636,47.68909],[8.85109,47.68559],[8.85163,47.68055],[8.84954,47.67772],[8.83782,47.67218],[8.83693,47.67127]]]}},{"type":"Feature","properties":{"name":"Löhningen","cantonId":"schaffhausen","municipalityId":"loehningen-2903"},"geometry":{"type":"Polygon","coordinates":[[[8.52676,47.70446],[8.5345,47.70403],[8.53659,47.7077],[8.5355,47.71166],[8.54372,47.72096],[8.54942,47.72119],[8.55084,47.71885],[8.54638,47.7187],[8.5601,47.71506],[8.56543,47.7053],[8.56631,47.7027],[8.56295,47.70158],[8.56318,47.69408],[8.56069,47.6939],[8.56108,47.69236],[8.53867,47.68933],[8.54083,47.69159],[8.5391,47.69275],[8.52888,47.69029],[8.5274,47.69201],[8.52546,47.70152],[8.52738,47.70268],[8.52676,47.70446]]]}},{"type":"Feature","properties":{"name":"Lohn (SH)","cantonId":"schaffhausen","municipalityId":"lohn-sh-2917"},"geometry":{"type":"Polygon","coordinates":[[[8.65372,47.74702],[8.65365,47.75077],[8.65919,47.75561],[8.65874,47.75805],[8.65356,47.761],[8.65924,47.76334],[8.65704,47.76522],[8.65865,47.76712],[8.66314,47.76709],[8.66528,47.76967],[8.67332,47.76725],[8.68219,47.76111],[8.68948,47.75403],[8.68891,47.75209],[8.68311,47.74597],[8.68263,47.74253],[8.67827,47.74768],[8.66597,47.7469],[8.66346,47.74367],[8.65931,47.74492],[8.65769,47.74884],[8.65406,47.74706],[8.65372,47.74702]]]}},{"type":"Feature","properties":{"name":"Merishausen","cantonId":"schaffhausen","municipalityId":"merishausen-2936"},"geometry":{"type":"Polygon","coordinates":[[[8.61766,47.78012],[8.62337,47.77727],[8.61945,47.76766],[8.6277,47.75939],[8.63167,47.75819],[8.63384,47.76013],[8.63859,47.75642],[8.63162,47.74968],[8.62972,47.74248],[8.62421,47.74436],[8.62385,47.74189],[8.61808,47.74115],[8.61649,47.74461],[8.60847,47.74371],[8.61065,47.74101],[8.60624,47.73849],[8.59244,47.74818],[8.58175,47.7501],[8.58156,47.75293],[8.57202,47.75095],[8.569,47.7531],[8.57008,47.76118],[8.56639,47.77791],[8.58098,47.78313],[8.5952,47.78393],[8.60806,47.78415],[8.61187,47.78004],[8.61655,47.78],[8.61766,47.78012]]]}},{"type":"Feature","properties":{"name":"Neuhausen am Rheinfall","cantonId":"schaffhausen","municipalityId":"neuhausen-am-rheinfall-2937"},"geometry":{"type":"Polygon","coordinates":[[[8.62512,47.69167],[8.62405,47.68968],[8.62737,47.68038],[8.62465,47.6766],[8.61892,47.6751],[8.61365,47.67856],[8.6062,47.66866],[8.60661,47.67215],[8.59798,47.67272],[8.59331,47.66679],[8.58727,47.66625],[8.57767,47.66152],[8.56475,47.66526],[8.56444,47.67121],[8.57359,47.66978],[8.58309,47.67417],[8.58433,47.68026],[8.5825,47.68685],[8.59693,47.6878],[8.6081,47.69131],[8.60635,47.69432],[8.61039,47.69508],[8.62076,47.69488],[8.62449,47.6921],[8.62512,47.69167]]]}},{"type":"Feature","properties":{"name":"Neunkirch","cantonId":"schaffhausen","municipalityId":"neunkirch-2904"},"geometry":{"type":"Polygon","coordinates":[[[8.52676,47.70446],[8.52764,47.7019],[8.52546,47.70152],[8.52779,47.69534],[8.52633,47.69482],[8.52888,47.69029],[8.5391,47.69275],[8.54083,47.69159],[8.53867,47.68933],[8.54472,47.69061],[8.54525,47.68876],[8.54193,47.68841],[8.54442,47.6866],[8.54214,47.68312],[8.54821,47.67929],[8.54506,47.67382],[8.55047,47.67063],[8.54966,47.66813],[8.53887,47.66353],[8.54165,47.65679],[8.53447,47.65936],[8.53345,47.66312],[8.52429,47.66033],[8.52266,47.66453],[8.52476,47.66634],[8.51763,47.66936],[8.49494,47.66701],[8.49026,47.67029],[8.49301,47.67241],[8.48658,47.67537],[8.47931,47.67444],[8.47984,47.67702],[8.47628,47.6791],[8.46305,47.68272],[8.47943,47.69151],[8.47742,47.69365],[8.49463,47.6983],[8.50003,47.69716],[8.50456,47.69884],[8.50408,47.70037],[8.51587,47.70225],[8.51506,47.70498],[8.52021,47.70473],[8.52676,47.70446]]]}},{"type":"Feature","properties":{"name":"Oberhallau","cantonId":"schaffhausen","municipalityId":"oberhallau-2972"},"geometry":{"type":"Polygon","coordinates":[[[8.45705,47.72917],[8.47244,47.73012],[8.47907,47.7275],[8.48328,47.719],[8.48758,47.71951],[8.48531,47.71622],[8.48748,47.71524],[8.48541,47.70984],[8.48734,47.7079],[8.48327,47.7044],[8.48289,47.70084],[8.49033,47.69862],[8.4885,47.69651],[8.47982,47.69438],[8.47091,47.6972],[8.47233,47.69828],[8.47002,47.69984],[8.47191,47.70108],[8.46626,47.70585],[8.46679,47.70832],[8.46121,47.71044],[8.46383,47.71397],[8.45425,47.72352],[8.45598,47.72828],[8.45705,47.72917]]]}},{"type":"Feature","properties":{"name":"Ramsen","cantonId":"schaffhausen","municipalityId":"ramsen-2963"},"geometry":{"type":"Polygon","coordinates":[[[8.79606,47.67534],[8.79353,47.6801],[8.79709,47.68843],[8.80011,47.69185],[8.81011,47.69335],[8.80634,47.69651],[8.7976,47.69721],[8.7976,47.70285],[8.79373,47.70423],[8.79439,47.70628],[8.79137,47.7087],[8.79146,47.71199],[8.79396,47.71328],[8.79218,47.71548],[8.79951,47.71932],[8.79568,47.72172],[8.79962,47.72561],[8.79657,47.73455],[8.80526,47.73828],[8.80758,47.73713],[8.80855,47.73121],[8.81218,47.73042],[8.80481,47.72452],[8.81271,47.72377],[8.81853,47.71765],[8.82625,47.71786],[8.81905,47.71278],[8.82553,47.711],[8.83359,47.71456],[8.84318,47.71215],[8.84577,47.71115],[8.84834,47.70337],[8.83933,47.70123],[8.84087,47.70053],[8.83926,47.69686],[8.84215,47.69481],[8.83592,47.69353],[8.83692,47.68935],[8.81762,47.68744],[8.81759,47.69001],[8.81554,47.6901],[8.8135,47.68447],[8.80878,47.68327],[8.80504,47.67824],[8.79682,47.67548],[8.79606,47.67534]]]}},{"type":"Feature","properties":{"name":"Rüdlingen","cantonId":"schaffhausen","municipalityId":"ruedlingen-2938"},"geometry":{"type":"Polygon","coordinates":[[[8.58738,47.59434],[8.57801,47.58883],[8.57718,47.58455],[8.58005,47.577],[8.57187,47.57421],[8.56764,47.56276],[8.56325,47.5576],[8.56169,47.55817],[8.56368,47.56123],[8.56186,47.56184],[8.56491,47.56463],[8.56635,47.57302],[8.56877,47.57534],[8.55885,47.57835],[8.56095,47.57936],[8.55076,47.5804],[8.55194,47.58349],[8.53717,47.58752],[8.54544,47.59185],[8.555,47.58622],[8.56038,47.58807],[8.56075,47.5934],[8.55676,47.5975],[8.55845,47.5984],[8.56308,47.59945],[8.56664,47.59715],[8.57152,47.59815],[8.57487,47.59551],[8.58258,47.59614],[8.58432,47.59979],[8.59132,47.6023],[8.59274,47.60616],[8.59573,47.60561],[8.59481,47.59709],[8.58939,47.60006],[8.58651,47.59556],[8.58738,47.59434]]]}},{"type":"Feature","properties":{"name":"Schaffhausen","cantonId":"schaffhausen","municipalityId":"schaffhausen-2939"},"geometry":{"type":"Polygon","coordinates":[[[8.66341,47.68578],[8.64327,47.69435],[8.62573,47.69125],[8.61635,47.69571],[8.60442,47.69438],[8.60296,47.70092],[8.60449,47.70219],[8.60227,47.70449],[8.59727,47.70318],[8.59374,47.70638],[8.59229,47.71084],[8.59455,47.71228],[8.58734,47.71859],[8.59026,47.72266],[8.58491,47.72677],[8.56321,47.72654],[8.5532,47.73357],[8.54643,47.73433],[8.54119,47.73843],[8.54883,47.74256],[8.54864,47.74756],[8.56187,47.7468],[8.569,47.7531],[8.57202,47.75095],[8.58156,47.75293],[8.58175,47.7501],[8.59244,47.74818],[8.60624,47.73849],[8.61065,47.74101],[8.60847,47.74371],[8.61649,47.74461],[8.61808,47.74115],[8.62385,47.74189],[8.62421,47.74436],[8.63198,47.74239],[8.64097,47.73687],[8.63969,47.72935],[8.64468,47.72551],[8.65464,47.73169],[8.65681,47.72954],[8.66012,47.72998],[8.66237,47.7329],[8.67277,47.73722],[8.67989,47.7378],[8.68269,47.73388],[8.69449,47.72936],[8.69217,47.72498],[8.70159,47.72515],[8.70179,47.72282],[8.70594,47.72186],[8.69602,47.72216],[8.69256,47.71809],[8.69823,47.71465],[8.68633,47.70857],[8.67993,47.71056],[8.68134,47.71241],[8.67138,47.711],[8.66466,47.71336],[8.66602,47.70786],[8.67358,47.70489],[8.67641,47.69809],[8.66839,47.69209],[8.65861,47.69134],[8.6638,47.68647],[8.66341,47.68578]]]}},{"type":"Feature","properties":{"name":"Schleitheim","cantonId":"schaffhausen","municipalityId":"schleitheim-2952"},"geometry":{"type":"Polygon","coordinates":[[[8.45705,47.72917],[8.45263,47.73085],[8.4498,47.73812],[8.45585,47.7428],[8.45714,47.74994],[8.46619,47.75332],[8.47248,47.76344],[8.48495,47.77138],[8.48902,47.77321],[8.49648,47.7709],[8.51031,47.7762],[8.52025,47.77052],[8.51645,47.76669],[8.51125,47.76697],[8.50888,47.76382],[8.51109,47.7603],[8.51544,47.75746],[8.52559,47.75589],[8.531,47.75112],[8.5487,47.74955],[8.54883,47.74256],[8.5239,47.73454],[8.5187,47.73536],[8.51865,47.73783],[8.51051,47.7409],[8.50518,47.74053],[8.4948,47.73206],[8.49549,47.73011],[8.48764,47.72681],[8.48024,47.72581],[8.47244,47.73012],[8.45879,47.72928],[8.45705,47.72917]]]}},{"type":"Feature","properties":{"name":"Siblingen","cantonId":"schaffhausen","municipalityId":"siblingen-2953"},"geometry":{"type":"Polygon","coordinates":[[[8.55389,47.73255],[8.54617,47.72654],[8.54112,47.7165],[8.5355,47.71166],[8.53659,47.7077],[8.5345,47.70403],[8.51506,47.70498],[8.49766,47.72372],[8.5001,47.72559],[8.49774,47.72732],[8.51089,47.73233],[8.51819,47.73012],[8.52696,47.73681],[8.54314,47.74032],[8.54102,47.737],[8.5538,47.7326],[8.55389,47.73255]]]}},{"type":"Feature","properties":{"name":"Stein am Rhein","cantonId":"schaffhausen","municipalityId":"stein-am-rhein-2964"},"geometry":{"type":"Polygon","coordinates":[[[8.8754,47.65495],[8.86533,47.6561],[8.85795,47.65008],[8.84628,47.65226],[8.85457,47.66067],[8.84133,47.66456],[8.83693,47.67127],[8.84019,47.67447],[8.84841,47.67685],[8.85143,47.68106],[8.86058,47.68031],[8.87345,47.67021],[8.87544,47.65668],[8.8754,47.65495]]]}},{"type":"Feature","properties":{"name":"Stetten (SH)","cantonId":"schaffhausen","municipalityId":"stetten-sh-2919"},"geometry":{"type":"Polygon","coordinates":[[[8.63796,47.73826],[8.64448,47.74376],[8.65236,47.74568],[8.65583,47.74881],[8.66346,47.74367],[8.66597,47.7469],[8.67833,47.74767],[8.68338,47.74218],[8.68003,47.74047],[8.68277,47.73853],[8.67277,47.73722],[8.66237,47.7329],[8.66012,47.72998],[8.65681,47.72954],[8.65464,47.73169],[8.64532,47.72555],[8.63969,47.72935],[8.641,47.73683],[8.63838,47.73812],[8.63796,47.73826]]]}},{"type":"Feature","properties":{"name":"Thayngen","cantonId":"schaffhausen","municipalityId":"thayngen-2920"},"geometry":{"type":"Polygon","coordinates":[[[8.71794,47.72162],[8.69217,47.72498],[8.69449,47.72936],[8.68269,47.73388],[8.67989,47.7378],[8.68277,47.73853],[8.68003,47.74047],[8.68338,47.74218],[8.68311,47.74597],[8.68948,47.75403],[8.67332,47.76725],[8.66528,47.76967],[8.66355,47.76727],[8.65457,47.76455],[8.64525,47.76497],[8.64757,47.76696],[8.64535,47.76852],[8.65297,47.7734],[8.64811,47.77406],[8.6498,47.7833],[8.64546,47.78722],[8.64911,47.79785],[8.65686,47.80044],[8.66031,47.79632],[8.65742,47.79174],[8.66232,47.79176],[8.66758,47.7877],[8.67624,47.78576],[8.68103,47.78661],[8.68321,47.7773],[8.68863,47.77352],[8.68359,47.7706],[8.68804,47.75928],[8.69177,47.75673],[8.69513,47.75571],[8.70147,47.76087],[8.71407,47.7654],[8.72733,47.76227],[8.73081,47.75961],[8.72896,47.75796],[8.74114,47.75198],[8.73954,47.74652],[8.72363,47.74565],[8.72024,47.741],[8.71461,47.73859],[8.71116,47.73014],[8.71714,47.72263],[8.71794,47.72162]]]}},{"type":"Feature","properties":{"name":"Trasadingen","cantonId":"schaffhausen","municipalityId":"trasadingen-2973"},"geometry":{"type":"Polygon","coordinates":[[[8.44897,47.65469],[8.44512,47.65386],[8.43662,47.65738],[8.42365,47.66686],[8.41221,47.66633],[8.40622,47.67301],[8.40636,47.67623],[8.42141,47.68363],[8.42247,47.67858],[8.42495,47.67962],[8.43096,47.67454],[8.44054,47.67076],[8.43934,47.66958],[8.4423,47.66649],[8.4395,47.66438],[8.44281,47.66253],[8.44055,47.66183],[8.44889,47.6581],[8.44685,47.65664],[8.44886,47.65479],[8.44897,47.65469]]]}},{"type":"Feature","properties":{"name":"Wilchingen","cantonId":"schaffhausen","municipalityId":"wilchingen-2974"},"geometry":{"type":"Polygon","coordinates":[[[8.44897,47.65469],[8.44685,47.65664],[8.44889,47.6581],[8.44055,47.66183],[8.44281,47.66253],[8.4395,47.66438],[8.4423,47.66649],[8.43934,47.66958],[8.44054,47.67076],[8.43096,47.67454],[8.42495,47.67962],[8.42247,47.67858],[8.42072,47.68384],[8.43421,47.68744],[8.43648,47.68526],[8.43846,47.68766],[8.44975,47.68713],[8.45124,47.68627],[8.44954,47.68493],[8.45679,47.67951],[8.46322,47.68152],[8.46231,47.68289],[8.47546,47.67938],[8.47984,47.67702],[8.47931,47.67444],[8.48658,47.67537],[8.49301,47.67241],[8.49026,47.67029],[8.49494,47.66701],[8.51763,47.66936],[8.52476,47.66634],[8.52266,47.66453],[8.52404,47.66064],[8.52694,47.66045],[8.53462,47.64969],[8.53179,47.64575],[8.52297,47.64485],[8.51332,47.6475],[8.49333,47.64695],[8.49436,47.64207],[8.4896,47.64253],[8.48742,47.64507],[8.4828,47.6441],[8.4804,47.64924],[8.47372,47.64969],[8.4734,47.64734],[8.47785,47.64493],[8.47115,47.64189],[8.47805,47.63977],[8.4735,47.6384],[8.46711,47.64154],[8.46373,47.64846],[8.46714,47.65603],[8.46597,47.65725],[8.45729,47.65274],[8.45053,47.655],[8.44897,47.65469]]]}}]}
