{"type":"FeatureCollection","features":[{"type":"Feature","properties":{"name":"Alpthal","cantonId":"schwyz","municipalityId":"alpthal-1361"},"geometry":{"type":"Polygon","coordinates":[[[8.73294,47.03851],[8.72606,47.03177],[8.72804,47.02518],[8.7255,47.02406],[8.70817,47.02245],[8.70226,47.02794],[8.69423,47.02854],[8.6947,47.03425],[8.68973,47.03904],[8.6937,47.04221],[8.69453,47.049],[8.68907,47.05129],[8.69277,47.0531],[8.68933,47.05412],[8.68642,47.06027],[8.69401,47.06738],[8.69316,47.07323],[8.6976,47.08059],[8.6956,47.09034],[8.71774,47.08991],[8.72272,47.08815],[8.72359,47.08357],[8.73772,47.08138],[8.74159,47.07296],[8.74024,47.06909],[8.74469,47.06377],[8.73517,47.05542],[8.73652,47.04588],[8.73396,47.04365],[8.73365,47.03923],[8.73294,47.03851]]]}},{"type":"Feature","properties":{"name":"Altendorf","cantonId":"schwyz","municipalityId":"altendorf-1341"},"geometry":{"type":"Polygon","coordinates":[[[8.83972,47.20821],[8.84345,47.19161],[8.84658,47.18693],[8.85694,47.18487],[8.85718,47.17618],[8.85664,47.17249],[8.8495,47.16431],[8.8498,47.15797],[8.84685,47.15039],[8.85432,47.14382],[8.84524,47.13947],[8.84393,47.13598],[8.84788,47.13436],[8.83703,47.12934],[8.8314,47.13454],[8.83981,47.13668],[8.84125,47.14114],[8.83189,47.14165],[8.82555,47.14504],[8.82009,47.15169],[8.82185,47.15409],[8.8162,47.15766],[8.81201,47.1576],[8.81008,47.16534],[8.80008,47.16826],[8.79953,47.17131],[8.79387,47.17362],[8.80188,47.1814],[8.7989,47.18472],[8.79908,47.19312],[8.80216,47.19716],[8.80627,47.19819],[8.8045,47.20192],[8.81634,47.21441],[8.83916,47.20824],[8.83972,47.20821]]]}},{"type":"Feature","properties":{"name":"Arth","cantonId":"schwyz","municipalityId":"arth-1362"},"geometry":{"type":"Polygon","coordinates":[[[8.56329,47.09261],[8.5644,47.07268],[8.56898,47.06904],[8.57132,47.05818],[8.5769,47.0526],[8.57675,47.04682],[8.58012,47.04512],[8.57994,47.04134],[8.56693,47.03474],[8.56784,47.02721],[8.56231,47.02225],[8.53999,47.02348],[8.51997,47.02794],[8.51441,47.02464],[8.5135,47.02168],[8.50125,47.02431],[8.46993,47.04748],[8.46487,47.04842],[8.47512,47.05516],[8.48584,47.05695],[8.48348,47.07352],[8.48716,47.07894],[8.50795,47.09489],[8.52195,47.08985],[8.53988,47.09199],[8.54421,47.09445],[8.56314,47.09284],[8.56329,47.09261]]]}},{"type":"Feature","properties":{"name":"Einsiedeln","cantonId":"schwyz","municipalityId":"einsiedeln-1301"},"geometry":{"type":"Polygon","coordinates":[[[8.77241,47.17345],[8.79387,47.17362],[8.79953,47.17131],[8.80008,47.16826],[8.81035,47.16505],[8.81201,47.1576],[8.8162,47.15766],[8.82185,47.15409],[8.82009,47.15169],[8.82555,47.14504],[8.83189,47.14165],[8.84125,47.14114],[8.83981,47.13668],[8.8314,47.13436],[8.83554,47.12954],[8.8419,47.13082],[8.84649,47.12788],[8.84779,47.12374],[8.84242,47.11999],[8.84208,47.11672],[8.85752,47.11034],[8.85727,47.10684],[8.86041,47.10385],[8.86853,47.10025],[8.86834,47.09319],[8.87301,47.08687],[8.8773,47.08571],[8.88055,47.07947],[8.8865,47.07571],[8.88645,47.07146],[8.88176,47.07242],[8.86455,47.06912],[8.85401,47.07048],[8.84814,47.07501],[8.83369,47.07879],[8.81712,47.07994],[8.80681,47.07593],[8.80167,47.07707],[8.7923,47.07453],[8.7741,47.07697],[8.77316,47.079],[8.76691,47.07998],[8.76145,47.06959],[8.75552,47.06485],[8.74433,47.06393],[8.74024,47.06909],[8.74159,47.07296],[8.73772,47.08138],[8.72359,47.08357],[8.72272,47.08815],[8.70749,47.09032],[8.70511,47.09245],[8.7019,47.10012],[8.70245,47.10456],[8.71213,47.11665],[8.70858,47.12947],[8.7034,47.13403],[8.6872,47.13621],[8.68427,47.14078],[8.69049,47.14776],[8.69587,47.15007],[8.71313,47.15298],[8.71939,47.15186],[8.72908,47.16078],[8.73077,47.16651],[8.74272,47.16466],[8.75542,47.16764],[8.75602,47.172],[8.76424,47.17824],[8.76985,47.1778],[8.77227,47.17352],[8.77241,47.17345]]]}},{"type":"Feature","properties":{"name":"Feusisberg","cantonId":"schwyz","municipalityId":"feusisberg-1321"},"geometry":{"type":"Polygon","coordinates":[[[8.77241,47.17345],[8.76961,47.17793],[8.76317,47.178],[8.75602,47.172],[8.75542,47.16764],[8.74272,47.16466],[8.73056,47.1664],[8.72908,47.16078],[8.71939,47.15186],[8.71313,47.15298],[8.70117,47.15094],[8.69877,47.15286],[8.69583,47.16293],[8.69221,47.16339],[8.69309,47.17123],[8.6941,47.17418],[8.69766,47.17439],[8.70366,47.17972],[8.69813,47.18309],[8.71028,47.18303],[8.7115,47.18698],[8.7211,47.18639],[8.75024,47.19436],[8.75318,47.19137],[8.76737,47.19196],[8.76748,47.1892],[8.77222,47.18697],[8.78675,47.18423],[8.77266,47.17351],[8.77241,47.17345]]]}},{"type":"Feature","properties":{"name":"Freienbach","cantonId":"schwyz","municipalityId":"freienbach-1322"},"geometry":{"type":"Polygon","coordinates":[[[8.77241,47.17345],[8.78675,47.18423],[8.77222,47.18697],[8.76748,47.1892],[8.76737,47.19196],[8.75318,47.19137],[8.75111,47.19437],[8.72313,47.18713],[8.72252,47.19092],[8.72506,47.19119],[8.72275,47.19303],[8.72746,47.19934],[8.72125,47.20498],[8.74054,47.21157],[8.79338,47.22256],[8.80861,47.22008],[8.81634,47.21441],[8.8045,47.20192],[8.80627,47.19819],[8.80216,47.19716],[8.79857,47.19213],[8.80109,47.17988],[8.79387,47.17362],[8.77262,47.17334],[8.77241,47.17345]]]}},{"type":"Feature","properties":{"name":"Galgenen","cantonId":"schwyz","municipalityId":"galgenen-1342"},"geometry":{"type":"Polygon","coordinates":[[[8.85694,47.18487],[8.8596,47.18405],[8.86432,47.18858],[8.87246,47.19155],[8.88172,47.18303],[8.89588,47.17546],[8.89923,47.17016],[8.89121,47.16447],[8.89711,47.15494],[8.89643,47.15015],[8.8898,47.15136],[8.88515,47.14784],[8.86994,47.15013],[8.85432,47.14382],[8.84692,47.14971],[8.8495,47.16431],[8.85694,47.17328],[8.8564,47.18383],[8.85694,47.18487]]]}},{"type":"Feature","properties":{"name":"Gersau","cantonId":"schwyz","municipalityId":"gersau-1311"},"geometry":{"type":"Polygon","coordinates":[[[8.46524,46.98426],[8.46817,46.99652],[8.48312,46.99674],[8.50905,47.00449],[8.51355,47.01255],[8.51356,47.0231],[8.51933,47.02787],[8.54454,47.02385],[8.55006,47.02213],[8.55057,47.01904],[8.55992,47.01021],[8.55506,47.00738],[8.54904,46.99872],[8.55404,46.99597],[8.56154,46.98661],[8.5427,46.97959],[8.51937,46.97981],[8.49663,46.97642],[8.46524,46.98426]]]}},{"type":"Feature","properties":{"name":"Illgau","cantonId":"schwyz","municipalityId":"illgau-1363"},"geometry":{"type":"Polygon","coordinates":[[[8.77631,46.99447],[8.77154,46.99344],[8.77316,46.99051],[8.76281,46.98764],[8.76066,46.98485],[8.75024,46.98359],[8.734,46.98696],[8.72688,46.98507],[8.71115,46.99531],[8.6934,46.99878],[8.69878,47.00256],[8.70988,47.00283],[8.7086,47.00472],[8.71203,47.00626],[8.74474,47.00419],[8.752,47.01085],[8.76668,47.00548],[8.76713,47.00333],[8.77644,46.99805],[8.77631,46.99447]]]}},{"type":"Feature","properties":{"name":"Ingenbohl","cantonId":"schwyz","municipalityId":"ingenbohl-1364"},"geometry":{"type":"Polygon","coordinates":[[[8.55992,47.01021],[8.58749,47.01286],[8.61157,47.02104],[8.62192,47.01676],[8.62203,47.01329],[8.61844,47.01154],[8.62892,47.01209],[8.63024,47.00864],[8.63829,47.00604],[8.64197,47.00208],[8.63708,46.99932],[8.63585,46.9952],[8.61411,46.98958],[8.61536,46.98309],[8.60414,46.98232],[8.60315,46.98683],[8.59715,46.9902],[8.58243,46.9934],[8.56154,46.98661],[8.55404,46.99597],[8.54904,46.99872],[8.54984,47.00185],[8.55933,47.01005],[8.55992,47.01021]]]}},{"type":"Feature","properties":{"name":"Innerthal","cantonId":"schwyz","municipalityId":"innerthal-1343"},"geometry":{"type":"Polygon","coordinates":[[[8.88609,47.07074],[8.8865,47.07571],[8.88055,47.07947],[8.87706,47.08594],[8.87301,47.08687],[8.86815,47.09356],[8.86743,47.09851],[8.87619,47.10677],[8.87747,47.11084],[8.88485,47.11228],[8.90041,47.10564],[8.90417,47.10627],[8.90275,47.10724],[8.90488,47.11069],[8.91782,47.10892],[8.92707,47.11131],[8.93718,47.10791],[8.93952,47.11209],[8.93765,47.11468],[8.94446,47.1188],[8.95042,47.11165],[8.9543,47.11066],[8.97369,47.11509],[8.96925,47.10868],[8.97064,47.10377],[8.9597,47.1002],[8.95388,47.09148],[8.97599,47.0857],[8.96643,47.08141],[8.9651,47.07817],[8.96083,47.07625],[8.96177,47.07137],[8.95111,47.06085],[8.94807,47.04935],[8.92201,47.03829],[8.91463,47.03992],[8.90216,47.03806],[8.90083,47.03202],[8.90362,47.02726],[8.89537,47.02533],[8.89299,47.02363],[8.89495,47.02089],[8.89304,47.02022],[8.88627,47.02089],[8.87179,47.02777],[8.87306,47.03134],[8.8822,47.03764],[8.8805,47.04425],[8.88755,47.05106],[8.88898,47.05925],[8.87869,47.06485],[8.88529,47.06785],[8.8858,47.07034],[8.88609,47.07074]]]}},{"type":"Feature","properties":{"name":"Küssnacht (SZ)","cantonId":"schwyz","municipalityId":"kuessnacht-sz-1331"},"geometry":{"type":"Polygon","coordinates":[[[8.38944,47.06808],[8.38916,47.07067],[8.40701,47.07944],[8.41069,47.08593],[8.4094,47.09271],[8.41869,47.10038],[8.42424,47.10382],[8.43737,47.10625],[8.4375,47.10931],[8.44843,47.11125],[8.45001,47.11442],[8.46435,47.11096],[8.47366,47.1122],[8.47627,47.10613],[8.50795,47.09489],[8.48716,47.07894],[8.48348,47.07352],[8.48584,47.05695],[8.47512,47.05516],[8.46673,47.0488],[8.44593,47.05826],[8.44448,47.05925],[8.44599,47.06034],[8.43942,47.06373],[8.43024,47.06541],[8.39924,47.05944],[8.39053,47.06132],[8.38958,47.06774],[8.38944,47.06808]]]}},{"type":"Feature","properties":{"name":"Lachen","cantonId":"schwyz","municipalityId":"lachen-1344"},"geometry":{"type":"Polygon","coordinates":[[[8.83972,47.20821],[8.86048,47.20974],[8.86261,47.20041],[8.87265,47.19135],[8.86432,47.18858],[8.8596,47.18405],[8.84658,47.18693],[8.84345,47.19161],[8.83972,47.20821]]]}},{"type":"Feature","properties":{"name":"Lauerz","cantonId":"schwyz","municipalityId":"lauerz-1365"},"geometry":{"type":"Polygon","coordinates":[[[8.55992,47.01021],[8.55094,47.0186],[8.54958,47.02241],[8.56293,47.02269],[8.56784,47.02721],[8.56693,47.03474],[8.57994,47.04134],[8.58014,47.04605],[8.60809,47.02579],[8.60323,47.02178],[8.60505,47.01862],[8.58749,47.01286],[8.56052,47.01016],[8.55992,47.01021]]]}},{"type":"Feature","properties":{"name":"Morschach","cantonId":"schwyz","municipalityId":"morschach-1366"},"geometry":{"type":"Polygon","coordinates":[[[8.63656,46.94983],[8.62739,46.94981],[8.6224,46.95272],[8.6044,46.95196],[8.60119,46.97523],[8.60414,46.98232],[8.61536,46.98309],[8.61411,46.98958],[8.62549,46.99351],[8.62736,46.99215],[8.63438,46.99525],[8.64135,46.99438],[8.64041,46.99198],[8.64414,46.99112],[8.64466,46.98575],[8.67648,46.98443],[8.67527,46.98129],[8.6797,46.97704],[8.68003,46.97352],[8.69021,46.97685],[8.69474,46.97616],[8.69714,46.97283],[8.68941,46.95682],[8.6609,46.95741],[8.65141,46.96228],[8.64286,46.95561],[8.6397,46.9503],[8.63665,46.94985],[8.63656,46.94983]]]}},{"type":"Feature","properties":{"name":"Muotathal","cantonId":"schwyz","municipalityId":"muotathal-1367"},"geometry":{"type":"Polygon","coordinates":[[[8.85362,46.88528],[8.84784,46.89099],[8.84881,46.91276],[8.84708,46.91377],[8.84269,46.90945],[8.83612,46.90767],[8.82779,46.91934],[8.83008,46.93046],[8.82677,46.93571],[8.81419,46.93862],[8.8107,46.94145],[8.79797,46.93673],[8.79197,46.93077],[8.78775,46.93035],[8.77785,46.93313],[8.77448,46.93967],[8.77093,46.9415],[8.74913,46.93367],[8.74515,46.9352],[8.74428,46.93263],[8.73743,46.93237],[8.72893,46.92775],[8.71614,46.93193],[8.71386,46.95235],[8.69036,46.95644],[8.69714,46.97283],[8.69474,46.97616],[8.69021,46.97685],[8.68003,46.97352],[8.6797,46.97704],[8.67527,46.98129],[8.67648,46.98443],[8.6673,46.98519],[8.67143,46.99104],[8.67402,46.99072],[8.6796,46.99651],[8.69489,46.99788],[8.71115,46.99531],[8.72688,46.98507],[8.73366,46.98698],[8.74438,46.98408],[8.75768,46.9839],[8.76281,46.98764],[8.77316,46.99051],[8.77154,46.99344],[8.79858,46.99926],[8.82405,47.00091],[8.83827,47.00631],[8.8495,47.0029],[8.85701,47.00332],[8.87117,47.02279],[8.87206,47.02694],[8.88901,47.02002],[8.90013,47.02103],[8.91048,47.01704],[8.91163,47.00876],[8.91554,47.00742],[8.91888,47.00155],[8.92866,46.99733],[8.93767,46.98642],[8.9415,46.98758],[8.94092,46.98471],[8.93225,46.9823],[8.9457,46.96716],[8.94985,46.96953],[8.94873,46.96821],[8.95567,46.96294],[8.97164,46.95986],[8.96237,46.95381],[8.96127,46.94725],[8.95533,46.93892],[8.95842,46.93452],[8.95709,46.93398],[8.96268,46.931],[8.96382,46.92754],[8.9482,46.92538],[8.91132,46.91072],[8.90746,46.90747],[8.90297,46.90822],[8.89518,46.90292],[8.88698,46.90235],[8.87443,46.89497],[8.86184,46.89474],[8.86145,46.89163],[8.8538,46.88547],[8.85362,46.88528]]]}},{"type":"Feature","properties":{"name":"Oberiberg","cantonId":"schwyz","municipalityId":"oberiberg-1368"},"geometry":{"type":"Polygon","coordinates":[[[8.73294,47.03851],[8.73652,47.04588],[8.73451,47.05087],[8.73538,47.05569],[8.74469,47.06377],[8.75381,47.06403],[8.76145,47.06959],[8.76851,47.06746],[8.77011,47.06351],[8.77844,47.05713],[8.78046,47.05153],[8.78863,47.0544],[8.79948,47.05283],[8.79555,47.04044],[8.79663,47.03785],[8.80112,47.03633],[8.7988,47.02644],[8.80098,47.02186],[8.79263,47.01688],[8.79028,47.01168],[8.79597,47.0063],[8.80759,47.01133],[8.80625,47.01354],[8.818,47.0199],[8.82193,47.02572],[8.82275,47.03217],[8.84384,47.03511],[8.83962,47.02969],[8.841,47.01681],[8.83705,47.01118],[8.83766,47.00589],[8.82405,47.00091],[8.79858,46.99926],[8.77651,46.99447],[8.77644,46.99805],[8.7789,46.99983],[8.77412,47.00598],[8.76785,47.00727],[8.76367,47.01333],[8.74387,47.02915],[8.73294,47.03851]]]}},{"type":"Feature","properties":{"name":"Reichenburg","cantonId":"schwyz","municipalityId":"reichenburg-1345"},"geometry":{"type":"Polygon","coordinates":[[[9.00472,47.17326],[8.99163,47.16216],[8.97178,47.13859],[8.96544,47.13696],[8.94658,47.14615],[8.94822,47.15386],[8.95429,47.15477],[8.95372,47.16361],[8.95741,47.16957],[8.96731,47.17178],[8.96808,47.17503],[8.97292,47.17609],[8.97285,47.17884],[8.97037,47.1788],[8.97397,47.18228],[8.98791,47.18172],[9.00472,47.17326]]]}},{"type":"Feature","properties":{"name":"Riemenstalden","cantonId":"schwyz","municipalityId":"riemenstalden-1369"},"geometry":{"type":"Polygon","coordinates":[[[8.70777,46.91716],[8.69856,46.92428],[8.69654,46.92879],[8.70032,46.93264],[8.69981,46.9348],[8.69296,46.94697],[8.66958,46.94407],[8.63656,46.94983],[8.6397,46.9503],[8.64286,46.95561],[8.65141,46.96228],[8.6609,46.95741],[8.68983,46.95717],[8.71386,46.95235],[8.71547,46.93239],[8.72893,46.92775],[8.71768,46.91848],[8.70882,46.91713],[8.70777,46.91716]]]}},{"type":"Feature","properties":{"name":"Rothenthurm","cantonId":"schwyz","municipalityId":"rothenthurm-1370"},"geometry":{"type":"Polygon","coordinates":[[[8.68709,47.1363],[8.7034,47.13403],[8.70858,47.12947],[8.71213,47.11665],[8.70245,47.10456],[8.70197,47.09987],[8.70705,47.09128],[8.6956,47.09034],[8.6976,47.08059],[8.69316,47.07323],[8.69401,47.06738],[8.6813,47.05579],[8.67405,47.05655],[8.67058,47.05965],[8.66916,47.06727],[8.66567,47.06984],[8.66887,47.07295],[8.66971,47.07797],[8.66452,47.08334],[8.65626,47.08709],[8.65553,47.09987],[8.64933,47.10343],[8.65978,47.11092],[8.65981,47.11467],[8.67183,47.11568],[8.67073,47.11912],[8.68183,47.12506],[8.68706,47.13631],[8.68709,47.1363]]]}},{"type":"Feature","properties":{"name":"Sattel","cantonId":"schwyz","municipalityId":"sattel-1371"},"geometry":{"type":"Polygon","coordinates":[[[8.63979,47.06044],[8.6354,47.06404],[8.63158,47.06349],[8.63132,47.06633],[8.61306,47.0668],[8.60274,47.07217],[8.60003,47.07032],[8.59828,47.07484],[8.59229,47.07616],[8.58734,47.08568],[8.59616,47.09147],[8.60746,47.09199],[8.61179,47.09497],[8.63725,47.09332],[8.64492,47.09585],[8.64549,47.09962],[8.64933,47.10343],[8.65302,47.10186],[8.65553,47.09987],[8.65626,47.08709],[8.66452,47.08334],[8.66971,47.07797],[8.66887,47.07295],[8.66567,47.06984],[8.66916,47.06727],[8.6708,47.05923],[8.66589,47.06588],[8.66576,47.06292],[8.65586,47.06413],[8.65303,47.06641],[8.64007,47.06051],[8.63979,47.06044]]]}},{"type":"Feature","properties":{"name":"Schübelbach","cantonId":"schwyz","municipalityId":"schuebelbach-1346"},"geometry":{"type":"Polygon","coordinates":[[[8.94446,47.1188],[8.94051,47.12999],[8.92026,47.13926],[8.90965,47.1421],[8.90358,47.14078],[8.89673,47.14407],[8.89711,47.15494],[8.89121,47.16447],[8.89923,47.17016],[8.896,47.17615],[8.90414,47.18011],[8.90815,47.18523],[8.91429,47.18466],[8.91637,47.18877],[8.93463,47.18316],[8.9619,47.18392],[8.96214,47.17937],[8.97285,47.17884],[8.97292,47.17609],[8.96808,47.17503],[8.96731,47.17178],[8.95741,47.16957],[8.95372,47.16361],[8.95429,47.15477],[8.94822,47.15386],[8.94658,47.14615],[8.96841,47.13576],[8.9693,47.1305],[8.9653,47.12148],[8.97369,47.11509],[8.9543,47.11066],[8.95042,47.11165],[8.9446,47.11873],[8.94446,47.1188]]]}},{"type":"Feature","properties":{"name":"Schwyz","cantonId":"schwyz","municipalityId":"schwyz-1372"},"geometry":{"type":"Polygon","coordinates":[[[8.6673,46.98519],[8.64466,46.98575],[8.64352,46.99199],[8.64041,46.99198],[8.64064,46.99462],[8.63634,46.9939],[8.63729,46.99519],[8.63494,46.9967],[8.64197,47.00208],[8.63829,47.00604],[8.63024,47.00864],[8.62892,47.01209],[8.61913,47.01115],[8.62203,47.01329],[8.62192,47.01676],[8.61172,47.02104],[8.60541,47.01844],[8.60323,47.02178],[8.60653,47.02271],[8.60809,47.02579],[8.60632,47.0267],[8.61586,47.03722],[8.62765,47.04312],[8.62919,47.04974],[8.63979,47.06044],[8.65303,47.06641],[8.65586,47.06413],[8.66576,47.06292],[8.66712,47.06538],[8.67405,47.05655],[8.6813,47.05579],[8.68707,47.05903],[8.68933,47.05412],[8.69277,47.0531],[8.68907,47.05129],[8.69453,47.049],[8.6937,47.04221],[8.68973,47.03904],[8.6947,47.03425],[8.69423,47.02854],[8.70226,47.02794],[8.70817,47.02245],[8.7255,47.02406],[8.72804,47.02518],[8.72606,47.03177],[8.73294,47.03851],[8.76367,47.01333],[8.76785,47.00727],[8.77412,47.00598],[8.7789,46.99983],[8.77644,46.99805],[8.76713,47.00333],[8.76668,47.00548],[8.752,47.01085],[8.74474,47.00419],[8.71203,47.00626],[8.7086,47.00472],[8.70988,47.00283],[8.69818,47.00236],[8.69358,46.99762],[8.67794,46.99602],[8.6673,46.98542],[8.6673,46.98519]]]}},{"type":"Feature","properties":{"name":"Steinen","cantonId":"schwyz","municipalityId":"steinen-1373"},"geometry":{"type":"Polygon","coordinates":[[[8.63979,47.06044],[8.62919,47.04974],[8.62765,47.04312],[8.61586,47.03722],[8.6065,47.02686],[8.58098,47.04495],[8.58307,47.04904],[8.59401,47.05156],[8.59096,47.0551],[8.59715,47.05593],[8.59494,47.0583],[8.5965,47.05932],[8.59504,47.06693],[8.59202,47.07311],[8.59368,47.07666],[8.59828,47.07484],[8.60047,47.07007],[8.60274,47.07217],[8.61306,47.0668],[8.63132,47.06633],[8.63158,47.06349],[8.6354,47.06404],[8.6393,47.06087],[8.63979,47.06044]]]}},{"type":"Feature","properties":{"name":"Steinerberg","cantonId":"schwyz","municipalityId":"steinerberg-1374"},"geometry":{"type":"Polygon","coordinates":[[[8.58734,47.08568],[8.59264,47.07597],[8.5965,47.05932],[8.59494,47.0583],[8.59715,47.05593],[8.59096,47.0551],[8.59382,47.05139],[8.58307,47.04904],[8.58013,47.04589],[8.57675,47.04682],[8.5769,47.0526],[8.57132,47.05818],[8.56898,47.06904],[8.5644,47.07268],[8.56334,47.08177],[8.56955,47.08121],[8.58572,47.08546],[8.58734,47.08568]]]}},{"type":"Feature","properties":{"name":"Tuggen","cantonId":"schwyz","municipalityId":"tuggen-1347"},"geometry":{"type":"Polygon","coordinates":[[[8.91919,47.21583],[8.94142,47.21813],[8.97187,47.21606],[8.9743,47.2128],[8.96922,47.21182],[8.96534,47.19816],[8.95749,47.19944],[8.96175,47.18377],[8.93463,47.18316],[8.91637,47.18877],[8.91429,47.18466],[8.90795,47.18651],[8.90663,47.18961],[8.90837,47.19063],[8.90565,47.19227],[8.90886,47.19375],[8.90837,47.19851],[8.91296,47.20097],[8.90827,47.2147],[8.91919,47.21583]]]}},{"type":"Feature","properties":{"name":"Unteriberg","cantonId":"schwyz","municipalityId":"unteriberg-1375"},"geometry":{"type":"Polygon","coordinates":[[[8.88609,47.07074],[8.88529,47.06785],[8.87869,47.06485],[8.88898,47.05925],[8.88687,47.04952],[8.8805,47.04425],[8.8822,47.03764],[8.87306,47.03134],[8.87117,47.02279],[8.85712,47.00337],[8.8495,47.0029],[8.83827,47.00631],[8.83705,47.01118],[8.841,47.01681],[8.83962,47.02969],[8.84384,47.03511],[8.82275,47.03217],[8.82193,47.02572],[8.818,47.0199],[8.80625,47.01354],[8.80759,47.01133],[8.79597,47.0063],[8.79028,47.01168],[8.79263,47.01688],[8.80098,47.02186],[8.7988,47.02644],[8.80112,47.03633],[8.79663,47.03785],[8.79555,47.04044],[8.79948,47.05283],[8.78863,47.0544],[8.78046,47.05153],[8.77844,47.05713],[8.77011,47.06351],[8.76851,47.06746],[8.76145,47.06959],[8.76616,47.07945],[8.7923,47.07453],[8.80167,47.07707],[8.80681,47.07593],[8.81712,47.07994],[8.83369,47.07879],[8.84814,47.07501],[8.85401,47.07048],[8.86455,47.06912],[8.88478,47.07171],[8.88609,47.07074]]]}},{"type":"Feature","properties":{"name":"Vorderthal","cantonId":"schwyz","municipalityId":"vorderthal-1348"},"geometry":{"type":"Polygon","coordinates":[[[8.8419,47.13082],[8.84788,47.13436],[8.84393,47.13598],[8.84524,47.13947],[8.86246,47.14803],[8.86994,47.15013],[8.88515,47.14784],[8.8899,47.15137],[8.89643,47.15015],[8.89825,47.14279],[8.92026,47.13926],[8.94286,47.12738],[8.94446,47.1188],[8.93765,47.11468],[8.93952,47.11209],[8.93718,47.10791],[8.92707,47.11131],[8.91782,47.10892],[8.90488,47.11069],[8.90275,47.10724],[8.90417,47.10627],[8.90041,47.10564],[8.88485,47.11228],[8.87747,47.11084],[8.87619,47.10677],[8.86848,47.10013],[8.86041,47.10385],[8.85727,47.10684],[8.85752,47.11034],[8.84208,47.11672],[8.84242,47.11999],[8.84779,47.12374],[8.84649,47.12788],[8.84196,47.13058],[8.8419,47.13082]]]}},{"type":"Feature","properties":{"name":"Wangen (SZ)","cantonId":"schwyz","municipalityId":"wangen-sz-1349"},"geometry":{"type":"Polygon","coordinates":[[[8.86048,47.20974],[8.90827,47.2147],[8.91259,47.20321],[8.91292,47.19946],[8.90837,47.19851],[8.90886,47.19375],[8.90538,47.19125],[8.90837,47.19063],[8.90663,47.18961],[8.90977,47.18563],[8.89588,47.17546],[8.88136,47.18328],[8.87767,47.18862],[8.86261,47.20041],[8.86155,47.20495],[8.86048,47.20974]]]}},{"type":"Feature","properties":{"name":"Wollerau","cantonId":"schwyz","municipalityId":"wollerau-1323"},"geometry":{"type":"Polygon","coordinates":[[[8.71311,47.20303],[8.72125,47.20498],[8.72737,47.19953],[8.72275,47.19303],[8.72506,47.19119],[8.72252,47.19092],[8.72313,47.18713],[8.7115,47.18698],[8.71028,47.18303],[8.69924,47.18394],[8.69912,47.18183],[8.70366,47.17972],[8.69766,47.17439],[8.6941,47.17418],[8.69206,47.16671],[8.68263,47.17396],[8.68037,47.17899],[8.68107,47.18407],[8.69419,47.19635],[8.70262,47.19814],[8.70405,47.2023],[8.7101,47.20042],[8.71279,47.20286],[8.71311,47.20303]]]}}]}
