{"type":"FeatureCollection","features":[{"type":"Feature","properties":{"name":"Aedermannsdorf","cantonId":"solothurn","municipalityId":"aedermannsdorf-2421"},"geometry":{"type":"Polygon","coordinates":[[[7.55835,47.32237],[7.56171,47.32143],[7.56873,47.32435],[7.5723,47.33062],[7.57681,47.33331],[7.58152,47.32661],[7.59328,47.3298],[7.59286,47.33203],[7.59647,47.3334],[7.60658,47.3336],[7.60999,47.32509],[7.60627,47.32345],[7.61184,47.31575],[7.61146,47.31321],[7.61934,47.30647],[7.61694,47.30645],[7.61862,47.29854],[7.61344,47.29605],[7.61661,47.2918],[7.61305,47.281],[7.60711,47.2802],[7.60128,47.28741],[7.59602,47.28684],[7.59734,47.29248],[7.60284,47.29424],[7.59978,47.30021],[7.58876,47.30723],[7.5727,47.31041],[7.56735,47.31406],[7.57132,47.31635],[7.56986,47.31968],[7.55956,47.31197],[7.55292,47.31035],[7.54837,47.31361],[7.54834,47.31636],[7.55553,47.32068],[7.55835,47.32237]]]}},{"type":"Feature","properties":{"name":"Aeschi (SO)","cantonId":"solothurn","municipalityId":"aeschi-so-2511"},"geometry":{"type":"MultiPolygon","coordinates":[[[[7.65286,47.1624],[7.65001,47.16344],[7.64813,47.16643],[7.64961,47.16751],[7.64599,47.17174],[7.65107,47.17371],[7.64937,47.17891],[7.65432,47.18133],[7.65565,47.18514],[7.65865,47.18652],[7.67443,47.18423],[7.67799,47.18193],[7.67287,47.1684],[7.66009,47.16841],[7.65432,47.16327],[7.65286,47.1624]]],[[[7.7008,47.16178],[7.69566,47.15751],[7.69379,47.15813],[7.69016,47.15256],[7.67527,47.15324],[7.67817,47.1617],[7.68851,47.16673],[7.6879,47.16525],[7.69696,47.16192],[7.7008,47.16178]]]]}},{"type":"Feature","properties":{"name":"Bärschwil","cantonId":"solothurn","municipalityId":"baerschwil-2611"},"geometry":{"type":"Polygon","coordinates":[[[7.43733,47.38089],[7.43904,47.38602],[7.44362,47.38897],[7.44132,47.40018],[7.44346,47.40232],[7.44965,47.3998],[7.44972,47.40363],[7.45463,47.4042],[7.45764,47.40121],[7.47738,47.40121],[7.47838,47.39053],[7.49085,47.38562],[7.4887,47.38223],[7.49497,47.38145],[7.49723,47.37849],[7.49642,47.37487],[7.49446,47.37065],[7.46328,47.3703],[7.45483,47.37222],[7.44018,47.38028],[7.43613,47.37811],[7.43733,47.38089]]]}},{"type":"Feature","properties":{"name":"Bättwil","cantonId":"solothurn","municipalityId":"baettwil-2471"},"geometry":{"type":"Polygon","coordinates":[[[7.4981,47.48894],[7.50245,47.49077],[7.50114,47.49352],[7.51107,47.49703],[7.50876,47.50235],[7.51167,47.5027],[7.51223,47.49892],[7.51907,47.49695],[7.5145,47.48335],[7.49871,47.48865],[7.4981,47.48894]]]}},{"type":"Feature","properties":{"name":"Balm bei Günsberg","cantonId":"solothurn","municipalityId":"balm-bei-guensberg-2541"},"geometry":{"type":"Polygon","coordinates":[[[7.55929,47.27213],[7.56835,47.27323],[7.56405,47.27142],[7.56547,47.26715],[7.55802,47.26613],[7.55194,47.26792],[7.54818,47.2661],[7.55051,47.26314],[7.55829,47.26169],[7.55647,47.25866],[7.56052,47.25545],[7.56841,47.25281],[7.55547,47.24608],[7.54058,47.25585],[7.53208,47.25583],[7.52786,47.25835],[7.51943,47.25544],[7.52081,47.25777],[7.5187,47.26015],[7.53214,47.26916],[7.52997,47.26969],[7.55795,47.27238],[7.55929,47.27213]]]}},{"type":"Feature","properties":{"name":"Balsthal","cantonId":"solothurn","municipalityId":"balsthal-2422"},"geometry":{"type":"Polygon","coordinates":[[[7.67582,47.33523],[7.6858,47.33697],[7.68783,47.33371],[7.69837,47.33093],[7.69969,47.32727],[7.70842,47.32572],[7.7158,47.32846],[7.71644,47.3333],[7.7233,47.33671],[7.72817,47.32519],[7.73551,47.31821],[7.74541,47.32075],[7.74259,47.31985],[7.74206,47.31598],[7.73904,47.31369],[7.72579,47.30706],[7.71336,47.30671],[7.71418,47.30412],[7.71204,47.30167],[7.70116,47.29959],[7.69767,47.29522],[7.68477,47.29399],[7.67676,47.28901],[7.67041,47.30291],[7.67389,47.31193],[7.67851,47.31203],[7.67892,47.31389],[7.67632,47.33081],[7.67582,47.33523]]]}},{"type":"Feature","properties":{"name":"Beinwil (SO)","cantonId":"solothurn","municipalityId":"beinwil-so-2612"},"geometry":{"type":"Polygon","coordinates":[[[7.53965,47.36012],[7.55416,47.35931],[7.55684,47.36569],[7.56358,47.36478],[7.56198,47.36659],[7.56362,47.37196],[7.5707,47.37118],[7.57397,47.37301],[7.58313,47.36978],[7.59157,47.37161],[7.60342,47.36753],[7.60866,47.36943],[7.61285,47.36679],[7.62827,47.37658],[7.62675,47.37787],[7.62877,47.37907],[7.64105,47.37829],[7.64319,47.37547],[7.64318,47.35846],[7.63722,47.35729],[7.63766,47.35395],[7.58387,47.33699],[7.57192,47.32935],[7.56046,47.34249],[7.5389,47.34763],[7.53687,47.35019],[7.54145,47.35574],[7.53972,47.35963],[7.53965,47.36012]]]}},{"type":"Feature","properties":{"name":"Bellach","cantonId":"solothurn","municipalityId":"bellach-2542"},"geometry":{"type":"Polygon","coordinates":[[[7.51646,47.21241],[7.50931,47.20893],[7.51132,47.19834],[7.5135,47.19633],[7.50896,47.19625],[7.50305,47.19686],[7.49309,47.20416],[7.48477,47.20204],[7.47973,47.20361],[7.47587,47.21536],[7.48907,47.21814],[7.48594,47.22343],[7.49334,47.22408],[7.5043,47.21902],[7.50464,47.21601],[7.51643,47.21241],[7.51646,47.21241]]]}},{"type":"Feature","properties":{"name":"Bettlach","cantonId":"solothurn","municipalityId":"bettlach-2543"},"geometry":{"type":"Polygon","coordinates":[[[7.44183,47.17923],[7.43603,47.1853],[7.43091,47.18119],[7.42399,47.18151],[7.41701,47.19417],[7.41478,47.19409],[7.40496,47.20674],[7.39128,47.21776],[7.38938,47.22305],[7.39397,47.2254],[7.39472,47.22842],[7.40933,47.23232],[7.41267,47.22803],[7.41773,47.22885],[7.42522,47.2237],[7.43322,47.22243],[7.43913,47.21677],[7.43949,47.21506],[7.43218,47.21101],[7.43811,47.20195],[7.43504,47.19905],[7.43875,47.19305],[7.43543,47.19239],[7.43776,47.18875],[7.44252,47.1874],[7.44383,47.18394],[7.44974,47.18515],[7.44876,47.18191],[7.44325,47.17925],[7.44183,47.17923]]]}},{"type":"Feature","properties":{"name":"Biberist","cantonId":"solothurn","municipalityId":"biberist-2513"},"geometry":{"type":"Polygon","coordinates":[[[7.54496,47.20205],[7.54956,47.19972],[7.54753,47.19776],[7.55094,47.19559],[7.55831,47.20012],[7.56785,47.19818],[7.57092,47.19647],[7.57121,47.19356],[7.57546,47.19509],[7.57787,47.19324],[7.5782,47.18879],[7.57566,47.18764],[7.57828,47.18398],[7.57489,47.1818],[7.57782,47.17746],[7.57576,47.17576],[7.56875,47.17416],[7.5621,47.17563],[7.5589,47.16809],[7.54434,47.16037],[7.53755,47.16479],[7.54538,47.16806],[7.53894,47.17162],[7.54249,47.1738],[7.54025,47.17828],[7.54181,47.17896],[7.53825,47.17893],[7.53285,47.18316],[7.52763,47.18198],[7.52863,47.18711],[7.52315,47.18849],[7.51929,47.18419],[7.52272,47.18296],[7.52237,47.18006],[7.51469,47.17899],[7.5113,47.18236],[7.51446,47.18959],[7.51044,47.19647],[7.52114,47.19615],[7.53066,47.20027],[7.53833,47.1979],[7.54495,47.20205],[7.54496,47.20205]]]}},{"type":"Feature","properties":{"name":"Biezwil","cantonId":"solothurn","municipalityId":"biezwil-2445"},"geometry":{"type":"Polygon","coordinates":[[[7.42755,47.12337],[7.43735,47.10895],[7.42846,47.10731],[7.41253,47.09812],[7.40675,47.10125],[7.40574,47.11825],[7.42637,47.12299],[7.42755,47.12337]]]}},{"type":"Feature","properties":{"name":"Bolken","cantonId":"solothurn","municipalityId":"bolken-2514"},"geometry":{"type":"Polygon","coordinates":[[[7.67111,47.18452],[7.65967,47.1855],[7.65459,47.19018],[7.65664,47.19129],[7.65536,47.1945],[7.64584,47.20036],[7.66234,47.20096],[7.66275,47.19866],[7.66913,47.1941],[7.67153,47.19497],[7.67463,47.1909],[7.67116,47.18491],[7.67111,47.18452]]]}},{"type":"Feature","properties":{"name":"Boningen","cantonId":"solothurn","municipalityId":"boningen-2571"},"geometry":{"type":"Polygon","coordinates":[[[7.85156,47.28994],[7.84955,47.28837],[7.84058,47.29447],[7.84533,47.29387],[7.84562,47.30839],[7.85573,47.31383],[7.86131,47.31287],[7.86109,47.31081],[7.88039,47.31333],[7.88075,47.31152],[7.8734,47.31167],[7.86092,47.30598],[7.85192,47.29031],[7.85156,47.28994]]]}},{"type":"Feature","properties":{"name":"Breitenbach","cantonId":"solothurn","municipalityId":"breitenbach-2613"},"geometry":{"type":"Polygon","coordinates":[[[7.52888,47.40099],[7.5312,47.40491],[7.52606,47.4119],[7.58075,47.41471],[7.58767,47.40565],[7.57169,47.40025],[7.56927,47.39458],[7.55695,47.39815],[7.52985,47.40077],[7.52888,47.40099]]]}},{"type":"Feature","properties":{"name":"Buchegg","cantonId":"solothurn","municipalityId":"buchegg-2465"},"geometry":{"type":"Polygon","coordinates":[[[7.46953,47.12019],[7.4606,47.11921],[7.45209,47.1139],[7.43735,47.10895],[7.42755,47.12337],[7.44018,47.12373],[7.43326,47.12618],[7.43635,47.12956],[7.43541,47.13128],[7.43065,47.12924],[7.4309,47.13085],[7.42646,47.13134],[7.4218,47.13586],[7.42668,47.13847],[7.42663,47.1411],[7.43962,47.14399],[7.44117,47.14589],[7.43995,47.1505],[7.44779,47.15508],[7.45463,47.15633],[7.46764,47.15128],[7.48478,47.15571],[7.49247,47.15205],[7.52161,47.15865],[7.52431,47.1536],[7.52959,47.15072],[7.52975,47.14874],[7.52518,47.14748],[7.52288,47.14248],[7.51593,47.13691],[7.51373,47.12991],[7.50483,47.12279],[7.49224,47.11706],[7.49233,47.12064],[7.48872,47.12314],[7.48953,47.12565],[7.47473,47.12343],[7.4699,47.12037],[7.46953,47.12019]]]}},{"type":"Feature","properties":{"name":"Büren (SO)","cantonId":"solothurn","municipalityId":"bueren-so-2472"},"geometry":{"type":"Polygon","coordinates":[[[7.65166,47.44713],[7.65578,47.45226],[7.67002,47.46041],[7.66866,47.46328],[7.67425,47.46674],[7.69113,47.45278],[7.68486,47.44785],[7.68298,47.43873],[7.68659,47.43367],[7.6847,47.42867],[7.67567,47.42992],[7.66939,47.43422],[7.66477,47.44193],[7.65294,47.44582],[7.65166,47.44713]]]}},{"type":"Feature","properties":{"name":"Büsserach","cantonId":"solothurn","municipalityId":"buesserach-2614"},"geometry":{"type":"Polygon","coordinates":[[[7.57802,47.39117],[7.57591,47.38672],[7.56246,47.38207],[7.5489,47.38196],[7.53493,47.37883],[7.52135,47.38023],[7.51739,47.38284],[7.51723,47.38851],[7.52888,47.40099],[7.55695,47.39815],[7.57778,47.39109],[7.57802,47.39117]]]}},{"type":"Feature","properties":{"name":"Däniken","cantonId":"solothurn","municipalityId":"daeniken-2572"},"geometry":{"type":"Polygon","coordinates":[[[7.96519,47.36716],[7.97125,47.36744],[7.97555,47.36407],[7.96792,47.36566],[7.97137,47.36018],[7.97597,47.36005],[7.97718,47.36221],[7.98768,47.3563],[7.99004,47.35362],[7.99183,47.34097],[7.98003,47.33731],[7.97566,47.33918],[7.97343,47.33409],[7.96931,47.334],[7.96468,47.33764],[7.96301,47.33987],[7.96441,47.34596],[7.95879,47.35205],[7.96585,47.35594],[7.96422,47.36617],[7.96519,47.36716]]]}},{"type":"Feature","properties":{"name":"Deitingen","cantonId":"solothurn","municipalityId":"deitingen-2516"},"geometry":{"type":"Polygon","coordinates":[[[7.60104,47.21316],[7.60438,47.21904],[7.6019,47.21917],[7.6012,47.22511],[7.58863,47.22458],[7.58738,47.22761],[7.60421,47.2294],[7.60952,47.22767],[7.6114,47.22439],[7.6155,47.22427],[7.62077,47.22893],[7.62352,47.22936],[7.62619,47.22632],[7.64048,47.22981],[7.64395,47.22545],[7.63918,47.22339],[7.64847,47.21895],[7.64595,47.21502],[7.64863,47.21097],[7.63229,47.2094],[7.62707,47.2115],[7.61989,47.20504],[7.59979,47.20614],[7.60041,47.21064],[7.60104,47.21316]]]}},{"type":"Feature","properties":{"name":"Derendingen","cantonId":"solothurn","municipalityId":"derendingen-2517"},"geometry":{"type":"Polygon","coordinates":[[[7.60104,47.21316],[7.59988,47.19793],[7.60426,47.19618],[7.60241,47.19407],[7.60566,47.19278],[7.60069,47.18767],[7.60209,47.18575],[7.59989,47.18243],[7.59477,47.18234],[7.58826,47.17414],[7.57782,47.17746],[7.57489,47.1818],[7.57828,47.18398],[7.57566,47.18764],[7.5782,47.18879],[7.5791,47.20038],[7.58057,47.20461],[7.59221,47.20469],[7.59404,47.20637],[7.59342,47.20995],[7.60018,47.21298],[7.60104,47.21316]]]}},{"type":"Feature","properties":{"name":"Dornach","cantonId":"solothurn","municipalityId":"dornach-2473"},"geometry":{"type":"Polygon","coordinates":[[[7.6045,47.47045],[7.60816,47.47522],[7.6062,47.47556],[7.60565,47.4792],[7.60884,47.4834],[7.60731,47.4894],[7.61673,47.48887],[7.64097,47.48274],[7.64696,47.47065],[7.63191,47.46715],[7.62608,47.46292],[7.61888,47.46746],[7.60585,47.47012],[7.6045,47.47045]]]}},{"type":"Feature","properties":{"name":"Drei Höfe","cantonId":"solothurn","municipalityId":"drei-hoefe-2535"},"geometry":{"type":"Polygon","coordinates":[[[7.61563,47.16202],[7.61796,47.16443],[7.62666,47.16276],[7.62588,47.16594],[7.62781,47.16656],[7.62414,47.17002],[7.62568,47.17133],[7.63038,47.16912],[7.63405,47.17121],[7.64599,47.17174],[7.64961,47.16751],[7.64813,47.16643],[7.65001,47.16344],[7.65356,47.16083],[7.65075,47.15735],[7.65298,47.15242],[7.6511,47.14995],[7.64511,47.14892],[7.63996,47.15356],[7.62196,47.15306],[7.61918,47.15447],[7.6245,47.15684],[7.61543,47.16137],[7.61563,47.16202]]]}},{"type":"Feature","properties":{"name":"Dulliken","cantonId":"solothurn","municipalityId":"dulliken-2573"},"geometry":{"type":"Polygon","coordinates":[[[7.94062,47.35857],[7.95034,47.357],[7.96425,47.34634],[7.96301,47.33987],[7.96468,47.33764],[7.95237,47.3314],[7.93124,47.33304],[7.93455,47.33406],[7.93007,47.34096],[7.93441,47.34943],[7.92816,47.35686],[7.93812,47.35829],[7.94062,47.35857]]]}},{"type":"Feature","properties":{"name":"Egerkingen","cantonId":"solothurn","municipalityId":"egerkingen-2401"},"geometry":{"type":"Polygon","coordinates":[[[7.81948,47.32208],[7.80107,47.31535],[7.80212,47.31388],[7.79924,47.3128],[7.80057,47.31155],[7.79105,47.31075],[7.77833,47.32025],[7.77541,47.32651],[7.77485,47.32995],[7.7886,47.3355],[7.78773,47.33823],[7.79861,47.34072],[7.80476,47.33979],[7.81497,47.33123],[7.81933,47.32274],[7.81948,47.32208]]]}},{"type":"Feature","properties":{"name":"Eppenberg-Wöschnau","cantonId":"solothurn","municipalityId":"eppenberg-woeschnau-2574"},"geometry":{"type":"Polygon","coordinates":[[[8.0171,47.38309],[8.01999,47.38391],[8.02421,47.39216],[8.02742,47.39322],[8.03138,47.38369],[8.02672,47.36868],[8.01971,47.36864],[8.02234,47.37172],[8.01664,47.37977],[8.01838,47.38225],[8.0171,47.38309]]]}},{"type":"Feature","properties":{"name":"Erlinsbach (SO)","cantonId":"solothurn","municipalityId":"erlinsbach-so-2503"},"geometry":{"type":"Polygon","coordinates":[[[7.98544,47.38747],[7.98358,47.39899],[7.98585,47.40035],[7.96809,47.41143],[7.96244,47.41778],[7.95674,47.41884],[7.96305,47.42239],[7.97423,47.41947],[7.98204,47.41357],[7.98948,47.41415],[7.99147,47.4112],[8.00727,47.40659],[8.01048,47.40042],[8.01046,47.39513],[8.01998,47.39399],[8.02034,47.39581],[8.02657,47.39562],[8.02742,47.39322],[8.024,47.39193],[8.01919,47.38324],[8.00756,47.38625],[8.00081,47.37943],[7.98879,47.38283],[7.98552,47.38706],[7.98544,47.38747]]]}},{"type":"Feature","properties":{"name":"Erschwil","cantonId":"solothurn","municipalityId":"erschwil-2615"},"geometry":{"type":"Polygon","coordinates":[[[7.57011,47.37154],[7.56362,47.37196],[7.56198,47.36659],[7.56349,47.36469],[7.55684,47.36569],[7.55416,47.35931],[7.5486,47.35833],[7.54361,47.36039],[7.53383,47.35966],[7.53229,47.36262],[7.52326,47.36426],[7.5217,47.36614],[7.52435,47.37162],[7.51895,47.37211],[7.51772,47.3754],[7.52134,47.3772],[7.52135,47.38023],[7.52502,47.38098],[7.53493,47.37883],[7.5489,47.38196],[7.56246,47.38207],[7.56925,47.38491],[7.5701,47.37202],[7.57011,47.37154]]]}},{"type":"Feature","properties":{"name":"Etziken","cantonId":"solothurn","municipalityId":"etziken-2518"},"geometry":{"type":"Polygon","coordinates":[[[7.63176,47.18925],[7.63241,47.19345],[7.63645,47.19739],[7.64584,47.20036],[7.65536,47.1945],[7.65664,47.19129],[7.65459,47.19018],[7.65865,47.18652],[7.64938,47.17893],[7.65107,47.17371],[7.64599,47.17174],[7.63909,47.17649],[7.64254,47.18007],[7.64273,47.18378],[7.64059,47.1854],[7.64231,47.18602],[7.63184,47.18927],[7.63176,47.18925]]]}},{"type":"Feature","properties":{"name":"Fehren","cantonId":"solothurn","municipalityId":"fehren-2616"},"geometry":{"type":"Polygon","coordinates":[[[7.57802,47.39117],[7.57591,47.39037],[7.56927,47.39458],[7.57169,47.40025],[7.57893,47.40151],[7.58307,47.40515],[7.58612,47.40372],[7.59014,47.39517],[7.58595,47.39287],[7.57802,47.39117]]]}},{"type":"Feature","properties":{"name":"Feldbrunnen-St. Niklaus","cantonId":"solothurn","municipalityId":"feldbrunnen-st-niklaus-2544"},"geometry":{"type":"Polygon","coordinates":[[[7.56355,47.21727],[7.55567,47.21657],[7.55133,47.21187],[7.54983,47.2164],[7.54306,47.22062],[7.54587,47.22887],[7.54345,47.2373],[7.55016,47.239],[7.5512,47.23414],[7.55433,47.23205],[7.55221,47.22866],[7.56031,47.22916],[7.56137,47.22486],[7.55863,47.22279],[7.56447,47.22279],[7.56353,47.21783],[7.56355,47.21727]]]}},{"type":"Feature","properties":{"name":"Flumenthal","cantonId":"solothurn","municipalityId":"flumenthal-2545"},"geometry":{"type":"Polygon","coordinates":[[[7.59741,47.24482],[7.60459,47.24267],[7.60639,47.23905],[7.60951,47.23955],[7.62077,47.22893],[7.6155,47.22427],[7.6114,47.22439],[7.60632,47.22902],[7.58795,47.22957],[7.58463,47.23561],[7.58653,47.2363],[7.58544,47.23853],[7.59514,47.24281],[7.59776,47.24165],[7.59751,47.24455],[7.59741,47.24482]]]}},{"type":"Feature","properties":{"name":"Fulenbach","cantonId":"solothurn","municipalityId":"fulenbach-2575"},"geometry":{"type":"Polygon","coordinates":[[[7.81417,47.27994],[7.82247,47.28616],[7.84058,47.29447],[7.84955,47.28837],[7.84359,47.27658],[7.83318,47.26788],[7.82814,47.26643],[7.81968,47.27363],[7.81839,47.27745],[7.81391,47.27949],[7.81417,47.27994]]]}},{"type":"Feature","properties":{"name":"Gempen","cantonId":"solothurn","municipalityId":"gempen-2474"},"geometry":{"type":"Polygon","coordinates":[[[7.66613,47.49687],[7.66543,47.49149],[7.66851,47.48625],[7.66656,47.48239],[7.67031,47.47968],[7.66818,47.47585],[7.68229,47.47265],[7.67678,47.46632],[7.6628,47.4646],[7.64825,47.46639],[7.64323,47.4695],[7.64696,47.47065],[7.6468,47.47253],[7.64097,47.48274],[7.64443,47.48564],[7.65593,47.4874],[7.65052,47.48827],[7.6554,47.49021],[7.64865,47.49183],[7.65218,47.49582],[7.66289,47.49608],[7.66613,47.49687]]]}},{"type":"Feature","properties":{"name":"Gerlafingen","cantonId":"solothurn","municipalityId":"gerlafingen-2519"},"geometry":{"type":"Polygon","coordinates":[[[7.5589,47.16809],[7.5621,47.17563],[7.56875,47.17416],[7.57816,47.17778],[7.58671,47.17398],[7.58449,47.17345],[7.58401,47.17058],[7.57907,47.17231],[7.58034,47.16892],[7.57627,47.16683],[7.57827,47.16545],[7.56926,47.16247],[7.56347,47.16836],[7.5589,47.16809]]]}},{"type":"Feature","properties":{"name":"Grenchen","cantonId":"solothurn","municipalityId":"grenchen-2546"},"geometry":{"type":"Polygon","coordinates":[[[7.34042,47.21757],[7.3556,47.22097],[7.36224,47.21961],[7.3745,47.22685],[7.39809,47.23349],[7.41183,47.24056],[7.41453,47.2349],[7.39472,47.22842],[7.38925,47.22184],[7.39495,47.21382],[7.40496,47.20674],[7.41478,47.19409],[7.41701,47.19417],[7.42399,47.18151],[7.43091,47.18119],[7.43159,47.17606],[7.4184,47.17116],[7.41595,47.16538],[7.41182,47.16243],[7.38327,47.16059],[7.38218,47.16512],[7.39192,47.16628],[7.38352,47.18031],[7.37932,47.18573],[7.36771,47.19103],[7.36547,47.19446],[7.35448,47.19154],[7.34058,47.21723],[7.34042,47.21757]]]}},{"type":"Feature","properties":{"name":"Gretzenbach","cantonId":"solothurn","municipalityId":"gretzenbach-2576"},"geometry":{"type":"Polygon","coordinates":[[[8.00108,47.33475],[7.99185,47.33261],[7.98493,47.33849],[7.99183,47.34097],[7.99004,47.35362],[7.97718,47.36221],[7.97597,47.36005],[7.97137,47.36018],[7.96792,47.36566],[7.97555,47.36407],[7.97125,47.36744],[7.97759,47.36594],[7.97912,47.36342],[7.99027,47.3626],[7.99429,47.36592],[7.9987,47.36551],[7.99813,47.36341],[8.00322,47.36651],[8.00657,47.36584],[8.01038,47.36061],[8.01548,47.36412],[8.01915,47.36361],[8.01048,47.35695],[8.01262,47.35195],[8.00385,47.34532],[8.00736,47.33931],[8.00287,47.33596],[8.00108,47.33475]]]}},{"type":"Feature","properties":{"name":"Grindel","cantonId":"solothurn","municipalityId":"grindel-2617"},"geometry":{"type":"Polygon","coordinates":[[[7.51895,47.37211],[7.49446,47.37065],[7.49723,47.37849],[7.49497,47.38145],[7.4887,47.38223],[7.49085,47.38562],[7.50082,47.38459],[7.5113,47.38975],[7.51723,47.38851],[7.51739,47.38284],[7.52135,47.38023],[7.52134,47.3772],[7.51772,47.3754],[7.51883,47.37251],[7.51895,47.37211]]]}},{"type":"Feature","properties":{"name":"Günsberg","cantonId":"solothurn","municipalityId":"guensberg-2547"},"geometry":{"type":"Polygon","coordinates":[[[7.58977,47.25123],[7.58093,47.24922],[7.57894,47.25429],[7.57637,47.25161],[7.56934,47.25679],[7.56052,47.25545],[7.55647,47.25866],[7.55829,47.26169],[7.55051,47.26314],[7.54812,47.26695],[7.56535,47.26709],[7.56405,47.27142],[7.58011,47.27635],[7.59491,47.26375],[7.58669,47.2614],[7.58684,47.25562],[7.58979,47.25141],[7.58977,47.25123]]]}},{"type":"Feature","properties":{"name":"Gunzgen","cantonId":"solothurn","municipalityId":"gunzgen-2578"},"geometry":{"type":"Polygon","coordinates":[[[7.81948,47.32208],[7.81785,47.32417],[7.8321,47.32762],[7.84097,47.31743],[7.84688,47.31374],[7.84954,47.31466],[7.85099,47.31234],[7.84472,47.30627],[7.84533,47.29387],[7.84058,47.29447],[7.83345,47.30615],[7.8251,47.3129],[7.81953,47.32189],[7.81948,47.32208]]]}},{"type":"Feature","properties":{"name":"Hägendorf","cantonId":"solothurn","municipalityId":"haegendorf-2579"},"geometry":{"type":"Polygon","coordinates":[[[7.79351,47.33959],[7.79637,47.35347],[7.80217,47.3611],[7.82209,47.36321],[7.83363,47.36749],[7.83458,47.3641],[7.84553,47.35917],[7.84637,47.35492],[7.84053,47.35006],[7.84063,47.34719],[7.84653,47.34591],[7.84615,47.34232],[7.85333,47.33824],[7.85733,47.33207],[7.84214,47.32672],[7.83972,47.32837],[7.83179,47.3276],[7.81762,47.32411],[7.81497,47.33123],[7.80476,47.33979],[7.79456,47.3398],[7.79351,47.33959]]]}},{"type":"Feature","properties":{"name":"Härkingen","cantonId":"solothurn","municipalityId":"haerkingen-2402"},"geometry":{"type":"Polygon","coordinates":[[[7.82247,47.28616],[7.81384,47.30182],[7.81039,47.30185],[7.80832,47.30877],[7.80107,47.31535],[7.81948,47.32208],[7.8251,47.3129],[7.83042,47.30996],[7.84058,47.29447],[7.82425,47.28698],[7.82247,47.28616]]]}},{"type":"Feature","properties":{"name":"Hauenstein-Ifenthal","cantonId":"solothurn","municipalityId":"hauenstein-ifenthal-2491"},"geometry":{"type":"Polygon","coordinates":[[[7.84877,47.35953],[7.84284,47.35907],[7.84322,47.36122],[7.83426,47.3644],[7.83494,47.36991],[7.84013,47.37477],[7.86266,47.38199],[7.88027,47.38344],[7.87764,47.37468],[7.87399,47.37287],[7.85578,47.37338],[7.85699,47.37114],[7.86175,47.37229],[7.86917,47.36978],[7.8638,47.36426],[7.86328,47.35997],[7.84899,47.35964],[7.84877,47.35953]]]}},{"type":"Feature","properties":{"name":"Herbetswil","cantonId":"solothurn","municipalityId":"herbetswil-2424"},"geometry":{"type":"Polygon","coordinates":[[[7.55929,47.27213],[7.55357,47.27852],[7.54874,47.27958],[7.55027,47.28217],[7.55601,47.2837],[7.54661,47.29338],[7.51714,47.28886],[7.51454,47.29252],[7.53287,47.29454],[7.53954,47.29861],[7.53907,47.30198],[7.54694,47.30608],[7.54807,47.3142],[7.55292,47.31035],[7.5574,47.31118],[7.56986,47.31968],[7.57132,47.31635],[7.56735,47.31406],[7.5727,47.31041],[7.58876,47.30723],[7.59929,47.30078],[7.60284,47.29424],[7.59734,47.29248],[7.59602,47.28684],[7.60128,47.28741],[7.60711,47.2802],[7.55975,47.27248],[7.55929,47.27213]]]}},{"type":"Feature","properties":{"name":"Himmelried","cantonId":"solothurn","municipalityId":"himmelried-2618"},"geometry":{"type":"Polygon","coordinates":[[[7.61581,47.43275],[7.61755,47.42622],[7.59999,47.41577],[7.59269,47.41545],[7.58775,47.41157],[7.58392,47.41153],[7.57883,47.41731],[7.56823,47.42238],[7.56861,47.43674],[7.57562,47.43675],[7.58121,47.42878],[7.58491,47.42863],[7.59208,47.43272],[7.60216,47.43125],[7.61403,47.43336],[7.61581,47.43275]]]}},{"type":"Feature","properties":{"name":"Hochwald","cantonId":"solothurn","municipalityId":"hochwald-2475"},"geometry":{"type":"Polygon","coordinates":[[[7.65166,47.44713],[7.64524,47.44305],[7.61614,47.43762],[7.61647,47.44524],[7.62261,47.45715],[7.62218,47.46196],[7.64191,47.47022],[7.64916,47.46618],[7.67008,47.46555],[7.66817,47.46191],[7.67002,47.46041],[7.65578,47.45226],[7.65202,47.44776],[7.65166,47.44713]]]}},{"type":"Feature","properties":{"name":"Hofstetten-Flüh","cantonId":"solothurn","municipalityId":"hofstetten-flueh-2476"},"geometry":{"type":"Polygon","coordinates":[[[7.49507,47.4593],[7.49336,47.46472],[7.48691,47.46992],[7.4931,47.47594],[7.49502,47.48096],[7.48728,47.48202],[7.49685,47.48899],[7.52912,47.47796],[7.52745,47.47391],[7.53068,47.46119],[7.50928,47.45864],[7.49635,47.45941],[7.49507,47.4593]]]}},{"type":"Feature","properties":{"name":"Holderbank (SO)","cantonId":"solothurn","municipalityId":"holderbank-so-2425"},"geometry":{"type":"Polygon","coordinates":[[[7.7233,47.33671],[7.75153,47.34433],[7.76643,47.34274],[7.76923,47.34145],[7.76897,47.33892],[7.78773,47.33823],[7.7886,47.3355],[7.78363,47.33454],[7.78253,47.33204],[7.76854,47.32768],[7.74885,47.32548],[7.74541,47.32075],[7.73551,47.31821],[7.72817,47.32519],[7.72553,47.33153],[7.7233,47.33671]]]}},{"type":"Feature","properties":{"name":"Horriwil","cantonId":"solothurn","municipalityId":"horriwil-2523"},"geometry":{"type":"Polygon","coordinates":[[[7.61307,47.18687],[7.61876,47.1879],[7.62042,47.19033],[7.63069,47.18918],[7.62825,47.18633],[7.62994,47.18471],[7.6269,47.18287],[7.63043,47.1831],[7.6321,47.1791],[7.6375,47.1779],[7.64599,47.17174],[7.63722,47.17084],[7.61251,47.17831],[7.61089,47.18594],[7.61256,47.18663],[7.61307,47.18687]]]}},{"type":"Feature","properties":{"name":"Hubersdorf","cantonId":"solothurn","municipalityId":"hubersdorf-2548"},"geometry":{"type":"Polygon","coordinates":[[[7.58977,47.25123],[7.59701,47.25069],[7.59594,47.24557],[7.59803,47.24183],[7.59514,47.24281],[7.59009,47.23921],[7.58357,47.23904],[7.57992,47.24291],[7.5797,47.24951],[7.58764,47.24967],[7.58977,47.25123]]]}},{"type":"Feature","properties":{"name":"Hüniken","cantonId":"solothurn","municipalityId":"hueniken-2524"},"geometry":{"type":"Polygon","coordinates":[[[7.63176,47.18925],[7.64231,47.18602],[7.64059,47.1854],[7.64273,47.18378],[7.64254,47.18007],[7.63908,47.17657],[7.6321,47.1791],[7.63043,47.1831],[7.6269,47.18287],[7.63171,47.18922],[7.63176,47.18925]]]}},{"type":"Feature","properties":{"name":"Kammersrohr","cantonId":"solothurn","municipalityId":"kammersrohr-2549"},"geometry":{"type":"Polygon","coordinates":[[[7.58977,47.25123],[7.58684,47.25562],[7.58669,47.2614],[7.59491,47.26375],[7.59773,47.25414],[7.59701,47.25069],[7.58976,47.25115],[7.58977,47.25123]]]}},{"type":"Feature","properties":{"name":"Kappel (SO)","cantonId":"solothurn","municipalityId":"kappel-so-2580"},"geometry":{"type":"Polygon","coordinates":[[[7.85099,47.31234],[7.84954,47.31466],[7.84688,47.31374],[7.84097,47.31743],[7.8321,47.32762],[7.83972,47.32837],[7.84214,47.32672],[7.86024,47.33337],[7.87774,47.31766],[7.88036,47.31835],[7.88039,47.31333],[7.86109,47.31081],[7.8605,47.31319],[7.85101,47.31234],[7.85099,47.31234]]]}},{"type":"Feature","properties":{"name":"Kestenholz","cantonId":"solothurn","municipalityId":"kestenholz-2403"},"geometry":{"type":"Polygon","coordinates":[[[7.75223,47.29547],[7.75726,47.29732],[7.75956,47.29249],[7.76245,47.29292],[7.76693,47.28663],[7.76511,47.28573],[7.77642,47.27457],[7.77147,47.26951],[7.76505,47.26699],[7.75682,47.2581],[7.74467,47.25703],[7.73832,47.2599],[7.73843,47.27187],[7.73414,47.28064],[7.74255,47.28547],[7.73859,47.29061],[7.75223,47.29547]]]}},{"type":"Feature","properties":{"name":"Kienberg","cantonId":"solothurn","municipalityId":"kienberg-2492"},"geometry":{"type":"Polygon","coordinates":[[[7.94679,47.4432],[7.94753,47.44556],[7.95786,47.45128],[7.95837,47.45368],[7.95624,47.45493],[7.96073,47.45547],[7.96064,47.45778],[7.96829,47.46281],[7.97483,47.45893],[7.97661,47.45421],[7.97489,47.452],[7.98061,47.44891],[7.98377,47.44323],[7.98369,47.43745],[7.98728,47.42875],[7.98547,47.42277],[7.98271,47.42833],[7.96184,47.42184],[7.95004,47.43172],[7.95195,47.43279],[7.94705,47.44257],[7.94679,47.4432]]]}},{"type":"Feature","properties":{"name":"Kleinlützel","cantonId":"solothurn","municipalityId":"kleinluetzel-2619"},"geometry":{"type":"Polygon","coordinates":[[[7.37595,47.4141],[7.37964,47.4276],[7.38302,47.42998],[7.38211,47.43305],[7.38559,47.43186],[7.39392,47.43517],[7.40305,47.43549],[7.40321,47.43868],[7.42091,47.44595],[7.42543,47.44329],[7.43785,47.44633],[7.44842,47.43773],[7.45559,47.42792],[7.4475,47.41449],[7.43817,47.41274],[7.42749,47.41448],[7.42075,47.4111],[7.41371,47.41093],[7.37659,47.41403],[7.37595,47.4141]]]}},{"type":"Feature","properties":{"name":"Kriegstetten","cantonId":"solothurn","municipalityId":"kriegstetten-2525"},"geometry":{"type":"Polygon","coordinates":[[[7.58641,47.17454],[7.59034,47.17563],[7.59477,47.18234],[7.59989,47.18243],[7.60209,47.18575],[7.60069,47.18767],[7.60535,47.19241],[7.61307,47.18687],[7.61089,47.18594],[7.61251,47.17831],[7.63722,47.17084],[7.63038,47.16912],[7.62568,47.17133],[7.62414,47.17002],[7.62781,47.16656],[7.62588,47.16594],[7.62666,47.16276],[7.61796,47.16443],[7.61563,47.16202],[7.58653,47.1702],[7.5864,47.17444],[7.58641,47.17454]]]}},{"type":"Feature","properties":{"name":"Langendorf","cantonId":"solothurn","municipalityId":"langendorf-2550"},"geometry":{"type":"Polygon","coordinates":[[[7.51646,47.21241],[7.50464,47.21601],[7.5043,47.21902],[7.50162,47.22031],[7.52563,47.23077],[7.52818,47.22704],[7.52438,47.22381],[7.52524,47.21935],[7.52201,47.21722],[7.51464,47.21802],[7.51644,47.21281],[7.51646,47.21241]]]}},{"type":"Feature","properties":{"name":"Laupersdorf","cantonId":"solothurn","municipalityId":"laupersdorf-2426"},"geometry":{"type":"Polygon","coordinates":[[[7.67582,47.33523],[7.6791,47.31478],[7.67851,47.31203],[7.67389,47.31193],[7.67041,47.30291],[7.67676,47.28901],[7.66879,47.28878],[7.65128,47.2829],[7.64074,47.3034],[7.64245,47.304],[7.62419,47.33454],[7.66102,47.33678],[7.6755,47.33533],[7.67582,47.33523]]]}},{"type":"Feature","properties":{"name":"Lohn-Ammannsegg","cantonId":"solothurn","municipalityId":"lohn-ammannsegg-2526"},"geometry":{"type":"Polygon","coordinates":[[[7.51022,47.1748],[7.51666,47.18004],[7.52237,47.18006],[7.52272,47.18296],[7.51929,47.18419],[7.52085,47.18757],[7.52851,47.18727],[7.52763,47.18198],[7.53285,47.18316],[7.53825,47.17893],[7.54181,47.17896],[7.54025,47.17828],[7.54249,47.1738],[7.53894,47.17162],[7.54538,47.16806],[7.53755,47.16479],[7.53897,47.16323],[7.53523,47.16247],[7.53451,47.16418],[7.52281,47.16072],[7.52017,47.1625],[7.52069,47.16566],[7.51443,47.16896],[7.51504,47.1714],[7.51072,47.17451],[7.51022,47.1748]]]}},{"type":"Feature","properties":{"name":"Lommiswil","cantonId":"solothurn","municipalityId":"lommiswil-2551"},"geometry":{"type":"Polygon","coordinates":[[[7.48827,47.22412],[7.4855,47.222],[7.48892,47.21809],[7.46959,47.21422],[7.46398,47.21736],[7.45836,47.21714],[7.4506,47.24009],[7.45584,47.24163],[7.47143,47.24371],[7.47578,47.23335],[7.48111,47.22901],[7.47944,47.22862],[7.48046,47.22587],[7.48772,47.22449],[7.48827,47.22412]]]}},{"type":"Feature","properties":{"name":"Lostorf","cantonId":"solothurn","municipalityId":"lostorf-2493"},"geometry":{"type":"Polygon","coordinates":[[[7.97133,47.37844],[7.96751,47.37222],[7.95629,47.37464],[7.95146,47.37113],[7.9432,47.37427],[7.9391,47.37087],[7.93108,47.37488],[7.92862,47.3794],[7.91019,47.37844],[7.90372,47.3821],[7.89432,47.38316],[7.89346,47.38449],[7.90409,47.38829],[7.91129,47.39957],[7.92422,47.40203],[7.93673,47.40806],[7.94891,47.40753],[7.95392,47.40403],[7.95115,47.40104],[7.9523,47.3949],[7.95566,47.39095],[7.95786,47.39196],[7.95838,47.38883],[7.96728,47.37945],[7.97133,47.37844]]]}},{"type":"Feature","properties":{"name":"Lüsslingen-Nennigkofen","cantonId":"solothurn","municipalityId":"luesslingen-nennigkofen-2464"},"geometry":{"type":"Polygon","coordinates":[[[7.51022,47.1748],[7.49309,47.17113],[7.48642,47.1736],[7.48056,47.17168],[7.47852,47.17753],[7.47682,47.1766],[7.47492,47.18017],[7.47086,47.18133],[7.4752,47.18303],[7.47261,47.18555],[7.47659,47.18809],[7.47573,47.19065],[7.48472,47.19326],[7.48544,47.20277],[7.49309,47.20416],[7.50305,47.19686],[7.51044,47.19647],[7.51446,47.18959],[7.5113,47.18236],[7.51476,47.1796],[7.51095,47.17539],[7.51022,47.1748]]]}},{"type":"Feature","properties":{"name":"Lüterkofen-Ichertswil","cantonId":"solothurn","municipalityId":"lueterkofen-ichertswil-2455"},"geometry":{"type":"Polygon","coordinates":[[[7.51022,47.1748],[7.51504,47.1714],[7.51443,47.16896],[7.52069,47.16566],[7.52017,47.1625],[7.52251,47.16238],[7.52293,47.15999],[7.52056,47.15977],[7.5216,47.1586],[7.49247,47.15205],[7.48907,47.15482],[7.4796,47.15527],[7.49269,47.16327],[7.4902,47.16577],[7.49704,47.17009],[7.49569,47.17147],[7.50986,47.17515],[7.51022,47.1748]]]}},{"type":"Feature","properties":{"name":"Luterbach","cantonId":"solothurn","municipalityId":"luterbach-2527"},"geometry":{"type":"Polygon","coordinates":[[[7.60104,47.21316],[7.59342,47.20995],[7.59404,47.20637],[7.59221,47.20469],[7.58057,47.20461],[7.5791,47.20038],[7.57073,47.21913],[7.57622,47.22431],[7.58738,47.22761],[7.58863,47.22458],[7.6012,47.22511],[7.6019,47.21917],[7.60438,47.21904],[7.60134,47.21388],[7.60104,47.21316]]]}},{"type":"Feature","properties":{"name":"Matzendorf","cantonId":"solothurn","municipalityId":"matzendorf-2427"},"geometry":{"type":"Polygon","coordinates":[[[7.64828,47.28199],[7.61305,47.281],[7.61661,47.2918],[7.61344,47.29605],[7.61862,47.29854],[7.61694,47.30645],[7.61934,47.30647],[7.61146,47.31321],[7.61184,47.31575],[7.60627,47.32345],[7.60999,47.32509],[7.60749,47.32858],[7.60933,47.32964],[7.60812,47.33247],[7.62419,47.33454],[7.64245,47.304],[7.64074,47.3034],[7.65128,47.2829],[7.64896,47.28215],[7.64828,47.28199]]]}},{"type":"Feature","properties":{"name":"Meltingen","cantonId":"solothurn","municipalityId":"meltingen-2620"},"geometry":{"type":"Polygon","coordinates":[[[7.57802,47.39117],[7.59014,47.39517],[7.59709,47.38767],[7.60161,47.37741],[7.60522,47.37475],[7.61007,47.37473],[7.61472,47.37131],[7.6151,47.36794],[7.61159,47.36697],[7.60866,47.36943],[7.60342,47.36753],[7.59157,47.37161],[7.58299,47.36979],[7.57397,47.37301],[7.5707,47.37118],[7.56846,47.37654],[7.5706,47.3797],[7.56925,47.38491],[7.57591,47.38672],[7.57771,47.39063],[7.57802,47.39117]]]}},{"type":"Feature","properties":{"name":"Messen","cantonId":"solothurn","municipalityId":"messen-2457"},"geometry":{"type":"Polygon","coordinates":[[[7.4122,47.09566],[7.41114,47.09772],[7.42846,47.10731],[7.45209,47.1139],[7.4606,47.11921],[7.46953,47.12019],[7.46943,47.11738],[7.47501,47.11211],[7.46133,47.10824],[7.46424,47.09905],[7.47508,47.08709],[7.46748,47.07908],[7.45905,47.07805],[7.45446,47.07493],[7.44045,47.07451],[7.43542,47.08017],[7.43291,47.08776],[7.43504,47.09366],[7.43743,47.09421],[7.434,47.1005],[7.42326,47.09746],[7.42027,47.09967],[7.41441,47.09684],[7.4122,47.09566]]]}},{"type":"Feature","properties":{"name":"Metzerlen-Mariastein","cantonId":"solothurn","municipalityId":"metzerlen-mariastein-2477"},"geometry":{"type":"Polygon","coordinates":[[[7.45583,47.47071],[7.47076,47.48074],[7.49025,47.48216],[7.49515,47.48052],[7.48691,47.46999],[7.49336,47.46472],[7.49507,47.4593],[7.46814,47.45391],[7.45652,47.44926],[7.44718,47.45696],[7.44522,47.46238],[7.45553,47.47068],[7.45583,47.47071]]]}},{"type":"Feature","properties":{"name":"Mümliswil-Ramiswil","cantonId":"solothurn","municipalityId":"muemliswil-ramiswil-2428"},"geometry":{"type":"Polygon","coordinates":[[[7.67582,47.33523],[7.66102,47.33678],[7.64227,47.33462],[7.63645,47.33629],[7.60755,47.33224],[7.59647,47.3334],[7.59286,47.33203],[7.59328,47.3298],[7.58152,47.32661],[7.57681,47.33331],[7.63766,47.35395],[7.63722,47.35729],[7.64318,47.35846],[7.64179,47.36576],[7.64421,47.36721],[7.70196,47.37245],[7.72792,47.36886],[7.73416,47.35776],[7.75153,47.34433],[7.72425,47.33714],[7.71644,47.3333],[7.7158,47.32846],[7.70951,47.32582],[7.69969,47.32727],[7.69837,47.33093],[7.68783,47.33371],[7.6858,47.33697],[7.67581,47.33526],[7.67582,47.33523]]]}},{"type":"Feature","properties":{"name":"Neuendorf","cantonId":"solothurn","municipalityId":"neuendorf-2404"},"geometry":{"type":"Polygon","coordinates":[[[7.81417,47.27994],[7.80593,47.28234],[7.7999,47.28149],[7.7964,47.28447],[7.79573,47.28734],[7.78154,47.29942],[7.78314,47.30041],[7.78096,47.30312],[7.78443,47.30426],[7.77956,47.30798],[7.77938,47.31066],[7.78587,47.31408],[7.79105,47.31075],[7.80057,47.31155],[7.79924,47.3128],[7.80213,47.31393],[7.80525,47.31179],[7.81004,47.30608],[7.80827,47.30534],[7.81039,47.30185],[7.81384,47.30182],[7.82247,47.28616],[7.8142,47.27997],[7.81417,47.27994]]]}},{"type":"Feature","properties":{"name":"Niederbuchsiten","cantonId":"solothurn","municipalityId":"niederbuchsiten-2405"},"geometry":{"type":"Polygon","coordinates":[[[7.7999,47.28149],[7.77642,47.27457],[7.76511,47.28573],[7.76693,47.28663],[7.76245,47.29292],[7.75956,47.29249],[7.7564,47.29657],[7.77669,47.3028],[7.78011,47.29882],[7.78386,47.29817],[7.79997,47.2816],[7.7999,47.28149]]]}},{"type":"Feature","properties":{"name":"Niedergösgen","cantonId":"solothurn","municipalityId":"niedergoesgen-2495"},"geometry":{"type":"Polygon","coordinates":[[[7.98544,47.38747],[7.98879,47.38283],[8.00081,47.37943],[7.9932,47.36326],[7.98223,47.36447],[7.98344,47.36289],[7.98144,47.363],[7.97759,47.36594],[7.96519,47.36716],[7.97128,47.3788],[7.98525,47.38737],[7.98544,47.38747]]]}},{"type":"Feature","properties":{"name":"Nuglar-St. Pantaleon","cantonId":"solothurn","municipalityId":"nuglar-st-pantaleon-2478"},"geometry":{"type":"Polygon","coordinates":[[[7.69863,47.45569],[7.69113,47.45278],[7.67906,47.46142],[7.67683,47.4665],[7.68229,47.47265],[7.66853,47.47551],[7.67031,47.47968],[7.66656,47.48239],[7.66751,47.48583],[7.69622,47.48179],[7.70511,47.47614],[7.70988,47.46939],[7.69993,47.46193],[7.69872,47.45577],[7.69863,47.45569]]]}},{"type":"Feature","properties":{"name":"Nunningen","cantonId":"solothurn","municipalityId":"nunningen-2621"},"geometry":{"type":"Polygon","coordinates":[[[7.61472,47.37131],[7.61952,47.37638],[7.61392,47.38208],[7.61444,47.38565],[7.60874,47.39361],[7.59861,47.40096],[7.5943,47.39969],[7.59155,47.40381],[7.58612,47.4037],[7.58771,47.40589],[7.58483,47.41137],[7.58775,47.41157],[7.58926,47.41448],[7.59764,47.41585],[7.60559,47.41263],[7.62395,47.41371],[7.63273,47.41003],[7.63726,47.38607],[7.63331,47.38534],[7.63332,47.38292],[7.63559,47.3806],[7.64177,47.38047],[7.64105,47.37829],[7.62877,47.37907],[7.62675,47.37787],[7.62827,47.37658],[7.61505,47.36842],[7.61472,47.37131]]]}},{"type":"Feature","properties":{"name":"Oberbuchsiten","cantonId":"solothurn","municipalityId":"oberbuchsiten-2406"},"geometry":{"type":"Polygon","coordinates":[[[7.75223,47.29547],[7.7502,47.299],[7.7384,47.30276],[7.72983,47.30893],[7.74206,47.31598],[7.74259,47.31985],[7.74885,47.32548],[7.77487,47.32974],[7.77833,47.32025],[7.7855,47.3139],[7.779,47.3102],[7.78443,47.30426],[7.78096,47.30312],[7.78214,47.29967],[7.78011,47.29882],[7.77669,47.3028],[7.77195,47.30256],[7.75396,47.29609],[7.75223,47.29547]]]}},{"type":"Feature","properties":{"name":"Oberdorf (SO)","cantonId":"solothurn","municipalityId":"oberdorf-so-2553"},"geometry":{"type":"Polygon","coordinates":[[[7.48827,47.22412],[7.48046,47.22587],[7.47944,47.22862],[7.48111,47.22901],[7.47578,47.23335],[7.47143,47.24371],[7.45948,47.24547],[7.45931,47.24818],[7.45298,47.25158],[7.47395,47.2557],[7.48458,47.25188],[7.49333,47.25184],[7.51623,47.25764],[7.51237,47.25322],[7.51461,47.24375],[7.52563,47.23077],[7.50162,47.22031],[7.49334,47.22408],[7.48827,47.22412]]]}},{"type":"Feature","properties":{"name":"Obergerlafingen","cantonId":"solothurn","municipalityId":"obergerlafingen-2528"},"geometry":{"type":"Polygon","coordinates":[[[7.57491,47.16445],[7.58034,47.16892],[7.57907,47.17231],[7.58241,47.17189],[7.58222,47.17029],[7.58449,47.17345],[7.58722,47.17349],[7.5864,47.16823],[7.58365,47.16826],[7.58892,47.16355],[7.5896,47.16049],[7.58782,47.15996],[7.59155,47.15557],[7.58838,47.15414],[7.59,47.15161],[7.58614,47.14755],[7.58354,47.15488],[7.5811,47.1556],[7.5819,47.15891],[7.57749,47.16178],[7.57491,47.16445]]]}},{"type":"Feature","properties":{"name":"Obergösgen","cantonId":"solothurn","municipalityId":"obergoesgen-2497"},"geometry":{"type":"Polygon","coordinates":[[[7.94062,47.35857],[7.94248,47.36565],[7.93797,47.36993],[7.9432,47.37427],[7.95146,47.37113],[7.95629,47.37464],[7.96751,47.37222],[7.96362,47.36346],[7.96626,47.35736],[7.96317,47.3533],[7.95864,47.35205],[7.94938,47.35749],[7.94089,47.35862],[7.94062,47.35857]]]}},{"type":"Feature","properties":{"name":"Oensingen","cantonId":"solothurn","municipalityId":"oensingen-2407"},"geometry":{"type":"Polygon","coordinates":[[[7.68477,47.29399],[7.69767,47.29522],[7.70116,47.29959],[7.71229,47.30184],[7.71336,47.30671],[7.72139,47.30559],[7.72983,47.30893],[7.7384,47.30276],[7.7502,47.299],[7.75223,47.29547],[7.73859,47.29061],[7.74255,47.28547],[7.73414,47.28064],[7.7379,47.27418],[7.73935,47.26318],[7.73832,47.2599],[7.73267,47.25912],[7.72483,47.26624],[7.72514,47.26931],[7.71752,47.27512],[7.71562,47.2764],[7.71234,47.27377],[7.70086,47.28655],[7.68497,47.29349],[7.68477,47.29399]]]}},{"type":"Feature","properties":{"name":"Olten","cantonId":"solothurn","municipalityId":"olten-2581"},"geometry":{"type":"Polygon","coordinates":[[[7.92816,47.35686],[7.92371,47.35286],[7.92159,47.34268],[7.92416,47.33894],[7.91584,47.33663],[7.90781,47.34172],[7.9079,47.33948],[7.89686,47.32766],[7.8981,47.31983],[7.88911,47.31149],[7.88383,47.31103],[7.88075,47.31152],[7.88036,47.31835],[7.88881,47.32076],[7.88858,47.32704],[7.87876,47.33992],[7.88702,47.34332],[7.87525,47.35506],[7.87687,47.35878],[7.88839,47.36204],[7.89887,47.35949],[7.90051,47.35649],[7.90665,47.35635],[7.91205,47.3643],[7.91896,47.36892],[7.9239,47.36106],[7.92909,47.35759],[7.92816,47.35686]]]}},{"type":"Feature","properties":{"name":"Recherswil","cantonId":"solothurn","municipalityId":"recherswil-2530"},"geometry":{"type":"Polygon","coordinates":[[[7.61563,47.16202],[7.6245,47.15684],[7.61918,47.15447],[7.61554,47.15658],[7.61454,47.15453],[7.60785,47.15285],[7.59,47.15161],[7.58838,47.15414],[7.59155,47.15557],[7.58782,47.15996],[7.5896,47.16049],[7.58892,47.16355],[7.58365,47.16826],[7.5864,47.16823],[7.58653,47.1702],[7.6156,47.16206],[7.61563,47.16202]]]}},{"type":"Feature","properties":{"name":"Rickenbach (SO)","cantonId":"solothurn","municipalityId":"rickenbach-so-2582"},"geometry":{"type":"Polygon","coordinates":[[[7.84877,47.35953],[7.86107,47.34107],[7.87155,47.32989],[7.87332,47.32539],[7.87195,47.32362],[7.86185,47.33251],[7.85733,47.33207],[7.85333,47.33824],[7.84615,47.34232],[7.84758,47.34309],[7.84628,47.34612],[7.84063,47.34719],[7.84053,47.35006],[7.84637,47.35492],[7.84553,47.35917],[7.84748,47.35937],[7.84877,47.35953]]]}},{"type":"Feature","properties":{"name":"Riedholz","cantonId":"solothurn","municipalityId":"riedholz-2554"},"geometry":{"type":"Polygon","coordinates":[[[7.58014,47.24941],[7.57992,47.24291],[7.5863,47.23746],[7.58463,47.23561],[7.58795,47.22957],[7.59437,47.22946],[7.57806,47.2251],[7.56507,47.21709],[7.56355,47.21727],[7.56447,47.22279],[7.55863,47.22279],[7.56137,47.22486],[7.56031,47.22916],[7.55221,47.22866],[7.55433,47.23205],[7.5512,47.23414],[7.55016,47.239],[7.55719,47.23998],[7.5549,47.24638],[7.56841,47.25281],[7.56195,47.25508],[7.56934,47.25679],[7.57637,47.25161],[7.57894,47.25429],[7.58022,47.24956],[7.58014,47.24941]]]}},{"type":"Feature","properties":{"name":"Rodersdorf","cantonId":"solothurn","municipalityId":"rodersdorf-2479"},"geometry":{"type":"Polygon","coordinates":[[[7.45583,47.47071],[7.45574,47.47338],[7.45018,47.47533],[7.44841,47.47379],[7.44362,47.47852],[7.4294,47.48295],[7.42082,47.48037],[7.43499,47.49811],[7.45083,47.49032],[7.46239,47.48906],[7.47076,47.48074],[7.45678,47.47114],[7.45583,47.47071]]]}},{"type":"Feature","properties":{"name":"Rüttenen","cantonId":"solothurn","municipalityId":"ruettenen-2555"},"geometry":{"type":"Polygon","coordinates":[[[7.52563,47.23077],[7.51461,47.24375],[7.51237,47.25322],[7.5187,47.26015],[7.52081,47.25777],[7.51943,47.25544],[7.52786,47.25835],[7.53208,47.25583],[7.54058,47.25585],[7.55266,47.24934],[7.55719,47.23998],[7.54345,47.2373],[7.54587,47.22887],[7.5433,47.21992],[7.52514,47.21916],[7.52438,47.22381],[7.52818,47.22704],[7.52564,47.2307],[7.52563,47.23077]]]}},{"type":"Feature","properties":{"name":"Schnottwil","cantonId":"solothurn","municipalityId":"schnottwil-2461"},"geometry":{"type":"Polygon","coordinates":[[[7.4122,47.09566],[7.39011,47.09225],[7.38945,47.09514],[7.38203,47.09574],[7.37924,47.10621],[7.36971,47.11596],[7.37197,47.11734],[7.37141,47.12254],[7.38273,47.12302],[7.38675,47.1259],[7.38997,47.11952],[7.395,47.1217],[7.40584,47.11814],[7.40675,47.10125],[7.4112,47.09933],[7.41214,47.09575],[7.4122,47.09566]]]}},{"type":"Feature","properties":{"name":"Schönenwerd","cantonId":"solothurn","municipalityId":"schoenenwerd-2583"},"geometry":{"type":"Polygon","coordinates":[[[8.0171,47.38309],[8.01946,47.38156],[8.01664,47.37977],[8.02234,47.37172],[8.01971,47.36864],[8.02522,47.36743],[8.02398,47.36523],[8.01548,47.36412],[8.01038,47.36061],[8.00647,47.36589],[8.00311,47.3665],[7.99813,47.36341],[7.9987,47.36551],[7.99447,47.36666],[8.00502,47.38525],[8.00966,47.38632],[8.01633,47.38326],[8.0171,47.38309]]]}},{"type":"Feature","properties":{"name":"Seewen","cantonId":"solothurn","municipalityId":"seewen-2480"},"geometry":{"type":"Polygon","coordinates":[[[7.61581,47.43275],[7.61614,47.43762],[7.64524,47.44305],[7.65166,47.44713],[7.66477,47.44193],[7.66939,47.43422],[7.67567,47.42992],[7.6847,47.42867],[7.67981,47.41752],[7.66406,47.41002],[7.65755,47.40908],[7.63273,47.41003],[7.62395,47.41371],[7.60294,47.41346],[7.59999,47.41577],[7.61755,47.42622],[7.6174,47.42866],[7.61581,47.43275]]]}},{"type":"Feature","properties":{"name":"Selzach","cantonId":"solothurn","municipalityId":"selzach-2556"},"geometry":{"type":"Polygon","coordinates":[[[7.41183,47.24056],[7.45229,47.25167],[7.45931,47.24818],[7.45948,47.24547],[7.46418,47.24598],[7.46519,47.24353],[7.4506,47.24009],[7.45836,47.21714],[7.46398,47.21736],[7.46959,47.21422],[7.47587,47.21536],[7.47777,47.20649],[7.48477,47.20204],[7.48518,47.19432],[7.48319,47.19211],[7.44882,47.1894],[7.44974,47.18515],[7.44374,47.18397],[7.44252,47.1874],[7.43776,47.18875],[7.43543,47.19239],[7.43875,47.19305],[7.43504,47.19905],[7.43825,47.20134],[7.43674,47.20659],[7.43218,47.21101],[7.43949,47.21506],[7.43913,47.21677],[7.43322,47.22243],[7.42522,47.2237],[7.41773,47.22885],[7.41214,47.22834],[7.40933,47.23232],[7.41453,47.2349],[7.41267,47.23842],[7.41183,47.24056]]]}},{"type":"Feature","properties":{"name":"Solothurn","cantonId":"solothurn","municipalityId":"solothurn-2601"},"geometry":{"type":"Polygon","coordinates":[[[7.54338,47.21996],[7.54983,47.2164],[7.55231,47.21189],[7.54692,47.20685],[7.54675,47.2024],[7.54172,47.19893],[7.53634,47.19939],[7.53518,47.19766],[7.53066,47.20027],[7.52114,47.19615],[7.5135,47.19633],[7.51132,47.19834],[7.50931,47.20893],[7.51624,47.21175],[7.51502,47.21821],[7.52201,47.21722],[7.52946,47.21977],[7.53417,47.21839],[7.5433,47.21992],[7.54338,47.21996]]]}},{"type":"Feature","properties":{"name":"Starrkirch-Wil","cantonId":"solothurn","municipalityId":"starrkirch-wil-2584"},"geometry":{"type":"Polygon","coordinates":[[[7.91584,47.33663],[7.92416,47.33894],[7.92159,47.34268],[7.92371,47.35286],[7.92816,47.35686],[7.93441,47.34943],[7.93007,47.34096],[7.93455,47.33406],[7.91819,47.33532],[7.91584,47.33663]]]}},{"type":"Feature","properties":{"name":"Stüsslingen","cantonId":"solothurn","municipalityId":"stuesslingen-2499"},"geometry":{"type":"Polygon","coordinates":[[[7.98544,47.38747],[7.97783,47.38119],[7.97133,47.37844],[7.9666,47.37927],[7.95786,47.39196],[7.95566,47.39095],[7.9523,47.3949],[7.95115,47.40104],[7.95392,47.40403],[7.94891,47.40753],[7.93673,47.40806],[7.93494,47.41177],[7.9484,47.41627],[7.95505,47.41561],[7.95427,47.4173],[7.95674,47.41884],[7.96244,47.41778],[7.96809,47.41143],[7.98585,47.40035],[7.98358,47.39899],[7.98539,47.3877],[7.98544,47.38747]]]}},{"type":"Feature","properties":{"name":"Subingen","cantonId":"solothurn","municipalityId":"subingen-2532"},"geometry":{"type":"Polygon","coordinates":[[[7.64863,47.21097],[7.65123,47.20671],[7.64944,47.2041],[7.64464,47.19961],[7.63645,47.19739],[7.63241,47.19345],[7.63171,47.18922],[7.62042,47.19033],[7.61876,47.1879],[7.61283,47.1869],[7.60241,47.19407],[7.60426,47.19618],[7.59988,47.19793],[7.59979,47.20614],[7.61989,47.20504],[7.62707,47.2115],[7.63229,47.2094],[7.64831,47.21085],[7.64863,47.21097]]]}},{"type":"Feature","properties":{"name":"Trimbach","cantonId":"solothurn","municipalityId":"trimbach-2500"},"geometry":{"type":"Polygon","coordinates":[[[7.86328,47.35997],[7.8638,47.36426],[7.86917,47.36978],[7.86175,47.37229],[7.85699,47.37114],[7.85578,47.37338],[7.87399,47.37287],[7.87764,47.37468],[7.88027,47.38344],[7.8858,47.38517],[7.89346,47.38449],[7.9047,47.3788],[7.90207,47.3716],[7.91688,47.37204],[7.91866,47.36888],[7.90935,47.36153],[7.90665,47.35635],[7.90051,47.35649],[7.89887,47.35949],[7.88839,47.36204],[7.87296,47.35822],[7.86943,47.36112],[7.86501,47.36006],[7.86328,47.35997]]]}},{"type":"Feature","properties":{"name":"Unterramsern","cantonId":"solothurn","municipalityId":"unterramsern-2463"},"geometry":{"type":"Polygon","coordinates":[[[7.46953,47.12019],[7.47473,47.12343],[7.48953,47.12565],[7.48872,47.12314],[7.49233,47.12064],[7.49224,47.11706],[7.47501,47.11211],[7.46943,47.11738],[7.46945,47.12008],[7.46953,47.12019]]]}},{"type":"Feature","properties":{"name":"Walterswil (SO)","cantonId":"solothurn","municipalityId":"walterswil-so-2585"},"geometry":{"type":"Polygon","coordinates":[[[7.99185,47.33261],[7.98534,47.32757],[7.97783,47.32598],[7.97651,47.32344],[7.94798,47.31714],[7.94709,47.32225],[7.94883,47.32957],[7.94756,47.33258],[7.95453,47.33175],[7.96468,47.33764],[7.96931,47.334],[7.97343,47.33409],[7.97566,47.33918],[7.97977,47.33732],[7.98487,47.33855],[7.99182,47.33279],[7.99185,47.33261]]]}},{"type":"Feature","properties":{"name":"Wangen bei Olten","cantonId":"solothurn","municipalityId":"wangen-bei-olten-2586"},"geometry":{"type":"Polygon","coordinates":[[[7.84877,47.35953],[7.86943,47.36112],[7.87296,47.35822],[7.87687,47.35878],[7.87525,47.35506],[7.88702,47.34332],[7.87876,47.33992],[7.88572,47.33226],[7.88905,47.32132],[7.87774,47.31766],[7.87174,47.3232],[7.87332,47.32539],[7.87155,47.32989],[7.86107,47.34107],[7.84932,47.3586],[7.84877,47.35953]]]}},{"type":"Feature","properties":{"name":"Welschenrohr-Gänsbrunnen","cantonId":"solothurn","municipalityId":"welschenrohr-gaensbrunnen-2430"},"geometry":{"type":"Polygon","coordinates":[[[7.44572,47.26309],[7.46585,47.26466],[7.48535,47.28428],[7.51376,47.29246],[7.51714,47.28886],[7.54661,47.29338],[7.55601,47.2837],[7.55027,47.28217],[7.54874,47.27958],[7.55357,47.27852],[7.55929,47.27213],[7.52997,47.26969],[7.53214,47.26916],[7.51623,47.25764],[7.50281,47.25364],[7.49034,47.2516],[7.47395,47.2557],[7.46356,47.25478],[7.44396,47.25062],[7.42169,47.24273],[7.4172,47.24756],[7.41737,47.2538],[7.44491,47.263],[7.44572,47.26309]]]}},{"type":"Feature","properties":{"name":"Winznau","cantonId":"solothurn","municipalityId":"winznau-2501"},"geometry":{"type":"Polygon","coordinates":[[[7.94062,47.35857],[7.92821,47.35807],[7.9239,47.36106],[7.91688,47.37204],[7.90207,47.3716],[7.9047,47.3788],[7.89611,47.38228],[7.90372,47.3821],[7.91019,47.37844],[7.92862,47.3794],[7.93108,47.37488],[7.93453,47.37228],[7.93753,47.37303],[7.93797,47.36993],[7.94176,47.36706],[7.94071,47.35915],[7.94062,47.35857]]]}},{"type":"Feature","properties":{"name":"Wisen (SO)","cantonId":"solothurn","municipalityId":"wisen-so-2502"},"geometry":{"type":"Polygon","coordinates":[[[7.90971,47.39853],[7.90409,47.38829],[7.8914,47.38386],[7.8858,47.38517],[7.87882,47.38351],[7.87944,47.388],[7.87195,47.39125],[7.86914,47.39552],[7.87528,47.3976],[7.87771,47.40126],[7.88345,47.40121],[7.88334,47.4061],[7.89023,47.40714],[7.90084,47.40075],[7.90384,47.40247],[7.90862,47.39884],[7.90971,47.39853]]]}},{"type":"Feature","properties":{"name":"Witterswil","cantonId":"solothurn","municipalityId":"witterswil-2481"},"geometry":{"type":"Polygon","coordinates":[[[7.5145,47.48335],[7.51907,47.49695],[7.53179,47.4974],[7.53261,47.49097],[7.53624,47.49106],[7.5367,47.48506],[7.53313,47.47829],[7.52083,47.47971],[7.51477,47.48327],[7.5145,47.48335]]]}},{"type":"Feature","properties":{"name":"Wolfwil","cantonId":"solothurn","municipalityId":"wolfwil-2408"},"geometry":{"type":"Polygon","coordinates":[[[7.81417,47.27994],[7.82814,47.26643],[7.81478,47.26131],[7.80705,47.26326],[7.80525,47.26801],[7.80215,47.26828],[7.78615,47.2561],[7.77581,47.26144],[7.77461,47.26787],[7.76505,47.26699],[7.77147,47.26951],[7.77642,47.27457],[7.80169,47.28222],[7.81301,47.28029],[7.81417,47.27994]]]}},{"type":"Feature","properties":{"name":"Zuchwil","cantonId":"solothurn","municipalityId":"zuchwil-2534"},"geometry":{"type":"Polygon","coordinates":[[[7.57787,47.19324],[7.57546,47.19509],[7.57121,47.19356],[7.57092,47.19647],[7.56785,47.19818],[7.55831,47.20012],[7.55435,47.19622],[7.54798,47.1971],[7.54744,47.19919],[7.54956,47.19972],[7.54496,47.20205],[7.55482,47.21604],[7.57073,47.21913],[7.57962,47.1998],[7.57823,47.19352],[7.57787,47.19324]]]}},{"type":"Feature","properties":{"name":"Zullwil","cantonId":"solothurn","municipalityId":"zullwil-2622"},"geometry":{"type":"Polygon","coordinates":[[[7.59014,47.39517],[7.58609,47.40242],[7.58953,47.4046],[7.5943,47.39969],[7.59861,47.40096],[7.60512,47.39766],[7.61186,47.38957],[7.61444,47.38565],[7.61392,47.38208],[7.61952,47.37638],[7.61472,47.37131],[7.60161,47.37741],[7.60193,47.38],[7.59217,47.39252],[7.59014,47.39517]]]}}]}
