{"type":"FeatureCollection","features":[{"type":"Feature","properties":{"name":"Altstätten","cantonId":"st-gallen","municipalityId":"altstaetten-3251"},"geometry":{"type":"MultiPolygon","coordinates":[[[[9.50793,47.39296],[9.54258,47.40026],[9.54536,47.39846],[9.54318,47.395],[9.5476,47.39317],[9.5558,47.39648],[9.56047,47.39344],[9.55953,47.39115],[9.5711,47.38635],[9.56778,47.383],[9.57557,47.38205],[9.59004,47.37377],[9.59321,47.36814],[9.58,47.35397],[9.56417,47.34838],[9.56539,47.34522],[9.55482,47.34606],[9.55541,47.34269],[9.54912,47.3413],[9.55185,47.33562],[9.5426,47.32758],[9.5372,47.3272],[9.52232,47.33673],[9.52452,47.33874],[9.52746,47.33726],[9.54057,47.33947],[9.53483,47.3489],[9.52471,47.34968],[9.52838,47.35309],[9.53682,47.35285],[9.5369,47.35619],[9.52598,47.36127],[9.51317,47.35767],[9.5056,47.35247],[9.50146,47.35454],[9.49886,47.36355],[9.50108,47.36813],[9.499,47.36933],[9.50541,47.37446],[9.50303,47.37499],[9.50414,47.38262],[9.50261,47.38403],[9.50704,47.39067],[9.50793,47.39296]]],[[[9.50151,47.30659],[9.50757,47.29953],[9.52439,47.2907],[9.51915,47.27874],[9.53203,47.27661],[9.54344,47.27834],[9.53281,47.2729],[9.53038,47.26947],[9.52035,47.26893],[9.50158,47.27768],[9.49247,47.27873],[9.48395,47.28293],[9.48776,47.28829],[9.48684,47.29071],[9.49069,47.30077],[9.48887,47.3018],[9.50004,47.30826],[9.50149,47.30662],[9.50151,47.30659]]]]}},{"type":"Feature","properties":{"name":"Amden","cantonId":"st-gallen","municipalityId":"amden-3311"},"geometry":{"type":"Polygon","coordinates":[[[9.12283,47.18578],[9.12646,47.18044],[9.12963,47.17983],[9.14822,47.18148],[9.16653,47.18679],[9.20591,47.18129],[9.21067,47.17727],[9.22765,47.18241],[9.23193,47.17408],[9.23798,47.17357],[9.2214,47.16382],[9.21926,47.15937],[9.22458,47.15622],[9.22111,47.15166],[9.22005,47.14546],[9.21035,47.14586],[9.18937,47.13975],[9.19187,47.13533],[9.18988,47.1237],[9.13592,47.13198],[9.11543,47.13275],[9.10793,47.13743],[9.1061,47.14164],[9.10688,47.15507],[9.11397,47.16652],[9.11618,47.17942],[9.12251,47.18574],[9.12283,47.18578]]]}},{"type":"Feature","properties":{"name":"Andwil (SG)","cantonId":"st-gallen","municipalityId":"andwil-sg-3441"},"geometry":{"type":"Polygon","coordinates":[[[9.29706,47.4312],[9.29262,47.42852],[9.28946,47.42969],[9.28781,47.42696],[9.28418,47.42987],[9.27307,47.42904],[9.26784,47.43415],[9.26065,47.43622],[9.26405,47.4391],[9.25975,47.44314],[9.26219,47.44592],[9.26048,47.44866],[9.26415,47.45038],[9.27151,47.4481],[9.27739,47.45264],[9.27756,47.45522],[9.28546,47.45511],[9.2838,47.45323],[9.28926,47.45127],[9.28906,47.44754],[9.30152,47.44154],[9.3006,47.43871],[9.30432,47.43732],[9.29708,47.43125],[9.29706,47.4312]]]}},{"type":"Feature","properties":{"name":"Au (SG)","cantonId":"st-gallen","municipalityId":"au-sg-3231"},"geometry":{"type":"Polygon","coordinates":[[[9.65106,47.41642],[9.63428,47.41739],[9.62821,47.40678],[9.61934,47.40666],[9.62549,47.40949],[9.62484,47.41489],[9.62641,47.41508],[9.62444,47.41761],[9.62793,47.41919],[9.62983,47.4234],[9.62712,47.42394],[9.6305,47.42716],[9.62631,47.42999],[9.62975,47.43305],[9.62788,47.43353],[9.62646,47.43926],[9.65095,47.44274],[9.64429,47.43493],[9.65098,47.417],[9.65106,47.41642]]]}},{"type":"Feature","properties":{"name":"Bad Ragaz","cantonId":"st-gallen","municipalityId":"bad-ragaz-3291"},"geometry":{"type":"Polygon","coordinates":[[[9.39974,46.96742],[9.39781,46.97144],[9.40495,46.97333],[9.40892,46.97715],[9.4339,46.97952],[9.43443,46.98955],[9.43738,46.99389],[9.44634,46.99488],[9.46162,47.0123],[9.472,47.01984],[9.4677,47.02252],[9.47256,47.0268],[9.47032,47.02785],[9.47655,47.02949],[9.48225,47.02604],[9.49169,47.03357],[9.50711,47.01744],[9.51069,47.00914],[9.51864,47.00054],[9.54558,46.97657],[9.54123,46.97429],[9.52375,46.97253],[9.52625,46.97586],[9.5327,46.97747],[9.52971,46.97963],[9.53002,46.9833],[9.51552,46.98928],[9.51384,46.99067],[9.51703,46.99246],[9.51569,46.99448],[9.50191,46.99503],[9.49783,46.9971],[9.48898,46.98936],[9.48447,46.99322],[9.47723,46.98722],[9.46697,46.98513],[9.46304,46.98128],[9.42901,46.97759],[9.43434,46.97112],[9.42588,46.97244],[9.43218,46.96159],[9.43098,46.96079],[9.42539,46.96306],[9.41212,46.96139],[9.40511,46.96418],[9.39974,46.96742]]]}},{"type":"Feature","properties":{"name":"Balgach","cantonId":"st-gallen","municipalityId":"balgach-3232"},"geometry":{"type":"Polygon","coordinates":[[[9.58295,47.4089],[9.60231,47.41411],[9.62525,47.41262],[9.62549,47.40949],[9.61934,47.40666],[9.62666,47.40138],[9.61658,47.39593],[9.62203,47.39218],[9.60875,47.37943],[9.59974,47.3862],[9.60486,47.38863],[9.59899,47.39511],[9.60112,47.39586],[9.5992,47.39798],[9.59718,47.39711],[9.59446,47.40248],[9.58299,47.4088],[9.58295,47.4089]]]}},{"type":"Feature","properties":{"name":"Benken (SG)","cantonId":"st-gallen","municipalityId":"benken-sg-3312"},"geometry":{"type":"Polygon","coordinates":[[[9.00808,47.1722],[8.98242,47.18302],[8.97397,47.18229],[8.97037,47.1788],[8.96199,47.17946],[8.95749,47.19944],[8.96534,47.19816],[8.96922,47.21183],[8.9743,47.2128],[8.9768,47.20891],[8.98343,47.21006],[9.00105,47.20644],[9.00428,47.20804],[9.01691,47.20337],[9.01614,47.20216],[9.0243,47.20376],[9.02741,47.20049],[9.02954,47.2018],[9.03206,47.20007],[9.03163,47.19623],[9.03573,47.19672],[9.02407,47.1828],[9.02657,47.18073],[9.02389,47.17682],[9.00968,47.17246],[9.00808,47.1722]]]}},{"type":"Feature","properties":{"name":"Berg (SG)","cantonId":"st-gallen","municipalityId":"berg-sg-3211"},"geometry":{"type":"MultiPolygon","coordinates":[[[[9.41116,47.47602],[9.40293,47.47496],[9.39939,47.47756],[9.40211,47.48473],[9.40041,47.4861],[9.40359,47.4876],[9.40613,47.4937],[9.40957,47.49338],[9.41354,47.49752],[9.41735,47.49805],[9.42286,47.49574],[9.41582,47.49197],[9.42411,47.48716],[9.42503,47.48442],[9.41294,47.47948],[9.41131,47.47618],[9.41116,47.47602]]],[[[9.37314,47.48531],[9.38083,47.48731],[9.37961,47.48547],[9.39155,47.47886],[9.39184,47.47459],[9.37851,47.48042],[9.37091,47.4783],[9.37302,47.48497],[9.37314,47.48531]]]]}},{"type":"Feature","properties":{"name":"Berneck","cantonId":"st-gallen","municipalityId":"berneck-3233"},"geometry":{"type":"Polygon","coordinates":[[[9.61783,47.43767],[9.62611,47.43898],[9.62975,47.43305],[9.62631,47.42999],[9.6305,47.42716],[9.62712,47.42394],[9.62983,47.4234],[9.62793,47.41919],[9.62444,47.41761],[9.62641,47.41508],[9.62524,47.41268],[9.60481,47.41428],[9.58876,47.42162],[9.58831,47.42548],[9.61796,47.43734],[9.61783,47.43767]]]}},{"type":"Feature","properties":{"name":"Buchs (SG)","cantonId":"st-gallen","municipalityId":"buchs-sg-3271"},"geometry":{"type":"Polygon","coordinates":[[[9.50266,47.14688],[9.46919,47.14434],[9.46673,47.14849],[9.47201,47.15571],[9.4694,47.15625],[9.46009,47.1511],[9.44935,47.15153],[9.44831,47.14879],[9.44333,47.14759],[9.44032,47.14427],[9.43324,47.14562],[9.39779,47.13703],[9.40068,47.14635],[9.4124,47.14828],[9.42135,47.15262],[9.43637,47.15447],[9.43658,47.15648],[9.44403,47.15981],[9.46141,47.16489],[9.46674,47.17249],[9.46563,47.17406],[9.47688,47.19461],[9.47925,47.20304],[9.49051,47.19794],[9.48599,47.18052],[9.49131,47.16297],[9.50118,47.14827],[9.50266,47.14688]]]}},{"type":"Feature","properties":{"name":"Bütschwil-Ganterschwil","cantonId":"st-gallen","municipalityId":"buetschwil-ganterschwil-3395"},"geometry":{"type":"Polygon","coordinates":[[[9.06286,47.38504],[9.06618,47.38315],[9.07428,47.38368],[9.07891,47.38671],[9.07818,47.39049],[9.08346,47.39082],[9.08418,47.39388],[9.09163,47.39224],[9.09107,47.38688],[9.11357,47.38282],[9.1153,47.38142],[9.11398,47.3797],[9.11738,47.37753],[9.12595,47.37804],[9.11797,47.36881],[9.11298,47.36942],[9.10819,47.37379],[9.10319,47.36695],[9.10719,47.3609],[9.09438,47.35712],[9.09763,47.35429],[9.08899,47.35413],[9.09091,47.35051],[9.08617,47.3505],[9.08778,47.34752],[9.08592,47.34536],[9.08624,47.33781],[9.09227,47.33797],[9.09487,47.33453],[9.09036,47.33325],[9.08326,47.33501],[9.07967,47.33074],[9.06116,47.32712],[9.05934,47.3238],[9.05677,47.32593],[9.05337,47.32526],[9.0485,47.33042],[9.05637,47.33361],[9.05543,47.33815],[9.04548,47.33948],[9.04196,47.34412],[9.04707,47.34574],[9.04831,47.3493],[9.06138,47.35431],[9.05765,47.36015],[9.06239,47.36386],[9.05816,47.36876],[9.0587,47.37732],[9.05548,47.38087],[9.06125,47.38467],[9.06286,47.38504]]]}},{"type":"Feature","properties":{"name":"Degersheim","cantonId":"st-gallen","municipalityId":"degersheim-3401"},"geometry":{"type":"MultiPolygon","coordinates":[[[[9.15213,47.3933],[9.14427,47.39945],[9.14638,47.40046],[9.14226,47.40265],[9.14298,47.40717],[9.14985,47.40581],[9.16091,47.41029],[9.16295,47.40759],[9.16694,47.40843],[9.16733,47.40642],[9.18234,47.40534],[9.17925,47.40126],[9.19137,47.39724],[9.18722,47.39328],[9.18945,47.39206],[9.19439,47.39145],[9.19689,47.39348],[9.19874,47.39109],[9.20796,47.39157],[9.21901,47.3875],[9.21813,47.38442],[9.22201,47.37829],[9.21979,47.37678],[9.221,47.37325],[9.21323,47.36823],[9.2139,47.36652],[9.21017,47.36305],[9.19913,47.36144],[9.1877,47.36481],[9.18936,47.3663],[9.18675,47.3687],[9.18817,47.37015],[9.18429,47.37391],[9.18462,47.37759],[9.18165,47.38142],[9.18394,47.38399],[9.17314,47.38603],[9.17247,47.38439],[9.16393,47.38411],[9.15915,47.38771],[9.16075,47.39335],[9.15203,47.39341],[9.15213,47.3933]]],[[[9.19865,47.34778],[9.19104,47.35176],[9.20508,47.35746],[9.20735,47.35568],[9.19874,47.34805],[9.19865,47.34778]]]]}},{"type":"Feature","properties":{"name":"Diepoldsau","cantonId":"st-gallen","municipalityId":"diepoldsau-3234"},"geometry":{"type":"Polygon","coordinates":[[[9.62594,47.40099],[9.63362,47.39717],[9.62948,47.3925],[9.63895,47.38937],[9.64384,47.39732],[9.64972,47.39851],[9.65162,47.40462],[9.65438,47.4044],[9.66009,47.39754],[9.67246,47.39262],[9.67409,47.39015],[9.67336,47.38151],[9.66241,47.37108],[9.65387,47.36808],[9.62628,47.36508],[9.62446,47.36614],[9.63601,47.37601],[9.61913,47.38],[9.62203,47.39218],[9.61658,47.39593],[9.62594,47.40099]]]}},{"type":"Feature","properties":{"name":"Ebnat-Kappel","cantonId":"st-gallen","municipalityId":"ebnat-kappel-3352"},"geometry":{"type":"Polygon","coordinates":[[[9.1053,47.21109],[9.10665,47.21504],[9.10436,47.21688],[9.10784,47.22095],[9.10315,47.22492],[9.10423,47.22947],[9.10228,47.23537],[9.08683,47.23965],[9.08669,47.24517],[9.0738,47.24941],[9.08122,47.25204],[9.08166,47.25822],[9.09756,47.26296],[9.09562,47.26482],[9.10726,47.27369],[9.10257,47.27788],[9.11335,47.27686],[9.11973,47.27953],[9.13167,47.27952],[9.13165,47.28348],[9.13631,47.28368],[9.14822,47.28089],[9.15279,47.28262],[9.15778,47.27697],[9.19044,47.27925],[9.18938,47.27349],[9.19133,47.26966],[9.1737,47.26461],[9.17591,47.2627],[9.16445,47.25231],[9.16625,47.24906],[9.16079,47.2481],[9.15721,47.24146],[9.15037,47.23851],[9.15105,47.23336],[9.14454,47.23164],[9.14668,47.22921],[9.14408,47.22158],[9.14889,47.21979],[9.14792,47.21706],[9.14969,47.21841],[9.15133,47.21367],[9.14839,47.20865],[9.14028,47.2032],[9.13905,47.19457],[9.13436,47.18991],[9.12283,47.18578],[9.12142,47.19027],[9.11436,47.19792],[9.11336,47.20322],[9.1107,47.20416],[9.10857,47.21011],[9.10554,47.21087],[9.1053,47.21109]]]}},{"type":"Feature","properties":{"name":"Eggersriet","cantonId":"st-gallen","municipalityId":"eggersriet-3212"},"geometry":{"type":"Polygon","coordinates":[[[9.52635,47.45991],[9.53052,47.45345],[9.50839,47.44922],[9.4951,47.4423],[9.47021,47.43882],[9.45264,47.4311],[9.43099,47.43626],[9.42984,47.44037],[9.44103,47.4416],[9.45433,47.44638],[9.47802,47.44855],[9.4832,47.45059],[9.48189,47.45186],[9.48911,47.45339],[9.49664,47.45137],[9.50001,47.45666],[9.52174,47.46605],[9.52997,47.46511],[9.52606,47.46024],[9.52635,47.45991]]]}},{"type":"Feature","properties":{"name":"Eichberg","cantonId":"st-gallen","municipalityId":"eichberg-3252"},"geometry":{"type":"Polygon","coordinates":[[[9.5241,47.33798],[9.51839,47.33851],[9.51438,47.33617],[9.50851,47.33865],[9.50277,47.33722],[9.50219,47.35439],[9.5056,47.35247],[9.51317,47.35767],[9.52598,47.36127],[9.5369,47.35619],[9.53682,47.35285],[9.52838,47.35309],[9.52471,47.34968],[9.53483,47.3489],[9.54057,47.33947],[9.52416,47.33805],[9.5241,47.33798]]]}},{"type":"Feature","properties":{"name":"Eschenbach (SG)","cantonId":"st-gallen","municipalityId":"eschenbach-sg-3342"},"geometry":{"type":"Polygon","coordinates":[[[8.97501,47.30712],[8.98425,47.31883],[8.98765,47.31937],[8.99265,47.31774],[9.00106,47.31041],[9.00139,47.30543],[9.00413,47.30259],[9.00935,47.29955],[9.02037,47.29809],[9.0266,47.28991],[9.03807,47.28646],[9.03815,47.28487],[9.04794,47.28608],[9.04793,47.27962],[9.04114,47.27405],[9.03959,47.26952],[9.04208,47.26691],[9.02793,47.26739],[9.01368,47.26386],[9.00929,47.2653],[9.00295,47.25953],[8.99278,47.25481],[8.9986,47.25083],[8.98386,47.24516],[8.98053,47.24105],[8.95874,47.23511],[8.94233,47.23353],[8.94136,47.23166],[8.93506,47.23281],[8.91772,47.22911],[8.91614,47.23223],[8.9118,47.23205],[8.91231,47.23408],[8.89017,47.24185],[8.88114,47.24275],[8.87547,47.24096],[8.87433,47.24381],[8.87018,47.24531],[8.87377,47.24766],[8.8735,47.25199],[8.9083,47.25674],[8.90919,47.25447],[8.93586,47.26035],[8.9403,47.26735],[8.94446,47.2695],[8.94091,47.27166],[8.94715,47.27494],[8.94883,47.28094],[8.94563,47.28204],[8.94144,47.27987],[8.94058,47.28436],[8.93372,47.28831],[8.94891,47.29217],[8.95697,47.30448],[8.97496,47.30702],[8.97501,47.30712]]]}},{"type":"Feature","properties":{"name":"Flawil","cantonId":"st-gallen","municipalityId":"flawil-3402"},"geometry":{"type":"Polygon","coordinates":[[[9.15613,47.40928],[9.16466,47.41324],[9.16753,47.41824],[9.17942,47.42095],[9.17991,47.4239],[9.18389,47.42488],[9.18457,47.42846],[9.19343,47.42598],[9.19069,47.42363],[9.19452,47.42288],[9.19909,47.4142],[9.20335,47.41466],[9.21137,47.41065],[9.21499,47.41222],[9.22,47.40153],[9.23261,47.39874],[9.2305,47.39702],[9.23259,47.39452],[9.23183,47.38777],[9.22307,47.38764],[9.21813,47.38442],[9.21901,47.3875],[9.20796,47.39157],[9.19874,47.39109],[9.19689,47.39348],[9.19439,47.39145],[9.18945,47.39206],[9.18722,47.39328],[9.19137,47.39724],[9.17925,47.40126],[9.18234,47.40534],[9.16733,47.40642],[9.16694,47.40843],[9.16295,47.40759],[9.16091,47.41029],[9.15626,47.40925],[9.15613,47.40928]]]}},{"type":"Feature","properties":{"name":"Flums","cantonId":"st-gallen","municipalityId":"flums-3292"},"geometry":{"type":"Polygon","coordinates":[[[9.40209,47.08138],[9.39063,47.07245],[9.38135,47.0724],[9.37058,47.0682],[9.36357,47.06889],[9.35988,47.06425],[9.35049,47.06095],[9.33911,47.0498],[9.33562,47.04965],[9.33053,47.05367],[9.31704,47.0523],[9.30168,47.04244],[9.30149,47.03792],[9.29531,47.03004],[9.29895,47.02272],[9.29485,47.01285],[9.28216,47.01116],[9.27683,47.00507],[9.25969,47.00617],[9.24799,47.00043],[9.24282,47.00726],[9.24107,47.01778],[9.23636,47.02398],[9.23005,47.02582],[9.21961,47.03334],[9.2182,47.04347],[9.21433,47.04632],[9.2228,47.05228],[9.22132,47.05585],[9.22387,47.06115],[9.2364,47.06619],[9.25388,47.06968],[9.25833,47.06857],[9.26565,47.0713],[9.27333,47.08338],[9.28151,47.08824],[9.28185,47.09265],[9.28868,47.09505],[9.29265,47.09901],[9.29196,47.1029],[9.298,47.1055],[9.30383,47.10556],[9.30872,47.10225],[9.32863,47.10498],[9.34278,47.09946],[9.35895,47.09997],[9.37499,47.08758],[9.38174,47.09142],[9.38542,47.09762],[9.39375,47.08963],[9.39596,47.08993],[9.39634,47.08627],[9.40263,47.08175],[9.40209,47.08138]]]}},{"type":"Feature","properties":{"name":"Gaiserwald","cantonId":"st-gallen","municipalityId":"gaiserwald-3442"},"geometry":{"type":"Polygon","coordinates":[[[9.29706,47.4312],[9.30811,47.43025],[9.30619,47.43174],[9.30711,47.43408],[9.30895,47.43359],[9.30957,47.43756],[9.31441,47.43849],[9.30993,47.44215],[9.31713,47.44225],[9.31633,47.4457],[9.32119,47.44613],[9.32135,47.44957],[9.32829,47.44989],[9.33215,47.45335],[9.34297,47.45027],[9.35415,47.45493],[9.35866,47.45445],[9.36053,47.45157],[9.36403,47.45236],[9.36079,47.44826],[9.36234,47.4441],[9.35874,47.44348],[9.35781,47.43948],[9.36126,47.43424],[9.35378,47.4289],[9.34245,47.42433],[9.33885,47.42523],[9.32557,47.418],[9.30872,47.41395],[9.30349,47.41617],[9.30804,47.42042],[9.30594,47.4218],[9.30672,47.42434],[9.29646,47.42572],[9.29683,47.43107],[9.29706,47.4312]]]}},{"type":"Feature","properties":{"name":"Gams","cantonId":"st-gallen","municipalityId":"gams-3272"},"geometry":{"type":"Polygon","coordinates":[[[9.47652,47.197],[9.43017,47.19325],[9.42172,47.19419],[9.42046,47.1963],[9.40402,47.19419],[9.38888,47.19636],[9.38776,47.19747],[9.3914,47.20189],[9.39365,47.20132],[9.39275,47.20359],[9.39765,47.20926],[9.39229,47.20847],[9.39387,47.2105],[9.38949,47.22553],[9.40954,47.23638],[9.43482,47.22897],[9.44365,47.22372],[9.44793,47.21745],[9.48681,47.21452],[9.47655,47.19745],[9.47652,47.197]]]}},{"type":"Feature","properties":{"name":"Goldach","cantonId":"st-gallen","municipalityId":"goldach-3213"},"geometry":{"type":"Polygon","coordinates":[[[9.45285,47.47137],[9.46187,47.48284],[9.47778,47.48987],[9.47721,47.48569],[9.48263,47.48101],[9.47891,47.47702],[9.48325,47.47457],[9.4807,47.46421],[9.47798,47.46206],[9.47222,47.46197],[9.46506,47.46567],[9.45673,47.46277],[9.45435,47.46525],[9.44603,47.46342],[9.44359,47.46588],[9.4527,47.47119],[9.45285,47.47137]]]}},{"type":"Feature","properties":{"name":"Gommiswald","cantonId":"st-gallen","municipalityId":"gommiswald-3341"},"geometry":{"type":"Polygon","coordinates":[[[9.1053,47.21109],[9.10287,47.20919],[9.10055,47.21214],[9.08369,47.20922],[9.07565,47.21374],[9.07041,47.22047],[9.06546,47.22199],[9.04751,47.21489],[9.04112,47.22096],[9.0454,47.22754],[9.0397,47.2311],[9.02873,47.22854],[9.03205,47.22255],[9.02843,47.2223],[9.01832,47.22662],[9.00709,47.22696],[8.99771,47.23405],[8.98438,47.23423],[8.98648,47.23546],[8.98476,47.23748],[8.98643,47.24033],[8.98051,47.24107],[8.98386,47.24516],[8.9986,47.25083],[8.99278,47.25481],[9.00295,47.25953],[9.00929,47.2653],[9.01368,47.26386],[9.02793,47.26739],[9.04204,47.26688],[9.0459,47.26308],[9.04951,47.26326],[9.05032,47.26029],[9.07077,47.25263],[9.07548,47.24794],[9.08669,47.24517],[9.08683,47.23965],[9.10228,47.23537],[9.10423,47.22947],[9.10315,47.22492],[9.10784,47.22095],[9.10436,47.21688],[9.10665,47.21504],[9.10526,47.2115],[9.1053,47.21109]]]}},{"type":"Feature","properties":{"name":"Gossau (SG)","cantonId":"st-gallen","municipalityId":"gossau-sg-3443"},"geometry":{"type":"Polygon","coordinates":[[[9.30594,47.4218],[9.29606,47.41858],[9.29767,47.4082],[9.29451,47.40857],[9.29152,47.40405],[9.2968,47.39936],[9.29421,47.39698],[9.26474,47.40125],[9.25755,47.39873],[9.25605,47.40086],[9.2519,47.40071],[9.23322,47.39594],[9.23261,47.39874],[9.22253,47.39984],[9.21763,47.40447],[9.21817,47.40789],[9.21529,47.41207],[9.22046,47.4155],[9.21593,47.41718],[9.21615,47.42306],[9.21881,47.42587],[9.21552,47.42805],[9.21531,47.43208],[9.21246,47.43289],[9.21492,47.43515],[9.21304,47.43606],[9.21461,47.4394],[9.22055,47.43938],[9.22202,47.44117],[9.21968,47.44369],[9.22432,47.44649],[9.23383,47.44208],[9.24084,47.44146],[9.24206,47.44908],[9.24693,47.45385],[9.25737,47.45467],[9.25796,47.45191],[9.26345,47.4503],[9.26048,47.44866],[9.26219,47.44592],[9.25975,47.44314],[9.26405,47.4391],[9.26068,47.43619],[9.26784,47.43415],[9.27307,47.42904],[9.28418,47.42987],[9.28711,47.42699],[9.28946,47.42969],[9.29262,47.42852],[9.29681,47.43105],[9.29646,47.42572],[9.30406,47.4258],[9.30672,47.42434],[9.30603,47.42189],[9.30594,47.4218]]]}},{"type":"Feature","properties":{"name":"Grabs","cantonId":"st-gallen","municipalityId":"grabs-3273"},"geometry":{"type":"Polygon","coordinates":[[[9.32803,47.14616],[9.32936,47.14738],[9.3241,47.14836],[9.31762,47.15484],[9.32257,47.16445],[9.32241,47.16873],[9.33104,47.17027],[9.33265,47.17609],[9.35026,47.18556],[9.36252,47.18893],[9.37574,47.18868],[9.38069,47.19549],[9.38578,47.19819],[9.4035,47.19423],[9.42032,47.19631],[9.42172,47.19419],[9.43017,47.19325],[9.47652,47.197],[9.46563,47.17406],[9.46674,47.17249],[9.46141,47.16489],[9.44403,47.15981],[9.43658,47.15648],[9.43637,47.15447],[9.42135,47.15262],[9.4124,47.14828],[9.40068,47.14635],[9.39795,47.13576],[9.39366,47.13053],[9.38751,47.13075],[9.38307,47.13569],[9.35668,47.13348],[9.35271,47.1352],[9.35064,47.13822],[9.35222,47.1419],[9.34849,47.14474],[9.32874,47.14625],[9.32803,47.14616]]]}},{"type":"Feature","properties":{"name":"Häggenschwil","cantonId":"st-gallen","municipalityId":"haeggenschwil-3201"},"geometry":{"type":"MultiPolygon","coordinates":[[[[9.36862,47.49277],[9.36237,47.49565],[9.35552,47.49382],[9.35733,47.49197],[9.3532,47.49256],[9.36788,47.48746],[9.36516,47.48457],[9.35445,47.48802],[9.35633,47.48706],[9.35401,47.4855],[9.35593,47.48359],[9.34843,47.47855],[9.34968,47.47567],[9.34716,47.47525],[9.34295,47.48128],[9.33714,47.48022],[9.32585,47.48658],[9.32029,47.48576],[9.32148,47.48944],[9.31822,47.49979],[9.31527,47.50081],[9.30824,47.49793],[9.30807,47.50478],[9.31016,47.50764],[9.31863,47.50857],[9.33126,47.50133],[9.33542,47.51064],[9.33905,47.51159],[9.33706,47.50119],[9.34181,47.50372],[9.34951,47.50137],[9.35591,47.50087],[9.35694,47.50341],[9.37221,47.50088],[9.37447,47.49966],[9.37408,47.49536],[9.36886,47.49301],[9.36862,47.49277]]],[[[9.35386,47.51181],[9.3591,47.51053],[9.35812,47.50814],[9.35394,47.51175],[9.35386,47.51181]]],[[[9.36981,47.48887],[9.36847,47.49207],[9.37279,47.49046],[9.37047,47.48916],[9.36981,47.48887]]]]}},{"type":"Feature","properties":{"name":"Jonschwil","cantonId":"st-gallen","municipalityId":"jonschwil-3405"},"geometry":{"type":"Polygon","coordinates":[[[9.05433,47.4432],[9.05896,47.44318],[9.05705,47.44563],[9.06343,47.44624],[9.06887,47.45009],[9.0714,47.4463],[9.07949,47.44942],[9.09498,47.43893],[9.10546,47.43689],[9.09844,47.42833],[9.10309,47.42922],[9.10313,47.42769],[9.11252,47.42654],[9.11009,47.42397],[9.11471,47.42077],[9.11193,47.41663],[9.11873,47.41324],[9.11575,47.4114],[9.12231,47.41209],[9.12024,47.40929],[9.12171,47.40608],[9.11819,47.40775],[9.10857,47.40527],[9.10269,47.40593],[9.10679,47.41121],[9.10371,47.41023],[9.10361,47.41279],[9.09969,47.41397],[9.09397,47.41191],[9.08678,47.41311],[9.08525,47.41548],[9.08187,47.41351],[9.0841,47.41156],[9.07771,47.41233],[9.07543,47.41883],[9.07917,47.41852],[9.08269,47.42121],[9.07398,47.42541],[9.0749,47.43072],[9.06279,47.43237],[9.05431,47.44239],[9.05433,47.4432]]]}},{"type":"Feature","properties":{"name":"Kaltbrunn","cantonId":"st-gallen","municipalityId":"kaltbrunn-3313"},"geometry":{"type":"Polygon","coordinates":[[[9.1053,47.21109],[9.10857,47.21011],[9.11463,47.19939],[9.11121,47.19644],[9.10932,47.18972],[9.09603,47.18511],[9.0948,47.18868],[9.08103,47.20042],[9.07772,47.20621],[9.06773,47.2102],[9.06372,47.21104],[9.0466,47.19866],[9.04321,47.2024],[9.03916,47.19813],[9.03163,47.19623],[9.03206,47.20007],[9.02954,47.2018],[9.02741,47.20049],[9.0243,47.20376],[9.01614,47.20216],[9.01691,47.20337],[9.00428,47.20804],[8.99611,47.20708],[8.98343,47.21006],[8.98125,47.21238],[8.99355,47.21773],[8.99625,47.21593],[9.00108,47.2194],[8.99954,47.22131],[9.00088,47.22272],[9.00588,47.22226],[9.00694,47.22677],[9.00974,47.22801],[9.03158,47.22237],[9.02873,47.22854],[9.0397,47.2311],[9.0454,47.22754],[9.04112,47.22096],[9.04751,47.21489],[9.06546,47.22199],[9.07041,47.22047],[9.07565,47.21374],[9.08369,47.20922],[9.10055,47.21214],[9.10287,47.20919],[9.10486,47.21068],[9.1053,47.21109]]]}},{"type":"Feature","properties":{"name":"Kirchberg (SG)","cantonId":"st-gallen","municipalityId":"kirchberg-sg-3392"},"geometry":{"type":"Polygon","coordinates":[[[9.05433,47.4432],[9.06279,47.43237],[9.0749,47.43072],[9.07398,47.42541],[9.08269,47.42121],[9.07917,47.41852],[9.07543,47.41883],[9.07828,47.41059],[9.07206,47.40547],[9.07623,47.40087],[9.07097,47.39798],[9.07167,47.39616],[9.0645,47.39322],[9.06501,47.39118],[9.05436,47.38655],[9.05178,47.38124],[9.04782,47.38336],[9.03801,47.38215],[9.03839,47.38026],[9.0348,47.3776],[9.02369,47.37842],[9.02072,47.38031],[9.02128,47.38332],[9.01888,47.38377],[9.02204,47.38569],[9.01234,47.38625],[9.00743,47.38285],[9.00484,47.38344],[9.00163,47.3781],[8.99304,47.37473],[8.98215,47.37629],[8.97441,47.38047],[8.97577,47.38291],[8.97149,47.39125],[8.9757,47.39933],[8.97217,47.40432],[8.97658,47.41067],[8.9818,47.41249],[8.98873,47.41126],[8.99116,47.4209],[8.99425,47.42233],[8.98946,47.42497],[8.99082,47.42811],[8.98748,47.42971],[8.99986,47.43214],[8.99918,47.43509],[9.01012,47.43528],[9.01198,47.43346],[9.01875,47.43677],[9.02134,47.44154],[9.02648,47.43723],[9.03502,47.43925],[9.03682,47.43756],[9.03402,47.43548],[9.03832,47.43712],[9.03663,47.4395],[9.0381,47.44145],[9.04285,47.44015],[9.04747,47.44423],[9.05387,47.44322],[9.05433,47.4432]]]}},{"type":"Feature","properties":{"name":"Lichtensteig","cantonId":"st-gallen","municipalityId":"lichtensteig-3374"},"geometry":{"type":"Polygon","coordinates":[[[9.09091,47.33333],[9.10201,47.32958],[9.10098,47.3285],[9.1062,47.32838],[9.1034,47.32611],[9.1077,47.32542],[9.11063,47.32104],[9.11745,47.31772],[9.11212,47.31605],[9.10347,47.31738],[9.09701,47.31327],[9.09493,47.31455],[9.09836,47.3171],[9.09482,47.3223],[9.08691,47.32117],[9.08158,47.32422],[9.08444,47.32584],[9.08178,47.3273],[9.0814,47.33349],[9.08424,47.33522],[9.09077,47.33332],[9.09091,47.33333]]]}},{"type":"Feature","properties":{"name":"Lütisburg","cantonId":"st-gallen","municipalityId":"luetisburg-3393"},"geometry":{"type":"Polygon","coordinates":[[[9.06286,47.38504],[9.05984,47.38735],[9.06513,47.38883],[9.0645,47.39322],[9.07167,47.39616],[9.07097,47.39798],[9.07623,47.40087],[9.07227,47.40612],[9.07807,47.41035],[9.07771,47.41233],[9.0841,47.41156],[9.08187,47.41351],[9.08421,47.41538],[9.09397,47.41191],[9.09969,47.41397],[9.10338,47.41298],[9.10371,47.41023],[9.10684,47.41097],[9.10269,47.40593],[9.11843,47.40775],[9.1236,47.4038],[9.13314,47.4042],[9.13812,47.39995],[9.14617,47.40082],[9.14427,47.39945],[9.15194,47.39364],[9.1507,47.39095],[9.14432,47.38747],[9.13495,47.39313],[9.12798,47.39131],[9.12589,47.38714],[9.12943,47.38209],[9.12709,47.37907],[9.12928,47.37807],[9.12728,47.37734],[9.11738,47.37753],[9.11398,47.3797],[9.1153,47.38142],[9.11357,47.38282],[9.09107,47.38688],[9.09163,47.39224],[9.08418,47.39388],[9.08346,47.39082],[9.07818,47.39049],[9.0791,47.38705],[9.07464,47.38383],[9.06618,47.38315],[9.06292,47.38499],[9.06286,47.38504]]]}},{"type":"Feature","properties":{"name":"Marbach (SG)","cantonId":"st-gallen","municipalityId":"marbach-sg-3253"},"geometry":{"type":"Polygon","coordinates":[[[9.55529,47.39643],[9.56696,47.4005],[9.59015,47.39052],[9.59276,47.38683],[9.59011,47.38556],[9.59246,47.38111],[9.59088,47.38001],[9.60328,47.37434],[9.60161,47.37269],[9.59782,47.37384],[9.59292,47.36815],[9.59004,47.37377],[9.57557,47.38205],[9.56778,47.383],[9.5711,47.38635],[9.55953,47.39115],[9.56026,47.39371],[9.55533,47.39642],[9.55529,47.39643]]]}},{"type":"Feature","properties":{"name":"Mels","cantonId":"st-gallen","municipalityId":"mels-3293"},"geometry":{"type":"Polygon","coordinates":[[[9.40209,47.08138],[9.4035,47.07912],[9.4146,47.08034],[9.43008,47.06515],[9.41854,47.06164],[9.41939,47.0566],[9.43372,47.04518],[9.43696,47.04481],[9.43508,47.0437],[9.43833,47.04144],[9.44788,47.04236],[9.45257,47.03988],[9.46203,47.04243],[9.46232,47.04736],[9.4662,47.04671],[9.46794,47.05099],[9.47044,47.05115],[9.4733,47.04691],[9.47725,47.04905],[9.48524,47.0403],[9.47414,47.03472],[9.46614,47.03429],[9.46283,47.03122],[9.45588,47.03604],[9.4374,47.04009],[9.43515,47.03784],[9.42643,47.03801],[9.41458,47.02495],[9.41209,47.02916],[9.40165,47.03076],[9.39501,47.02254],[9.3935,47.01731],[9.38247,47.01188],[9.3773,47.00507],[9.38112,46.99245],[9.38986,46.98772],[9.39953,46.97729],[9.39758,46.97182],[9.39993,46.96866],[9.39541,46.96051],[9.38054,46.95598],[9.37737,46.95123],[9.37695,46.94473],[9.36849,46.94159],[9.35762,46.94507],[9.35243,46.94263],[9.34031,46.94281],[9.31966,46.94973],[9.31609,46.94667],[9.30966,46.94808],[9.29706,46.94116],[9.28495,46.94036],[9.26924,46.92949],[9.25259,46.92703],[9.25026,46.93463],[9.23914,46.93938],[9.23631,46.94485],[9.23676,46.95456],[9.24471,46.95646],[9.24607,46.95874],[9.24274,46.96579],[9.24681,46.97564],[9.24364,46.98237],[9.24658,46.98703],[9.24537,46.99157],[9.24988,46.99521],[9.24799,47.00043],[9.25969,47.00617],[9.27683,47.00507],[9.28216,47.01116],[9.29485,47.01285],[9.29895,47.02272],[9.29531,47.03004],[9.30538,47.04596],[9.32102,47.05362],[9.33053,47.05367],[9.33562,47.04965],[9.33911,47.0498],[9.35049,47.06095],[9.35988,47.06425],[9.36357,47.06889],[9.37058,47.0682],[9.38135,47.0724],[9.38742,47.07161],[9.3961,47.07656],[9.40209,47.08138]]]}},{"type":"Feature","properties":{"name":"Mörschwil","cantonId":"st-gallen","municipalityId":"moerschwil-3214"},"geometry":{"type":"Polygon","coordinates":[[[9.41116,47.47602],[9.41294,47.47948],[9.4239,47.4842],[9.4284,47.48267],[9.44344,47.48513],[9.44619,47.48331],[9.44518,47.48073],[9.45204,47.47959],[9.44722,47.47377],[9.45303,47.47024],[9.44359,47.46588],[9.43915,47.46043],[9.4395,47.45676],[9.42955,47.45043],[9.42502,47.45286],[9.42092,47.45108],[9.41956,47.4524],[9.41688,47.44941],[9.41313,47.452],[9.40198,47.45229],[9.40377,47.4669],[9.412,47.47215],[9.41113,47.47589],[9.41116,47.47602]]]}},{"type":"Feature","properties":{"name":"Mosnang","cantonId":"st-gallen","municipalityId":"mosnang-3394"},"geometry":{"type":"Polygon","coordinates":[[[9.06286,47.38504],[9.05548,47.38087],[9.0587,47.37732],[9.05816,47.36876],[9.06239,47.36386],[9.05765,47.36015],[9.06138,47.35431],[9.04831,47.3493],[9.04707,47.34574],[9.04196,47.34412],[9.04548,47.33948],[9.04848,47.33957],[9.04603,47.33667],[9.05185,47.33617],[9.04719,47.33087],[9.03687,47.32779],[9.04388,47.32521],[9.04354,47.3236],[9.03796,47.32084],[9.03531,47.32219],[9.03528,47.3201],[9.03284,47.31975],[9.0353,47.30992],[9.02939,47.30346],[9.02037,47.29809],[9.00935,47.29955],[9.00144,47.30534],[9.00106,47.31041],[8.99265,47.31774],[8.98495,47.31939],[8.97967,47.32406],[8.97668,47.32929],[8.97929,47.33795],[8.97311,47.33987],[8.97442,47.34738],[8.97181,47.35253],[8.96026,47.35369],[8.95123,47.37172],[8.94358,47.37584],[8.94487,47.37814],[8.95493,47.38148],[8.95745,47.38643],[8.96526,47.38494],[8.96878,47.39157],[8.97177,47.3909],[8.97289,47.38551],[8.97577,47.38291],[8.97441,47.38047],[8.97681,47.37867],[8.99304,47.37473],[9.00163,47.3781],[9.00484,47.38344],[9.00743,47.38285],[9.01234,47.38625],[9.02178,47.38582],[9.01888,47.38377],[9.02128,47.38332],[9.02072,47.38031],[9.03172,47.37762],[9.0348,47.3776],[9.03839,47.38026],[9.03801,47.38215],[9.04782,47.38336],[9.05214,47.38137],[9.05436,47.38655],[9.06096,47.39053],[9.06566,47.3907],[9.06286,47.38719],[9.05984,47.38735],[9.06253,47.38547],[9.06286,47.38504]]]}},{"type":"Feature","properties":{"name":"Muolen","cantonId":"st-gallen","municipalityId":"muolen-3202"},"geometry":{"type":"Polygon","coordinates":[[[9.317,47.50864],[9.30336,47.51566],[9.30259,47.51234],[9.29157,47.50666],[9.27452,47.5068],[9.26877,47.51167],[9.27539,47.51315],[9.28037,47.51008],[9.27948,47.51397],[9.28267,47.51465],[9.28483,47.51851],[9.2823,47.52068],[9.30137,47.52412],[9.30276,47.52643],[9.31276,47.52212],[9.31234,47.52756],[9.31661,47.52869],[9.31534,47.53027],[9.31849,47.5317],[9.32293,47.53192],[9.32414,47.52928],[9.32876,47.52839],[9.3383,47.52887],[9.33958,47.53145],[9.33899,47.52485],[9.34374,47.52003],[9.35586,47.51985],[9.35584,47.51636],[9.34714,47.51322],[9.34578,47.51184],[9.34815,47.50981],[9.34328,47.50644],[9.3392,47.50693],[9.33905,47.51159],[9.33688,47.51183],[9.33126,47.50133],[9.31798,47.50855],[9.317,47.50864]]]}},{"type":"Feature","properties":{"name":"Neckertal","cantonId":"st-gallen","municipalityId":"neckertal-3396"},"geometry":{"type":"Polygon","coordinates":[[[9.11707,47.31843],[9.11081,47.3209],[9.1077,47.32542],[9.1034,47.32611],[9.1062,47.32838],[9.10098,47.3285],[9.10093,47.33009],[9.09104,47.33315],[9.09487,47.33453],[9.09423,47.33682],[9.08624,47.33781],[9.08592,47.34536],[9.08778,47.34752],[9.08617,47.3505],[9.09091,47.35051],[9.08899,47.35413],[9.09763,47.35429],[9.09438,47.35712],[9.10719,47.3609],[9.10319,47.36695],[9.10819,47.37379],[9.11298,47.36942],[9.11797,47.36881],[9.12577,47.37756],[9.12924,47.37797],[9.12709,47.37907],[9.12943,47.38209],[9.12589,47.38714],[9.12798,47.39131],[9.13495,47.39313],[9.14432,47.38747],[9.14929,47.38946],[9.15212,47.39354],[9.16075,47.39335],[9.15915,47.38771],[9.16393,47.38411],[9.17247,47.38439],[9.17314,47.38603],[9.18394,47.38399],[9.18165,47.38142],[9.18462,47.37759],[9.18429,47.37391],[9.18817,47.37015],[9.18675,47.3687],[9.18936,47.3663],[9.1877,47.36481],[9.19262,47.3616],[9.19611,47.3547],[9.19167,47.35097],[9.20237,47.34541],[9.2064,47.33907],[9.22233,47.34334],[9.23262,47.33388],[9.23272,47.33089],[9.20983,47.3209],[9.21301,47.3197],[9.21776,47.30801],[9.21705,47.29969],[9.22432,47.29287],[9.21711,47.2845],[9.20822,47.28014],[9.20626,47.27639],[9.20134,47.27889],[9.19856,47.27622],[9.19179,47.27615],[9.18826,47.28021],[9.15778,47.27697],[9.15172,47.2826],[9.15296,47.28434],[9.14846,47.28921],[9.14947,47.29185],[9.14455,47.29852],[9.14685,47.30023],[9.14007,47.30408],[9.14223,47.3053],[9.13991,47.30679],[9.14348,47.30827],[9.14054,47.30879],[9.14194,47.31179],[9.13106,47.31298],[9.12356,47.31647],[9.12272,47.31899],[9.11716,47.31874],[9.11707,47.31843]]]}},{"type":"Feature","properties":{"name":"Nesslau","cantonId":"st-gallen","municipalityId":"nesslau-3360"},"geometry":{"type":"Polygon","coordinates":[[[9.12283,47.18578],[9.13436,47.18991],[9.13905,47.19457],[9.14028,47.2032],[9.14977,47.20997],[9.15122,47.21638],[9.14408,47.22158],[9.14668,47.22921],[9.14454,47.23164],[9.15105,47.23336],[9.15037,47.23851],[9.15721,47.24146],[9.16079,47.2481],[9.16625,47.24906],[9.16445,47.25231],[9.17591,47.2627],[9.1737,47.26461],[9.19133,47.26966],[9.19002,47.27662],[9.19856,47.27622],[9.20159,47.27885],[9.21735,47.27067],[9.2388,47.26464],[9.2475,47.26608],[9.25733,47.26322],[9.27378,47.27001],[9.2791,47.26667],[9.27511,47.26574],[9.2841,47.26565],[9.28971,47.26033],[9.29718,47.25741],[9.30798,47.25961],[9.30822,47.25499],[9.31864,47.24788],[9.3238,47.24702],[9.31459,47.2392],[9.31422,47.23434],[9.30611,47.23371],[9.30356,47.22893],[9.29788,47.2261],[9.28956,47.22669],[9.28329,47.22291],[9.25843,47.21843],[9.2597,47.21593],[9.25539,47.21529],[9.2519,47.2077],[9.24533,47.20257],[9.24445,47.19987],[9.24781,47.19968],[9.24943,47.19623],[9.23923,47.191],[9.23667,47.19378],[9.23414,47.1929],[9.23397,47.18976],[9.2371,47.18761],[9.23281,47.18817],[9.23202,47.1854],[9.23366,47.18487],[9.23155,47.18185],[9.2274,47.18241],[9.21067,47.17727],[9.20591,47.18129],[9.16653,47.18679],[9.14822,47.18148],[9.12974,47.17983],[9.12587,47.18141],[9.12283,47.18578]]]}},{"type":"Feature","properties":{"name":"Niederbüren","cantonId":"st-gallen","municipalityId":"niederbueren-3422"},"geometry":{"type":"Polygon","coordinates":[[[9.24545,47.45266],[9.2394,47.44104],[9.22556,47.4449],[9.21939,47.44959],[9.21728,47.44437],[9.21072,47.44501],[9.20468,47.44272],[9.2021,47.44508],[9.19215,47.44556],[9.19228,47.44853],[9.18255,47.45617],[9.18248,47.45912],[9.17828,47.46303],[9.18228,47.46716],[9.20663,47.47746],[9.20854,47.4802],[9.2132,47.47891],[9.21829,47.48381],[9.2289,47.48425],[9.23232,47.48323],[9.23221,47.48105],[9.2371,47.48092],[9.2391,47.47765],[9.23612,47.47401],[9.2435,47.4651],[9.23938,47.45771],[9.24132,47.4536],[9.24515,47.45271],[9.24545,47.45266]]]}},{"type":"Feature","properties":{"name":"Niederhelfenschwil","cantonId":"st-gallen","municipalityId":"niederhelfenschwil-3423"},"geometry":{"type":"Polygon","coordinates":[[[9.12942,47.4845],[9.14203,47.48439],[9.1554,47.48765],[9.1626,47.4965],[9.16073,47.49998],[9.16588,47.50408],[9.16774,47.50129],[9.16915,47.50397],[9.17197,47.50332],[9.16918,47.4983],[9.17372,47.49451],[9.181,47.49737],[9.18287,47.49134],[9.18879,47.4931],[9.19338,47.49122],[9.19307,47.48894],[9.19675,47.49052],[9.2099,47.48932],[9.20641,47.48668],[9.20789,47.48321],[9.20638,47.48247],[9.20985,47.482],[9.20663,47.47746],[9.16852,47.46208],[9.16517,47.46397],[9.16512,47.46712],[9.15861,47.46953],[9.152,47.46878],[9.14998,47.46388],[9.15334,47.45921],[9.14887,47.45733],[9.13937,47.46165],[9.12985,47.46074],[9.11806,47.46516],[9.13356,47.47395],[9.13238,47.47621],[9.13498,47.47787],[9.13281,47.48309],[9.12973,47.48432],[9.12942,47.4845]]]}},{"type":"Feature","properties":{"name":"Oberbüren","cantonId":"st-gallen","municipalityId":"oberbueren-3424"},"geometry":{"type":"Polygon","coordinates":[[[9.11949,47.46482],[9.12985,47.46074],[9.13937,47.46165],[9.14887,47.45733],[9.15334,47.45921],[9.15004,47.46352],[9.15144,47.46837],[9.15861,47.46953],[9.16512,47.46712],[9.16517,47.46397],[9.16852,47.46208],[9.17954,47.46552],[9.17828,47.46303],[9.18248,47.45912],[9.18255,47.45617],[9.19228,47.44853],[9.19215,47.44556],[9.2021,47.44508],[9.20586,47.44275],[9.21072,47.44501],[9.21728,47.44437],[9.21939,47.44959],[9.22315,47.44834],[9.22432,47.44649],[9.21968,47.44369],[9.22199,47.44066],[9.21461,47.4394],[9.21304,47.43606],[9.21492,47.43515],[9.21246,47.43289],[9.21531,47.43208],[9.21552,47.42805],[9.21871,47.42634],[9.21615,47.42306],[9.21593,47.41718],[9.22046,47.4155],[9.21162,47.41063],[9.20335,47.41466],[9.19909,47.4142],[9.19452,47.42288],[9.19069,47.42363],[9.1933,47.42609],[9.17864,47.42932],[9.17598,47.4322],[9.16707,47.43196],[9.16727,47.43471],[9.1614,47.43263],[9.16315,47.43601],[9.15677,47.43774],[9.15876,47.43944],[9.15398,47.4383],[9.15478,47.44366],[9.15219,47.44666],[9.15114,47.45514],[9.12616,47.45676],[9.11928,47.46401],[9.11949,47.46482]]]}},{"type":"Feature","properties":{"name":"Oberriet (SG)","cantonId":"st-gallen","municipalityId":"oberriet-sg-3254"},"geometry":{"type":"Polygon","coordinates":[[[9.56559,47.30412],[9.55454,47.30702],[9.52589,47.30578],[9.51094,47.31047],[9.49626,47.30601],[9.49252,47.3129],[9.49841,47.3187],[9.50277,47.33722],[9.50851,47.33865],[9.51438,47.33617],[9.52283,47.33887],[9.5241,47.33798],[9.52241,47.33663],[9.53348,47.32859],[9.54164,47.32712],[9.55185,47.33562],[9.54912,47.3413],[9.55541,47.34269],[9.55482,47.34606],[9.56539,47.34522],[9.56417,47.34838],[9.58,47.35397],[9.59782,47.37384],[9.60161,47.37269],[9.62166,47.39092],[9.61913,47.38],[9.63601,47.37601],[9.60032,47.34645],[9.58916,47.3189],[9.58365,47.31271],[9.56589,47.30426],[9.56559,47.30412]]]}},{"type":"Feature","properties":{"name":"Oberuzwil","cantonId":"st-gallen","municipalityId":"oberuzwil-3407"},"geometry":{"type":"Polygon","coordinates":[[[9.15613,47.40928],[9.14985,47.40581],[9.14298,47.40717],[9.14343,47.40186],[9.13963,47.39977],[9.13314,47.4042],[9.12324,47.40393],[9.12024,47.40929],[9.12231,47.41209],[9.11575,47.4114],[9.11873,47.41324],[9.11193,47.41663],[9.11471,47.42077],[9.11009,47.42397],[9.11252,47.42654],[9.10313,47.42769],[9.10309,47.42922],[9.09844,47.42833],[9.10497,47.436],[9.11555,47.43691],[9.12056,47.43484],[9.12593,47.43713],[9.1318,47.43177],[9.14202,47.4286],[9.14053,47.42668],[9.15105,47.42405],[9.15541,47.42437],[9.15654,47.42881],[9.14663,47.43025],[9.14767,47.43756],[9.15836,47.43956],[9.15666,47.43791],[9.16025,47.43798],[9.15939,47.43574],[9.16315,47.43601],[9.16116,47.43273],[9.16717,47.43472],[9.16707,47.43196],[9.17603,47.43218],[9.18319,47.42804],[9.18362,47.42452],[9.17991,47.4239],[9.17942,47.42095],[9.16753,47.41824],[9.16466,47.41324],[9.15642,47.40943],[9.15613,47.40928]]]}},{"type":"Feature","properties":{"name":"Pfäfers","cantonId":"st-gallen","municipalityId":"pfaefers-3294"},"geometry":{"type":"Polygon","coordinates":[[[9.34314,46.89828],[9.33868,46.90203],[9.32191,46.9006],[9.30994,46.90576],[9.29331,46.90708],[9.28692,46.90506],[9.2769,46.90735],[9.26693,46.90322],[9.2489,46.91627],[9.25259,46.92703],[9.26924,46.92949],[9.28495,46.94036],[9.29706,46.94116],[9.30966,46.94808],[9.31609,46.94667],[9.31966,46.94973],[9.34031,46.94281],[9.35243,46.94263],[9.35762,46.94507],[9.36964,46.94187],[9.37802,46.94595],[9.37737,46.95123],[9.38054,46.95598],[9.39541,46.96051],[9.39974,46.96742],[9.41212,46.96139],[9.42539,46.96306],[9.43098,46.96079],[9.43218,46.96159],[9.42588,46.97244],[9.43434,46.97112],[9.42901,46.97759],[9.46304,46.98128],[9.46697,46.98513],[9.47723,46.98722],[9.48447,46.99322],[9.48898,46.98936],[9.49783,46.9971],[9.50191,46.99503],[9.51612,46.99427],[9.51703,46.99246],[9.51384,46.99067],[9.52814,46.98469],[9.5327,46.97747],[9.52625,46.97586],[9.5174,46.96839],[9.51826,46.95565],[9.50461,46.95367],[9.50316,46.94947],[9.50021,46.94959],[9.49611,46.94034],[9.49287,46.93921],[9.49372,46.93771],[9.48653,46.93552],[9.48573,46.93038],[9.47779,46.92056],[9.47858,46.91568],[9.488,46.91229],[9.47543,46.90642],[9.46726,46.89988],[9.46975,46.89147],[9.46778,46.88727],[9.45426,46.88605],[9.45579,46.88025],[9.45255,46.87461],[9.44887,46.87288],[9.4331,46.88466],[9.41387,46.89117],[9.39942,46.89213],[9.3817,46.89763],[9.34311,46.89848],[9.34314,46.89828]]]}},{"type":"Feature","properties":{"name":"Quarten","cantonId":"st-gallen","municipalityId":"quarten-3295"},"geometry":{"type":"Polygon","coordinates":[[[9.30213,47.10572],[9.29196,47.1029],[9.29265,47.09901],[9.28185,47.09265],[9.28151,47.08824],[9.27333,47.08338],[9.26565,47.0713],[9.25833,47.06857],[9.25388,47.06968],[9.2364,47.06619],[9.22387,47.06115],[9.22132,47.05585],[9.2228,47.05228],[9.2143,47.04753],[9.2182,47.04347],[9.22002,47.03311],[9.20898,47.03573],[9.20166,47.03512],[9.18053,47.02592],[9.17522,47.02881],[9.1683,47.02657],[9.13807,47.03913],[9.15336,47.04727],[9.1674,47.0494],[9.17454,47.05292],[9.18375,47.05962],[9.19189,47.07268],[9.18879,47.08548],[9.19123,47.09096],[9.18765,47.09381],[9.18625,47.09992],[9.19002,47.10992],[9.18861,47.11529],[9.19187,47.13533],[9.18937,47.13975],[9.19121,47.14141],[9.21057,47.14588],[9.22984,47.14484],[9.23816,47.14871],[9.24248,47.14546],[9.24144,47.14101],[9.24831,47.13879],[9.25299,47.12274],[9.29466,47.12207],[9.293,47.11446],[9.30369,47.11061],[9.30205,47.10634],[9.30213,47.10572]]]}},{"type":"Feature","properties":{"name":"Rapperswil-Jona","cantonId":"st-gallen","municipalityId":"rapperswil-jona-3340"},"geometry":{"type":"Polygon","coordinates":[[[8.86048,47.20974],[8.83075,47.20927],[8.81865,47.21322],[8.80861,47.22009],[8.79572,47.23912],[8.79653,47.24252],[8.79928,47.24211],[8.80266,47.24672],[8.82682,47.25151],[8.83837,47.24696],[8.84473,47.24697],[8.84475,47.24863],[8.85172,47.25112],[8.85524,47.24438],[8.86071,47.24326],[8.87018,47.24531],[8.87433,47.24381],[8.87547,47.24096],[8.88114,47.24275],[8.89017,47.24185],[8.91231,47.23408],[8.9118,47.23205],[8.91641,47.23209],[8.91846,47.2284],[8.91658,47.22736],[8.91919,47.21584],[8.90827,47.21471],[8.86048,47.20974]]]}},{"type":"Feature","properties":{"name":"Rebstein","cantonId":"st-gallen","municipalityId":"rebstein-3255"},"geometry":{"type":"Polygon","coordinates":[[[9.58295,47.4089],[9.59446,47.40248],[9.59718,47.39711],[9.5992,47.39798],[9.60112,47.39586],[9.59899,47.39511],[9.60486,47.38863],[9.59974,47.3862],[9.60875,47.37943],[9.60326,47.37426],[9.59088,47.38001],[9.59246,47.38111],[9.59011,47.38556],[9.59276,47.38683],[9.59015,47.39052],[9.56726,47.40033],[9.58271,47.40876],[9.58295,47.4089]]]}},{"type":"Feature","properties":{"name":"Rheineck","cantonId":"st-gallen","municipalityId":"rheineck-3235"},"geometry":{"type":"Polygon","coordinates":[[[9.57663,47.46289],[9.57708,47.46716],[9.57392,47.46709],[9.57461,47.47121],[9.58314,47.47883],[9.57693,47.48136],[9.57668,47.48645],[9.5829,47.48192],[9.59408,47.46441],[9.58911,47.45919],[9.57655,47.46265],[9.57663,47.46289]]]}},{"type":"Feature","properties":{"name":"Rorschach","cantonId":"st-gallen","municipalityId":"rorschach-3215"},"geometry":{"type":"Polygon","coordinates":[[[9.48263,47.48101],[9.49861,47.47804],[9.51123,47.47947],[9.51093,47.47719],[9.50852,47.47675],[9.50632,47.47206],[9.49438,47.46989],[9.49184,47.47241],[9.47929,47.47551],[9.48238,47.48069],[9.48263,47.48101]]]}},{"type":"Feature","properties":{"name":"Rorschacherberg","cantonId":"st-gallen","municipalityId":"rorschacherberg-3216"},"geometry":{"type":"Polygon","coordinates":[[[9.47819,47.46207],[9.4807,47.46421],[9.48313,47.47338],[9.49715,47.47013],[9.50707,47.47251],[9.51123,47.47947],[9.5299,47.4812],[9.53152,47.47712],[9.52947,47.47396],[9.53299,47.46919],[9.53109,47.46563],[9.52127,47.46593],[9.50001,47.45666],[9.49664,47.45137],[9.4899,47.45343],[9.48189,47.45186],[9.47988,47.45374],[9.48311,47.45541],[9.47835,47.46195],[9.47819,47.46207]]]}},{"type":"Feature","properties":{"name":"Rüthi (SG)","cantonId":"st-gallen","municipalityId":"ruethi-sg-3256"},"geometry":{"type":"Polygon","coordinates":[[[9.50151,47.30659],[9.51094,47.31047],[9.52589,47.30578],[9.55454,47.30702],[9.56559,47.30412],[9.55558,47.29751],[9.54601,47.27987],[9.53203,47.27661],[9.51911,47.27877],[9.52439,47.2907],[9.50757,47.29953],[9.50163,47.30635],[9.50151,47.30659]]]}},{"type":"Feature","properties":{"name":"Sargans","cantonId":"st-gallen","municipalityId":"sargans-3296"},"geometry":{"type":"Polygon","coordinates":[[[9.4758,47.05175],[9.47725,47.04905],[9.4733,47.04691],[9.47123,47.0511],[9.46794,47.05099],[9.4662,47.04671],[9.46232,47.04736],[9.46203,47.04243],[9.45257,47.03988],[9.44788,47.04236],[9.43833,47.04144],[9.43508,47.0437],[9.43696,47.04481],[9.43372,47.04518],[9.41939,47.0566],[9.41854,47.06164],[9.43732,47.06884],[9.44623,47.06628],[9.46031,47.06848],[9.46596,47.06568],[9.47259,47.06765],[9.4741,47.06639],[9.47187,47.0642],[9.47243,47.05978],[9.4758,47.05175]]]}},{"type":"Feature","properties":{"name":"Schänis","cantonId":"st-gallen","municipalityId":"schaenis-3315"},"geometry":{"type":"Polygon","coordinates":[[[9.12283,47.18578],[9.11618,47.17942],[9.11105,47.16115],[9.10688,47.16234],[9.09857,47.15553],[9.08964,47.15233],[9.08877,47.14854],[9.08353,47.14691],[9.08243,47.14411],[9.07122,47.13671],[9.07664,47.13318],[9.06939,47.13067],[9.07172,47.13],[9.06622,47.13091],[9.00808,47.1722],[9.02374,47.1767],[9.02657,47.18073],[9.02407,47.1828],[9.03682,47.19851],[9.03916,47.19813],[9.04321,47.2024],[9.0466,47.19866],[9.06372,47.21104],[9.07772,47.20621],[9.08103,47.20042],[9.0948,47.18868],[9.09603,47.18511],[9.10932,47.18972],[9.11121,47.19644],[9.11417,47.19906],[9.12265,47.18605],[9.12283,47.18578]]]}},{"type":"Feature","properties":{"name":"Schmerikon","cantonId":"st-gallen","municipalityId":"schmerikon-3338"},"geometry":{"type":"Polygon","coordinates":[[[8.91919,47.21584],[8.91772,47.22911],[8.93506,47.23281],[8.94136,47.23166],[8.94233,47.23353],[8.95412,47.23524],[8.95713,47.23438],[8.95809,47.23127],[8.96332,47.23038],[8.96036,47.22799],[8.96207,47.2271],[8.96102,47.22518],[8.96448,47.22588],[8.96758,47.22296],[8.9658,47.21743],[8.93639,47.21762],[8.91919,47.21584]]]}},{"type":"Feature","properties":{"name":"Sennwald","cantonId":"st-gallen","municipalityId":"sennwald-3274"},"geometry":{"type":"Polygon","coordinates":[[[9.51032,47.23177],[9.50351,47.22351],[9.49961,47.21128],[9.49051,47.19794],[9.47926,47.20298],[9.48681,47.21452],[9.44793,47.21745],[9.44365,47.22372],[9.43482,47.22897],[9.40954,47.23638],[9.40152,47.2324],[9.40013,47.23491],[9.40193,47.23756],[9.41481,47.24653],[9.42624,47.24711],[9.44717,47.2558],[9.45111,47.26003],[9.47295,47.27121],[9.48399,47.28302],[9.49247,47.27873],[9.50916,47.27468],[9.51371,47.2708],[9.53038,47.26947],[9.52984,47.26185],[9.52046,47.24396],[9.5126,47.23444],[9.51032,47.23177]]]}},{"type":"Feature","properties":{"name":"Sevelen","cantonId":"st-gallen","municipalityId":"sevelen-3275"},"geometry":{"type":"Polygon","coordinates":[[[9.50266,47.14688],[9.50859,47.13985],[9.51642,47.11508],[9.49622,47.11025],[9.48976,47.11062],[9.48933,47.10893],[9.48073,47.11209],[9.47511,47.11146],[9.4642,47.11471],[9.46211,47.11344],[9.4586,47.11825],[9.44619,47.11933],[9.43916,47.11423],[9.42556,47.11577],[9.4215,47.11284],[9.40956,47.11015],[9.40854,47.11461],[9.40038,47.12034],[9.39649,47.12981],[9.39366,47.13053],[9.39779,47.13703],[9.43324,47.14562],[9.44032,47.14427],[9.44333,47.14759],[9.44831,47.14879],[9.44935,47.15153],[9.46009,47.1511],[9.4694,47.15625],[9.47201,47.15571],[9.46673,47.14849],[9.46919,47.14434],[9.50166,47.14667],[9.50266,47.14688]]]}},{"type":"Feature","properties":{"name":"St. Gallen","cantonId":"st-gallen","municipalityId":"st-gallen-3203"},"geometry":{"type":"Polygon","coordinates":[[[9.42578,47.40727],[9.39745,47.40058],[9.39193,47.40127],[9.38693,47.4056],[9.37168,47.40771],[9.35857,47.40204],[9.35434,47.40342],[9.33584,47.3991],[9.32776,47.40126],[9.31836,47.39734],[9.30295,47.39522],[9.29415,47.3964],[9.2968,47.39936],[9.29152,47.40405],[9.29451,47.40857],[9.29767,47.4082],[9.29606,47.41858],[9.3031,47.42224],[9.30826,47.42109],[9.30349,47.41617],[9.30872,47.41395],[9.32557,47.418],[9.33885,47.42523],[9.34245,47.42433],[9.35378,47.4289],[9.36126,47.43424],[9.35781,47.43948],[9.35874,47.44348],[9.36255,47.4452],[9.36766,47.44405],[9.36537,47.4473],[9.37094,47.44927],[9.37612,47.44726],[9.37431,47.452],[9.38095,47.45299],[9.38128,47.44838],[9.38896,47.45048],[9.39107,47.446],[9.38913,47.44439],[9.39368,47.44226],[9.39751,47.45163],[9.41313,47.452],[9.41688,47.44941],[9.41956,47.4524],[9.42092,47.45108],[9.42502,47.45286],[9.42955,47.45043],[9.43149,47.44458],[9.42848,47.44167],[9.43099,47.43626],[9.43524,47.4336],[9.43252,47.42951],[9.43504,47.42083],[9.42998,47.41783],[9.43297,47.41397],[9.43054,47.41149],[9.42864,47.41271],[9.42788,47.41045],[9.42989,47.40961],[9.42594,47.4073],[9.42578,47.40727]]]}},{"type":"Feature","properties":{"name":"St. Margrethen","cantonId":"st-gallen","municipalityId":"st-margrethen-3236"},"geometry":{"type":"Polygon","coordinates":[[[9.62974,47.43984],[9.62971,47.44436],[9.61298,47.44878],[9.596,47.45866],[9.58927,47.4574],[9.59408,47.46441],[9.59744,47.46222],[9.60359,47.4624],[9.60782,47.47053],[9.61158,47.46945],[9.62215,47.45754],[9.64568,47.45565],[9.65898,47.4522],[9.65799,47.44779],[9.65095,47.44274],[9.62979,47.43985],[9.62974,47.43984]]]}},{"type":"Feature","properties":{"name":"Steinach","cantonId":"st-gallen","municipalityId":"steinach-3217"},"geometry":{"type":"Polygon","coordinates":[[[9.42503,47.48442],[9.42411,47.48716],[9.41582,47.49197],[9.42213,47.49383],[9.42133,47.49624],[9.42511,47.5015],[9.43573,47.50651],[9.44582,47.50576],[9.44795,47.50343],[9.44629,47.50242],[9.45006,47.50227],[9.44809,47.49802],[9.45037,47.49699],[9.44823,47.48829],[9.44275,47.48379],[9.42591,47.48359],[9.42503,47.48442]]]}},{"type":"Feature","properties":{"name":"Thal","cantonId":"st-gallen","municipalityId":"thal-3237"},"geometry":{"type":"Polygon","coordinates":[[[9.57663,47.46289],[9.56209,47.46288],[9.55721,47.46486],[9.54655,47.4629],[9.54682,47.4675],[9.54286,47.46904],[9.53249,47.46784],[9.52947,47.47396],[9.53133,47.47427],[9.52989,47.48074],[9.53227,47.48115],[9.53141,47.4827],[9.53348,47.48119],[9.53279,47.4825],[9.53835,47.48192],[9.54322,47.48446],[9.54562,47.49105],[9.54812,47.48977],[9.54635,47.4914],[9.55488,47.49607],[9.55495,47.50096],[9.55819,47.50077],[9.5613,47.50419],[9.55998,47.49885],[9.56232,47.4952],[9.57668,47.48645],[9.57693,47.48136],[9.58314,47.47883],[9.57461,47.47121],[9.57392,47.46709],[9.57708,47.46716],[9.57659,47.46352],[9.57663,47.46289]]]}},{"type":"Feature","properties":{"name":"Tübach","cantonId":"st-gallen","municipalityId":"tuebach-3218"},"geometry":{"type":"Polygon","coordinates":[[[9.45285,47.47137],[9.44722,47.47377],[9.45204,47.47959],[9.44518,47.48073],[9.44619,47.48331],[9.44367,47.48571],[9.44819,47.48821],[9.44943,47.4922],[9.46573,47.48801],[9.45298,47.47153],[9.45285,47.47137]]]}},{"type":"Feature","properties":{"name":"Untereggen","cantonId":"st-gallen","municipalityId":"untereggen-3219"},"geometry":{"type":"Polygon","coordinates":[[[9.47819,47.46207],[9.48311,47.45541],[9.47988,47.45374],[9.4832,47.45059],[9.45433,47.44638],[9.43373,47.44008],[9.42848,47.44167],[9.43149,47.44458],[9.42965,47.45092],[9.4395,47.45676],[9.43915,47.46043],[9.44161,47.46357],[9.45435,47.46525],[9.45629,47.46273],[9.46506,47.46567],[9.47222,47.46197],[9.47798,47.46206],[9.47819,47.46207]]]}},{"type":"Feature","properties":{"name":"Uznach","cantonId":"st-gallen","municipalityId":"uznach-3339"},"geometry":{"type":"Polygon","coordinates":[[[8.9658,47.21743],[8.96758,47.22296],[8.96448,47.22588],[8.96102,47.22518],[8.96207,47.2271],[8.96036,47.22799],[8.96332,47.23038],[8.95725,47.23173],[8.95717,47.23433],[8.95482,47.23519],[8.9812,47.24118],[8.98643,47.24033],[8.98476,47.23748],[8.98648,47.23546],[8.98438,47.23423],[9.0015,47.23245],[9.00194,47.22973],[9.00708,47.227],[9.00588,47.22226],[9.00088,47.22272],[8.99954,47.22131],[9.00108,47.2194],[8.99625,47.21593],[8.99355,47.21773],[8.98125,47.21238],[8.98343,47.21006],[8.9768,47.20891],[8.97187,47.21606],[8.96605,47.21746],[8.9658,47.21743]]]}},{"type":"Feature","properties":{"name":"Uzwil","cantonId":"st-gallen","municipalityId":"uzwil-3408"},"geometry":{"type":"Polygon","coordinates":[[[9.06609,47.4493],[9.07619,47.45666],[9.10874,47.46113],[9.11629,47.46438],[9.12177,47.46298],[9.12616,47.45676],[9.15114,47.45514],[9.15473,47.44296],[9.1538,47.43894],[9.14732,47.43719],[9.14659,47.4304],[9.15654,47.42881],[9.15541,47.42437],[9.15105,47.42405],[9.14053,47.42668],[9.14202,47.4286],[9.1318,47.43177],[9.12593,47.43713],[9.12056,47.43484],[9.11555,47.43691],[9.10502,47.43599],[9.0903,47.44129],[9.07949,47.44942],[9.07533,47.44639],[9.0714,47.4463],[9.06887,47.45009],[9.06668,47.44897],[9.06609,47.4493]]]}},{"type":"Feature","properties":{"name":"Vilters-Wangs","cantonId":"st-gallen","municipalityId":"vilters-wangs-3297"},"geometry":{"type":"Polygon","coordinates":[[[9.39781,46.97144],[9.39953,46.97729],[9.38986,46.98772],[9.38112,46.99245],[9.37748,47.00561],[9.38774,47.01575],[9.3935,47.01731],[9.39501,47.02254],[9.40165,47.03076],[9.41209,47.02916],[9.41458,47.02495],[9.42643,47.03801],[9.43515,47.03784],[9.4374,47.04009],[9.45588,47.03604],[9.46283,47.03122],[9.46614,47.03429],[9.47414,47.03472],[9.48524,47.0403],[9.49169,47.03357],[9.48225,47.02604],[9.47655,47.02949],[9.47032,47.02785],[9.47256,47.0268],[9.4677,47.02252],[9.472,47.01984],[9.46162,47.0123],[9.44634,46.99488],[9.43738,46.99389],[9.43443,46.98955],[9.4339,46.97952],[9.41296,46.97812],[9.40495,46.97333],[9.39781,46.97144]]]}},{"type":"Feature","properties":{"name":"Waldkirch","cantonId":"st-gallen","municipalityId":"waldkirch-3444"},"geometry":{"type":"Polygon","coordinates":[[[9.24545,47.45266],[9.24132,47.4536],[9.23938,47.45771],[9.2435,47.4651],[9.23612,47.47401],[9.23878,47.47571],[9.23645,47.48],[9.23764,47.48164],[9.24461,47.48028],[9.24706,47.47583],[9.25116,47.47449],[9.26354,47.47467],[9.27837,47.47939],[9.28119,47.48307],[9.29865,47.47723],[9.32097,47.49083],[9.32088,47.48539],[9.32585,47.48658],[9.33714,47.48022],[9.34295,47.48128],[9.34753,47.47517],[9.34962,47.47552],[9.3484,47.4785],[9.3504,47.47934],[9.3527,47.4724],[9.35809,47.47628],[9.36232,47.47527],[9.36095,47.47154],[9.36511,47.46905],[9.36288,47.463],[9.36702,47.46116],[9.36821,47.45757],[9.3596,47.45714],[9.35866,47.45445],[9.35181,47.45485],[9.34297,47.45027],[9.33215,47.45335],[9.32829,47.44989],[9.32135,47.44957],[9.32119,47.44613],[9.31633,47.4457],[9.31713,47.44225],[9.30993,47.44215],[9.31441,47.43849],[9.30957,47.43756],[9.30895,47.43359],[9.30711,47.43408],[9.30619,47.43174],[9.30811,47.43025],[9.3019,47.42993],[9.29698,47.43161],[9.30432,47.43732],[9.3006,47.43871],[9.30152,47.44154],[9.28906,47.44754],[9.28926,47.45127],[9.2838,47.45323],[9.28546,47.45511],[9.27756,47.45522],[9.27739,47.45264],[9.27151,47.4481],[9.25796,47.45191],[9.25737,47.45467],[9.2457,47.45258],[9.24545,47.45266]]]}},{"type":"Feature","properties":{"name":"Walenstadt","cantonId":"st-gallen","municipalityId":"walenstadt-3298"},"geometry":{"type":"Polygon","coordinates":[[[9.32803,47.14616],[9.34849,47.14474],[9.35222,47.1419],[9.35064,47.13822],[9.35271,47.1352],[9.35668,47.13348],[9.38307,47.13569],[9.38751,47.13075],[9.39649,47.12981],[9.40038,47.12034],[9.40854,47.11461],[9.40935,47.1104],[9.39538,47.10201],[9.39002,47.10191],[9.38282,47.10607],[9.37539,47.10452],[9.38013,47.09917],[9.38542,47.09762],[9.38174,47.09142],[9.37647,47.08777],[9.35895,47.09997],[9.34278,47.09946],[9.32863,47.10498],[9.30872,47.10225],[9.30213,47.10572],[9.30346,47.11081],[9.29306,47.11435],[9.29466,47.12207],[9.25299,47.12274],[9.24831,47.13879],[9.24144,47.14101],[9.24248,47.14546],[9.23816,47.14871],[9.25372,47.15246],[9.2686,47.15123],[9.28801,47.15453],[9.30472,47.1528],[9.31238,47.15463],[9.31741,47.15178],[9.31944,47.14767],[9.32784,47.14623],[9.32803,47.14616]]]}},{"type":"Feature","properties":{"name":"Wartau","cantonId":"st-gallen","municipalityId":"wartau-3276"},"geometry":{"type":"Polygon","coordinates":[[[9.40209,47.08138],[9.39626,47.08638],[9.39596,47.08993],[9.39375,47.08963],[9.3835,47.09888],[9.38013,47.09917],[9.37585,47.10478],[9.38282,47.10607],[9.39002,47.10191],[9.39538,47.10201],[9.40935,47.1104],[9.4215,47.11284],[9.42556,47.11577],[9.43916,47.11423],[9.44619,47.11933],[9.4586,47.11825],[9.46211,47.11344],[9.4642,47.11471],[9.47511,47.11146],[9.48073,47.11209],[9.48933,47.10893],[9.48976,47.11062],[9.49622,47.11025],[9.51642,47.11508],[9.51959,47.09834],[9.5151,47.08707],[9.49228,47.07384],[9.4741,47.06639],[9.46596,47.06568],[9.46031,47.06848],[9.44623,47.06628],[9.43732,47.06884],[9.43017,47.06478],[9.4146,47.08034],[9.4035,47.07912],[9.40209,47.08138]]]}},{"type":"Feature","properties":{"name":"Wattwil","cantonId":"st-gallen","municipalityId":"wattwil-3379"},"geometry":{"type":"Polygon","coordinates":[[[9.08132,47.33329],[9.08178,47.3273],[9.08444,47.32584],[9.08171,47.32401],[9.08691,47.32117],[9.09482,47.3223],[9.09836,47.3171],[9.09493,47.31455],[9.09701,47.31327],[9.10366,47.31742],[9.11559,47.3163],[9.11707,47.31938],[9.12272,47.31899],[9.12356,47.31647],[9.13106,47.31298],[9.14194,47.31179],[9.14054,47.30879],[9.14348,47.30827],[9.13991,47.30679],[9.14223,47.3053],[9.14007,47.30408],[9.14685,47.30023],[9.14455,47.29852],[9.15296,47.28434],[9.15104,47.28157],[9.13253,47.28358],[9.13058,47.28207],[9.13167,47.27952],[9.11973,47.27953],[9.11335,47.27686],[9.10257,47.27788],[9.10726,47.27369],[9.09562,47.26482],[9.09756,47.26296],[9.08166,47.25822],[9.08122,47.25204],[9.07499,47.24978],[9.05032,47.26029],[9.04951,47.26326],[9.0459,47.26308],[9.03959,47.26952],[9.04114,47.27405],[9.04793,47.27962],[9.04794,47.28608],[9.03792,47.28492],[9.03807,47.28646],[9.0266,47.28991],[9.02037,47.29809],[9.0353,47.30992],[9.03284,47.31975],[9.03528,47.3201],[9.03531,47.32219],[9.03919,47.32117],[9.04388,47.32521],[9.03687,47.32779],[9.04719,47.33087],[9.05185,47.33617],[9.04579,47.33736],[9.05543,47.33815],[9.05637,47.33361],[9.0485,47.33042],[9.05337,47.32526],[9.05677,47.32593],[9.05934,47.3238],[9.06116,47.32712],[9.07967,47.33074],[9.08064,47.33279],[9.08132,47.33329]]]}},{"type":"Feature","properties":{"name":"Weesen","cantonId":"st-gallen","municipalityId":"weesen-3316"},"geometry":{"type":"Polygon","coordinates":[[[9.07172,47.13],[9.06939,47.13067],[9.07664,47.13318],[9.07122,47.13671],[9.08243,47.14411],[9.08353,47.14691],[9.08877,47.14854],[9.0912,47.15346],[9.09538,47.15369],[9.10755,47.1624],[9.10972,47.16024],[9.10688,47.15507],[9.10615,47.14141],[9.10793,47.13743],[9.11543,47.13275],[9.07215,47.13003],[9.07172,47.13]]]}},{"type":"Feature","properties":{"name":"Widnau","cantonId":"st-gallen","municipalityId":"widnau-3238"},"geometry":{"type":"Polygon","coordinates":[[[9.65106,47.41642],[9.65185,47.4064],[9.64972,47.39851],[9.64384,47.39732],[9.63895,47.38937],[9.62948,47.3925],[9.63321,47.39793],[9.62834,47.39896],[9.62228,47.40571],[9.62821,47.40678],[9.63428,47.41739],[9.64043,47.41594],[9.65106,47.41642]]]}},{"type":"Feature","properties":{"name":"Wil (SG)","cantonId":"st-gallen","municipalityId":"wil-sg-3427"},"geometry":{"type":"Polygon","coordinates":[[[9.06256,47.44624],[9.05459,47.44852],[9.05042,47.45286],[9.02724,47.45774],[9.02642,47.46014],[9.03074,47.46179],[9.02845,47.46389],[9.0295,47.46666],[9.00822,47.47237],[9.01198,47.47534],[9.00874,47.47579],[9.0088,47.47975],[9.00359,47.48119],[9.01079,47.48546],[9.01249,47.48997],[9.02832,47.48867],[9.03604,47.49143],[9.04029,47.49576],[9.04422,47.4928],[9.0511,47.49218],[9.05583,47.48741],[9.06266,47.49246],[9.06433,47.4908],[9.08237,47.49524],[9.0851,47.49024],[9.08361,47.48903],[9.08639,47.4883],[9.08977,47.48282],[9.09773,47.48063],[9.09252,47.4755],[9.06412,47.4683],[9.07218,47.46501],[9.08048,47.45765],[9.0711,47.45422],[9.06262,47.44623],[9.06256,47.44624]]]}},{"type":"Feature","properties":{"name":"Wildhaus-Alt St. Johann","cantonId":"st-gallen","municipalityId":"wildhaus-alt-st-johann-3359"},"geometry":{"type":"Polygon","coordinates":[[[9.32803,47.14616],[9.31944,47.14767],[9.313,47.15459],[9.30472,47.1528],[9.29392,47.15479],[9.2686,47.15123],[9.25372,47.15246],[9.23014,47.1449],[9.22014,47.14472],[9.22111,47.15166],[9.22458,47.15622],[9.21926,47.15937],[9.2214,47.16382],[9.23798,47.17357],[9.23193,47.17408],[9.22765,47.18241],[9.23213,47.18243],[9.23286,47.18822],[9.2371,47.18761],[9.23397,47.18976],[9.23428,47.193],[9.23667,47.19378],[9.23923,47.191],[9.24943,47.19623],[9.24781,47.19968],[9.24445,47.19987],[9.24533,47.20257],[9.2519,47.2077],[9.25539,47.21529],[9.2597,47.21593],[9.25843,47.21843],[9.28329,47.22291],[9.28956,47.22669],[9.29788,47.2261],[9.30356,47.22893],[9.30611,47.23371],[9.31422,47.23434],[9.31459,47.2392],[9.32268,47.24647],[9.33236,47.24961],[9.34327,47.2494],[9.351,47.24436],[9.36489,47.24331],[9.38201,47.23399],[9.40193,47.23756],[9.40013,47.23491],[9.40152,47.2324],[9.38949,47.22553],[9.39387,47.2105],[9.39229,47.20847],[9.39765,47.20926],[9.39275,47.20359],[9.39365,47.20132],[9.3914,47.20189],[9.38852,47.19774],[9.38069,47.19549],[9.37574,47.18868],[9.36252,47.18893],[9.35026,47.18556],[9.33265,47.17609],[9.33104,47.17027],[9.32241,47.16873],[9.31792,47.1538],[9.3241,47.14836],[9.32936,47.14738],[9.32803,47.14616]]]}},{"type":"Feature","properties":{"name":"Wittenbach","cantonId":"st-gallen","municipalityId":"wittenbach-3204"},"geometry":{"type":"MultiPolygon","coordinates":[[[[9.41116,47.47602],[9.412,47.47215],[9.40377,47.4669],[9.40171,47.45963],[9.40307,47.45409],[9.40134,47.45121],[9.39751,47.45163],[9.39406,47.44225],[9.38913,47.44439],[9.39107,47.446],[9.38896,47.45048],[9.38128,47.44838],[9.38075,47.45307],[9.37431,47.452],[9.37612,47.44726],[9.37094,47.44927],[9.36537,47.4473],[9.36766,47.44405],[9.36423,47.44454],[9.36079,47.44826],[9.36403,47.45236],[9.36036,47.45168],[9.35848,47.4565],[9.36902,47.45871],[9.36288,47.463],[9.36511,47.46905],[9.36095,47.47154],[9.36232,47.47527],[9.35809,47.47628],[9.35221,47.47281],[9.35057,47.47982],[9.35593,47.48359],[9.35401,47.4855],[9.35633,47.48706],[9.35445,47.48802],[9.36516,47.48457],[9.37314,47.48531],[9.37091,47.4783],[9.37851,47.48042],[9.39184,47.47459],[9.39116,47.47733],[9.39692,47.47497],[9.39636,47.47783],[9.39839,47.47813],[9.40293,47.47496],[9.41096,47.47606],[9.41116,47.47602]]],[[[9.36981,47.48887],[9.36788,47.48746],[9.36441,47.49012],[9.3532,47.49235],[9.35733,47.49197],[9.35552,47.49382],[9.36237,47.49565],[9.36862,47.49277],[9.36755,47.49078],[9.36981,47.48887]]]]}},{"type":"Feature","properties":{"name":"Zuzwil (SG)","cantonId":"st-gallen","municipalityId":"zuzwil-sg-3426"},"geometry":{"type":"Polygon","coordinates":[[[9.12942,47.4845],[9.13281,47.48309],[9.13489,47.47811],[9.13238,47.47621],[9.13356,47.47395],[9.12246,47.46866],[9.11806,47.46516],[9.11928,47.46401],[9.08048,47.45765],[9.07218,47.46501],[9.06429,47.46776],[9.06727,47.47032],[9.09252,47.4755],[9.09773,47.48063],[9.0909,47.48307],[9.09856,47.4856],[9.11286,47.48441],[9.11601,47.47973],[9.1227,47.48067],[9.12406,47.48364],[9.12901,47.4846],[9.12942,47.4845]]]}}]}
