{"type":"FeatureCollection","features":[{"type":"Feature","properties":{"name":"Aadorf","cantonId":"thurgau","municipalityId":"aadorf-4551"},"geometry":{"type":"Polygon","coordinates":[[[8.8876,47.52839],[8.89092,47.53051],[8.88904,47.5326],[8.89203,47.53587],[8.89876,47.53593],[8.90744,47.54046],[8.90864,47.53739],[8.90707,47.53682],[8.91069,47.53544],[8.91208,47.53226],[8.90756,47.52893],[8.91054,47.52375],[8.90998,47.51688],[8.91289,47.51438],[8.91186,47.51315],[8.93166,47.50765],[8.94257,47.49866],[8.94125,47.49694],[8.92905,47.49656],[8.92847,47.493],[8.92297,47.49141],[8.92195,47.48879],[8.92535,47.48824],[8.92668,47.4842],[8.93009,47.48403],[8.92977,47.48],[8.93848,47.4749],[8.93624,47.47107],[8.93155,47.47002],[8.93305,47.46459],[8.92964,47.46525],[8.92989,47.45976],[8.92265,47.46058],[8.92249,47.46392],[8.91237,47.46262],[8.91434,47.46519],[8.90974,47.46674],[8.90594,47.46599],[8.90514,47.46203],[8.90201,47.46169],[8.89185,47.46425],[8.89374,47.46512],[8.89073,47.4693],[8.88358,47.47014],[8.88472,47.47347],[8.88099,47.47475],[8.88488,47.47701],[8.8853,47.48171],[8.8977,47.48511],[8.89679,47.4879],[8.89281,47.48841],[8.89258,47.49751],[8.89267,47.50057],[8.89711,47.50501],[8.8971,47.51768],[8.89531,47.51925],[8.89834,47.52417],[8.88757,47.52834],[8.8876,47.52839]]]}},{"type":"Feature","properties":{"name":"Affeltrangen","cantonId":"thurgau","municipalityId":"affeltrangen-4711"},"geometry":{"type":"Polygon","coordinates":[[[9.06723,47.52042],[9.06427,47.51939],[9.05781,47.52276],[9.05351,47.52068],[9.0519,47.52248],[9.0483,47.5214],[9.04908,47.52307],[9.04653,47.52486],[9.0321,47.52264],[9.02489,47.51665],[9.01544,47.5133],[9.0116,47.52092],[9.01442,47.52182],[9.01304,47.52599],[9.00717,47.52881],[9.01051,47.53026],[9.00964,47.5323],[9.01412,47.53901],[9.0117,47.54244],[9.02332,47.54773],[9.02828,47.54565],[9.03836,47.55003],[9.04403,47.54917],[9.04029,47.54417],[9.04251,47.54181],[9.05483,47.54406],[9.06457,47.54292],[9.06401,47.54478],[9.0718,47.54691],[9.07684,47.53998],[9.07609,47.53735],[9.07981,47.53814],[9.07967,47.53388],[9.08549,47.53169],[9.08591,47.52712],[9.08156,47.5264],[9.08268,47.51954],[9.08628,47.51782],[9.06714,47.52047],[9.06723,47.52042]]]}},{"type":"Feature","properties":{"name":"Altnau","cantonId":"thurgau","municipalityId":"altnau-4641"},"geometry":{"type":"Polygon","coordinates":[[[9.26187,47.58619],[9.25759,47.58564],[9.25796,47.59127],[9.25498,47.59358],[9.25775,47.59517],[9.24483,47.60543],[9.24717,47.60682],[9.2388,47.61429],[9.24345,47.61847],[9.25664,47.61792],[9.26749,47.62421],[9.28107,47.61771],[9.27347,47.61177],[9.27586,47.61035],[9.27174,47.6001],[9.27585,47.59646],[9.27153,47.59565],[9.26764,47.58919],[9.26189,47.58654],[9.26187,47.58619]]]}},{"type":"Feature","properties":{"name":"Amlikon-Bissegg","cantonId":"thurgau","municipalityId":"amlikon-bissegg-4881"},"geometry":{"type":"Polygon","coordinates":[[[9.00173,47.56091],[9.01004,47.56107],[9.01238,47.56755],[9.00913,47.56916],[9.01281,47.57247],[9.01167,47.57404],[9.01842,47.57612],[9.01871,47.58139],[9.0399,47.57501],[9.05751,47.57361],[9.05875,47.57673],[9.06649,47.57667],[9.07626,47.57216],[9.06769,47.56532],[9.06634,47.56272],[9.06997,47.56189],[9.06785,47.55821],[9.05512,47.55298],[9.05643,47.55106],[9.05372,47.54941],[9.03836,47.55003],[9.02828,47.54565],[9.02332,47.54773],[9.01428,47.54287],[9.00966,47.54439],[9.00674,47.54297],[9.00541,47.54602],[8.99702,47.54515],[9.00482,47.55246],[9.00207,47.56086],[9.00173,47.56091]]]}},{"type":"Feature","properties":{"name":"Amriswil","cantonId":"thurgau","municipalityId":"amriswil-4461"},"geometry":{"type":"Polygon","coordinates":[[[9.25114,47.5314],[9.25108,47.53398],[9.25435,47.53448],[9.25272,47.53845],[9.24741,47.54208],[9.24939,47.54472],[9.24796,47.54904],[9.25094,47.55165],[9.26109,47.55303],[9.25889,47.55973],[9.26062,47.55962],[9.26001,47.56623],[9.2659,47.56815],[9.278,47.56372],[9.28491,47.56359],[9.2901,47.55857],[9.29566,47.55877],[9.29983,47.55467],[9.30988,47.55509],[9.31242,47.54537],[9.32204,47.54323],[9.32147,47.54035],[9.33877,47.53461],[9.33723,47.53236],[9.33958,47.53145],[9.3383,47.52887],[9.32875,47.52839],[9.32399,47.52938],[9.32292,47.53192],[9.31727,47.53131],[9.31534,47.53027],[9.3166,47.52869],[9.31234,47.52756],[9.31276,47.52212],[9.30275,47.52643],[9.30137,47.52412],[9.2963,47.52451],[9.2953,47.52275],[9.29162,47.5253],[9.28676,47.52263],[9.28496,47.52497],[9.28002,47.52274],[9.27779,47.52834],[9.27076,47.53197],[9.25139,47.53139],[9.25114,47.5314]]]}},{"type":"Feature","properties":{"name":"Arbon","cantonId":"thurgau","municipalityId":"arbon-4401"},"geometry":{"type":"Polygon","coordinates":[[[9.42133,47.49624],[9.41735,47.49805],[9.4194,47.50112],[9.41097,47.50168],[9.40549,47.50837],[9.40716,47.50769],[9.40874,47.51075],[9.4044,47.51319],[9.41231,47.51317],[9.4107,47.51621],[9.4128,47.519],[9.40186,47.5224],[9.40366,47.52609],[9.40041,47.5276],[9.4022,47.53347],[9.4066,47.53514],[9.42576,47.52131],[9.43371,47.52085],[9.44039,47.51605],[9.44142,47.51307],[9.43477,47.51137],[9.43573,47.50669],[9.42511,47.5015],[9.4214,47.49633],[9.42133,47.49624]]]}},{"type":"Feature","properties":{"name":"Basadingen-Schlattingen","cantonId":"thurgau","municipalityId":"basadingen-schlattingen-4536"},"geometry":{"type":"Polygon","coordinates":[[[8.73173,47.64197],[8.7291,47.64354],[8.73077,47.64691],[8.72954,47.64972],[8.73226,47.65102],[8.72551,47.65096],[8.72285,47.65351],[8.72219,47.65881],[8.72429,47.6621],[8.72189,47.6621],[8.72001,47.66896],[8.72328,47.67065],[8.72204,47.67367],[8.73897,47.67419],[8.74682,47.67652],[8.74618,47.68041],[8.75371,47.6792],[8.75382,47.67675],[8.76512,47.67953],[8.76965,47.67833],[8.77016,47.67627],[8.76724,47.67434],[8.77422,47.67141],[8.77374,47.66859],[8.78661,47.67094],[8.79866,47.66857],[8.79842,47.66496],[8.78854,47.66536],[8.78601,47.6552],[8.78227,47.65236],[8.77619,47.64884],[8.76485,47.64882],[8.7472,47.63864],[8.74337,47.63977],[8.74346,47.64303],[8.73247,47.64178],[8.73173,47.64197]]]}},{"type":"Feature","properties":{"name":"Berg (TG)","cantonId":"thurgau","municipalityId":"berg-tg-4891"},"geometry":{"type":"Polygon","coordinates":[[[9.19627,47.57334],[9.19541,47.56883],[9.18313,47.5641],[9.17853,47.56732],[9.17913,47.5695],[9.17093,47.56778],[9.17308,47.56199],[9.16578,47.56192],[9.16479,47.55843],[9.15322,47.56119],[9.14214,47.56091],[9.14248,47.56455],[9.13756,47.56451],[9.14017,47.57325],[9.14599,47.57247],[9.14312,47.57864],[9.14537,47.58106],[9.14441,47.58659],[9.14809,47.58839],[9.14804,47.59118],[9.15973,47.58836],[9.16319,47.59157],[9.17217,47.58921],[9.17568,47.59147],[9.17506,47.59856],[9.17888,47.59994],[9.18344,47.60662],[9.18736,47.60612],[9.18581,47.60445],[9.19401,47.59997],[9.19691,47.60216],[9.20391,47.59799],[9.20336,47.59508],[9.19491,47.59486],[9.18722,47.59031],[9.18805,47.57992],[9.19184,47.57518],[9.19621,47.57362],[9.19627,47.57334]]]}},{"type":"Feature","properties":{"name":"Berlingen","cantonId":"thurgau","municipalityId":"berlingen-4801"},"geometry":{"type":"Polygon","coordinates":[[[9.03223,47.6559],[9.02497,47.6615],[9.01691,47.66332],[9.01838,47.66456],[9.01323,47.66763],[9.00541,47.66725],[9.00401,47.67132],[9.0135,47.67259],[9.01771,47.67542],[9.026,47.67273],[9.03693,47.67507],[9.04394,47.67298],[9.04207,47.66947],[9.04052,47.67153],[9.0359,47.67126],[9.04253,47.66484],[9.0402,47.66339],[9.04065,47.65465],[9.03224,47.65591],[9.03223,47.6559]]]}},{"type":"Feature","properties":{"name":"Bettwiesen","cantonId":"thurgau","municipalityId":"bettwiesen-4716"},"geometry":{"type":"Polygon","coordinates":[[[9.01044,47.50552],[9.00841,47.50477],[9.01149,47.50078],[9.02422,47.50326],[9.0405,47.50049],[9.04209,47.49579],[9.03604,47.49143],[9.02831,47.48867],[9.01109,47.48962],[9.01048,47.49683],[9.00739,47.49953],[9.00342,47.50026],[8.99756,47.49717],[8.99222,47.50234],[9.00233,47.50792],[9.01013,47.5058],[9.01044,47.50552]]]}},{"type":"Feature","properties":{"name":"Bichelsee-Balterswil","cantonId":"thurgau","municipalityId":"bichelsee-balterswil-4721"},"geometry":{"type":"MultiPolygon","coordinates":[[[[8.9475,47.46829],[8.95135,47.46502],[8.94736,47.4582],[8.94915,47.45705],[8.94593,47.45407],[8.95004,47.45318],[8.94472,47.45056],[8.94906,47.44816],[8.94335,47.44247],[8.95242,47.43888],[8.9454,47.43245],[8.95026,47.43074],[8.93824,47.43264],[8.93083,47.43125],[8.93272,47.43554],[8.92165,47.43487],[8.90816,47.43801],[8.90266,47.44424],[8.90881,47.44834],[8.90028,47.45431],[8.89426,47.4631],[8.90414,47.46176],[8.90574,47.46584],[8.90974,47.46674],[8.91434,47.46519],[8.91237,47.46262],[8.92249,47.46392],[8.92265,47.46058],[8.92989,47.45976],[8.92964,47.46525],[8.93306,47.46465],[8.93155,47.47002],[8.93624,47.47107],[8.93724,47.47396],[8.93912,47.47383],[8.93865,47.47122],[8.94229,47.47188],[8.94715,47.46803],[8.9475,47.46829]]],[[[8.91309,47.42818],[8.90767,47.43028],[8.90978,47.43301],[8.92,47.43225],[8.91426,47.42913],[8.91309,47.42818]]]]}},{"type":"Feature","properties":{"name":"Birwinken","cantonId":"thurgau","municipalityId":"birwinken-4901"},"geometry":{"type":"Polygon","coordinates":[[[9.19627,47.57334],[9.18893,47.57862],[9.18706,47.58551],[9.18722,47.59031],[9.19491,47.59486],[9.20336,47.59508],[9.20546,47.5916],[9.21131,47.59338],[9.21587,47.5932],[9.21598,47.59147],[9.22103,47.59373],[9.22266,47.59155],[9.23244,47.59023],[9.23391,47.58211],[9.23887,47.57591],[9.24398,47.57709],[9.24592,47.57084],[9.23012,47.56429],[9.23345,47.56046],[9.22513,47.55724],[9.20942,47.55649],[9.20686,47.55912],[9.20339,47.55835],[9.19823,47.56355],[9.20128,47.56896],[9.2007,47.57228],[9.19644,47.57339],[9.19627,47.57334]]]}},{"type":"Feature","properties":{"name":"Bischofszell","cantonId":"thurgau","municipalityId":"bischofszell-4471"},"geometry":{"type":"Polygon","coordinates":[[[9.17755,47.49703],[9.18054,47.50673],[9.19158,47.51079],[9.1944,47.51473],[9.20167,47.51292],[9.20438,47.51093],[9.20255,47.50995],[9.20382,47.50785],[9.20719,47.5083],[9.21195,47.50484],[9.21264,47.50022],[9.22227,47.49523],[9.22738,47.49728],[9.22809,47.50035],[9.23309,47.50421],[9.23692,47.50288],[9.24008,47.5045],[9.23954,47.50058],[9.24452,47.49735],[9.25135,47.5044],[9.25231,47.50052],[9.25958,47.49458],[9.24798,47.48876],[9.24758,47.48325],[9.23709,47.48092],[9.2322,47.48105],[9.23232,47.48323],[9.2289,47.48425],[9.21829,47.48381],[9.2132,47.47891],[9.20638,47.48247],[9.20789,47.48321],[9.20641,47.48668],[9.20989,47.48932],[9.19675,47.49052],[9.19307,47.48894],[9.19338,47.49122],[9.18878,47.4931],[9.18286,47.49134],[9.18021,47.49704],[9.17755,47.49703]]]}},{"type":"Feature","properties":{"name":"Bottighofen","cantonId":"thurgau","municipalityId":"bottighofen-4643"},"geometry":{"type":"Polygon","coordinates":[[[9.20588,47.64431],[9.21173,47.64493],[9.21976,47.63941],[9.21567,47.63521],[9.22055,47.63233],[9.21632,47.62996],[9.2202,47.62824],[9.21236,47.62175],[9.21082,47.62492],[9.20372,47.62899],[9.20033,47.62565],[9.19807,47.63139],[9.20437,47.63773],[9.2056,47.6433],[9.20588,47.64431]]]}},{"type":"Feature","properties":{"name":"Braunau","cantonId":"thurgau","municipalityId":"braunau-4723"},"geometry":{"type":"Polygon","coordinates":[[[9.06723,47.52042],[9.07792,47.52031],[9.07916,47.51804],[9.08723,47.51621],[9.09317,47.51686],[9.09636,47.51316],[9.09474,47.50785],[9.09673,47.50483],[9.08194,47.49514],[9.06432,47.4908],[9.06265,47.49246],[9.05582,47.48741],[9.05109,47.49218],[9.04238,47.49468],[9.04271,47.49733],[9.04745,47.49889],[9.04293,47.50232],[9.04216,47.50419],[9.04407,47.5049],[9.04139,47.51097],[9.05362,47.51173],[9.05458,47.51412],[9.06011,47.51449],[9.06292,47.5112],[9.07265,47.50844],[9.07613,47.51007],[9.07121,47.51284],[9.0711,47.51662],[9.06732,47.52042],[9.06723,47.52042]]]}},{"type":"Feature","properties":{"name":"Bürglen (TG)","cantonId":"thurgau","municipalityId":"buerglen-tg-4911"},"geometry":{"type":"Polygon","coordinates":[[[9.17258,47.53113],[9.16382,47.53761],[9.16332,47.5351],[9.15994,47.53517],[9.16095,47.53377],[9.15585,47.53151],[9.14335,47.53044],[9.13741,47.53947],[9.13018,47.54082],[9.13048,47.5443],[9.13442,47.54561],[9.12799,47.54728],[9.13452,47.56103],[9.15322,47.56119],[9.16479,47.55843],[9.16578,47.56192],[9.17308,47.56199],[9.17093,47.56778],[9.17913,47.5695],[9.17853,47.56732],[9.18313,47.5641],[9.19541,47.56883],[9.19533,47.57257],[9.19891,47.57397],[9.20128,47.56896],[9.19859,47.56568],[9.19909,47.56191],[9.18811,47.5561],[9.18682,47.55265],[9.16997,47.5525],[9.16858,47.54401],[9.17595,47.53201],[9.1729,47.53122],[9.17258,47.53113]]]}},{"type":"Feature","properties":{"name":"Bussnang","cantonId":"thurgau","municipalityId":"bussnang-4921"},"geometry":{"type":"Polygon","coordinates":[[[9.09656,47.50951],[9.09334,47.51674],[9.08723,47.51621],[9.08483,47.51975],[9.08268,47.51954],[9.08156,47.5264],[9.08591,47.52712],[9.08549,47.53169],[9.07967,47.53388],[9.07981,47.53814],[9.07609,47.53735],[9.07684,47.53998],[9.0718,47.54691],[9.06401,47.54478],[9.06418,47.54288],[9.05483,47.54406],[9.04251,47.54181],[9.04029,47.54417],[9.04403,47.54917],[9.05372,47.54941],[9.05643,47.55106],[9.05512,47.55298],[9.06763,47.55801],[9.06997,47.56189],[9.06634,47.56272],[9.06992,47.56695],[9.08711,47.55921],[9.12899,47.54868],[9.12799,47.54728],[9.13442,47.54561],[9.13048,47.5443],[9.13018,47.54082],[9.13741,47.53947],[9.14203,47.5336],[9.13873,47.53243],[9.14119,47.5292],[9.13908,47.52983],[9.13842,47.52665],[9.12696,47.52221],[9.12297,47.52541],[9.11315,47.52727],[9.10617,47.52501],[9.10052,47.52583],[9.0995,47.52481],[9.10196,47.52395],[9.09983,47.51931],[9.10347,47.51806],[9.10103,47.51715],[9.10301,47.51064],[9.09662,47.50938],[9.09656,47.50951]]]}},{"type":"Feature","properties":{"name":"Diessenhofen","cantonId":"thurgau","municipalityId":"diessenhofen-4545"},"geometry":{"type":"Polygon","coordinates":[[[8.80314,47.66527],[8.79841,47.66492],[8.79866,47.66857],[8.78661,47.67094],[8.77564,47.66786],[8.77359,47.66872],[8.77422,47.67141],[8.76728,47.67426],[8.77016,47.67627],[8.76965,47.67833],[8.76172,47.67977],[8.76182,47.67731],[8.75382,47.67675],[8.75371,47.6792],[8.74618,47.68041],[8.74667,47.67643],[8.73145,47.67259],[8.72204,47.67367],[8.72328,47.67065],[8.72008,47.66891],[8.71445,47.67858],[8.7072,47.67625],[8.70576,47.68701],[8.70258,47.68759],[8.70144,47.69138],[8.71424,47.68958],[8.7335,47.69289],[8.75737,47.68949],[8.78808,47.67561],[8.79886,47.67624],[8.79952,47.6684],[8.80608,47.66659],[8.80315,47.66531],[8.80314,47.66527]]]}},{"type":"Feature","properties":{"name":"Dozwil","cantonId":"thurgau","municipalityId":"dozwil-4406"},"geometry":{"type":"Polygon","coordinates":[[[9.32422,47.57111],[9.31905,47.57237],[9.31389,47.57057],[9.31266,47.57209],[9.30407,47.56889],[9.30714,47.57282],[9.31285,47.57403],[9.31545,47.58109],[9.31863,47.58087],[9.32158,47.58367],[9.33033,47.57611],[9.3248,47.57381],[9.324,47.57119],[9.32422,47.57111]]]}},{"type":"Feature","properties":{"name":"Egnach","cantonId":"thurgau","municipalityId":"egnach-4411"},"geometry":{"type":"Polygon","coordinates":[[[9.38165,47.5525],[9.38684,47.55027],[9.38594,47.54583],[9.40558,47.53512],[9.4022,47.53347],[9.40034,47.52728],[9.3922,47.52839],[9.38783,47.52578],[9.38826,47.52079],[9.3851,47.51526],[9.38768,47.51493],[9.38685,47.51103],[9.37273,47.511],[9.36464,47.50179],[9.3561,47.50341],[9.35454,47.50093],[9.3418,47.50372],[9.33692,47.50128],[9.33831,47.50683],[9.34617,47.50802],[9.3485,47.51125],[9.34577,47.51185],[9.35047,47.5154],[9.35466,47.51535],[9.35638,47.51961],[9.34382,47.51997],[9.33899,47.52485],[9.33979,47.53066],[9.33723,47.53236],[9.33877,47.53461],[9.32147,47.54035],[9.34034,47.54623],[9.35539,47.54714],[9.36433,47.5454],[9.37846,47.55194],[9.38165,47.5525]],[[9.35386,47.51181],[9.35812,47.50814],[9.3591,47.51053],[9.35434,47.51191],[9.35386,47.51181]]]}},{"type":"Feature","properties":{"name":"Erlen","cantonId":"thurgau","municipalityId":"erlen-4476"},"geometry":{"type":"Polygon","coordinates":[[[9.25114,47.5314],[9.24213,47.52914],[9.23887,47.53458],[9.22537,47.53371],[9.22542,47.53631],[9.22144,47.53862],[9.20169,47.53827],[9.19898,47.5407],[9.207,47.54413],[9.2072,47.54691],[9.21002,47.54833],[9.20709,47.55158],[9.20942,47.55649],[9.22513,47.55724],[9.23342,47.56043],[9.23012,47.56429],[9.23885,47.56736],[9.23805,47.56878],[9.25164,47.57243],[9.25346,47.57554],[9.25381,47.57205],[9.2594,47.57052],[9.25801,47.57376],[9.26088,47.57538],[9.26541,47.56789],[9.26001,47.56623],[9.26062,47.55962],[9.25889,47.55973],[9.26159,47.55401],[9.25094,47.55165],[9.24796,47.54904],[9.24939,47.54472],[9.24741,47.54208],[9.25272,47.53845],[9.25435,47.53448],[9.25108,47.53398],[9.25036,47.53143],[9.25114,47.5314]]]}},{"type":"Feature","properties":{"name":"Ermatingen","cantonId":"thurgau","municipalityId":"ermatingen-4646"},"geometry":{"type":"Polygon","coordinates":[[[9.11651,47.66555],[9.12147,47.66404],[9.12074,47.65978],[9.11569,47.65752],[9.11511,47.65399],[9.10972,47.65379],[9.11299,47.64892],[9.10708,47.64271],[9.10639,47.63578],[9.07464,47.64245],[9.07116,47.64756],[9.07737,47.65151],[9.07677,47.65846],[9.07036,47.65981],[9.07353,47.66246],[9.06143,47.669],[9.06557,47.6742],[9.07692,47.67056],[9.08547,47.6753],[9.09624,47.66608],[9.11536,47.66536],[9.11651,47.66555]]]}},{"type":"Feature","properties":{"name":"Eschenz","cantonId":"thurgau","municipalityId":"eschenz-4806"},"geometry":{"type":"MultiPolygon","coordinates":[[[[8.89933,47.6279],[8.89559,47.62582],[8.89745,47.62224],[8.88472,47.61695],[8.86956,47.62018],[8.86107,47.6238],[8.86113,47.62574],[8.84723,47.62677],[8.84391,47.62853],[8.84495,47.6301],[8.841,47.62953],[8.83851,47.63474],[8.85106,47.6371],[8.84788,47.64773],[8.85165,47.65125],[8.85794,47.65008],[8.86281,47.65492],[8.86893,47.65401],[8.87079,47.6517],[8.876,47.65396],[8.8823,47.65261],[8.89129,47.6444],[8.89523,47.64421],[8.89467,47.63621],[8.89686,47.63469],[8.89478,47.63259],[8.89929,47.62793],[8.89933,47.6279]]],[[[8.86749,47.65526],[8.86562,47.6553],[8.8674,47.65538],[8.86749,47.65526]]]]}},{"type":"Feature","properties":{"name":"Eschlikon","cantonId":"thurgau","municipalityId":"eschlikon-4724"},"geometry":{"type":"Polygon","coordinates":[[[8.96264,47.4729],[8.96809,47.46866],[8.984,47.46939],[8.98029,47.46307],[8.98441,47.46055],[8.9834,47.45949],[8.97369,47.45991],[8.96996,47.45743],[8.97114,47.45449],[8.97642,47.45264],[8.97441,47.44987],[8.97642,47.44971],[8.97646,47.44645],[8.96684,47.44667],[8.96793,47.44291],[8.96474,47.44402],[8.96274,47.44225],[8.96164,47.4446],[8.94891,47.4441],[8.94886,47.44905],[8.94474,47.45035],[8.95004,47.45318],[8.94593,47.45407],[8.94915,47.45705],[8.94736,47.4582],[8.95135,47.46502],[8.9475,47.46829],[8.94864,47.47148],[8.95363,47.47044],[8.96213,47.47251],[8.96264,47.4729]]]}},{"type":"Feature","properties":{"name":"Felben-Wellhausen","cantonId":"thurgau","municipalityId":"felben-wellhausen-4561"},"geometry":{"type":"Polygon","coordinates":[[[8.94004,47.56238],[8.93752,47.56664],[8.93239,47.56528],[8.92982,47.56805],[8.92685,47.56699],[8.92605,47.57122],[8.92098,47.57099],[8.91922,47.57775],[8.92142,47.57904],[8.91781,47.58081],[8.91569,47.58656],[8.95109,47.58938],[8.95558,47.58451],[8.95309,47.58379],[8.95519,47.58008],[8.95758,47.58072],[8.95573,47.57542],[8.95847,47.57599],[8.95986,47.56836],[8.96739,47.56413],[8.94128,47.56241],[8.94004,47.56238]]]}},{"type":"Feature","properties":{"name":"Fischingen","cantonId":"thurgau","municipalityId":"fischingen-4726"},"geometry":{"type":"Polygon","coordinates":[[[8.91309,47.42818],[8.91978,47.43301],[8.95026,47.43074],[8.9454,47.43245],[8.95242,47.43888],[8.94335,47.44247],[8.94803,47.44765],[8.94891,47.4441],[8.96164,47.4446],[8.96274,47.44225],[8.96474,47.44402],[8.96793,47.44291],[8.96684,47.44667],[8.97611,47.44633],[8.9796,47.44868],[8.98474,47.44543],[8.98626,47.44167],[8.99506,47.44344],[8.99986,47.43213],[8.98748,47.4297],[8.99082,47.42811],[8.98945,47.42496],[8.99425,47.42233],[8.99116,47.4209],[8.98873,47.41126],[8.9818,47.41249],[8.97657,47.41067],[8.97217,47.40432],[8.97567,47.39924],[8.97149,47.39128],[8.96745,47.39047],[8.96635,47.3857],[8.95745,47.38643],[8.95493,47.38148],[8.94487,47.37814],[8.94353,47.37591],[8.94013,47.37975],[8.94367,47.38412],[8.94155,47.38731],[8.92082,47.39946],[8.90347,47.40205],[8.91269,47.41284],[8.91393,47.41848],[8.91116,47.42357],[8.91474,47.42701],[8.9133,47.4281],[8.91309,47.42818]]]}},{"type":"Feature","properties":{"name":"Frauenfeld","cantonId":"thurgau","municipalityId":"frauenfeld-4566"},"geometry":{"type":"Polygon","coordinates":[[[8.8876,47.52839],[8.88345,47.52941],[8.8804,47.52703],[8.86651,47.53047],[8.87198,47.53364],[8.86812,47.53642],[8.86843,47.54078],[8.87997,47.54356],[8.88057,47.54567],[8.87612,47.54588],[8.87608,47.5493],[8.86996,47.55242],[8.87328,47.55353],[8.87231,47.55665],[8.86774,47.55632],[8.86598,47.56134],[8.8638,47.56105],[8.86506,47.56775],[8.85591,47.56943],[8.85097,47.56361],[8.84429,47.56325],[8.84484,47.56613],[8.83919,47.56535],[8.83774,47.56856],[8.84051,47.57131],[8.83924,47.57234],[8.84109,47.57572],[8.84483,47.57532],[8.84501,47.57691],[8.88215,47.57885],[8.91569,47.58656],[8.91781,47.58081],[8.92142,47.57904],[8.91922,47.57775],[8.92098,47.57099],[8.92605,47.57122],[8.92685,47.56699],[8.92982,47.56805],[8.93239,47.56528],[8.93752,47.56664],[8.94168,47.55807],[8.94579,47.55491],[8.92983,47.5494],[8.92715,47.54498],[8.92876,47.54014],[8.92752,47.53613],[8.92294,47.53225],[8.92403,47.52974],[8.91165,47.52924],[8.91069,47.53544],[8.90707,47.53682],[8.90864,47.53739],[8.90744,47.54046],[8.89876,47.53593],[8.89203,47.53587],[8.88904,47.5326],[8.89092,47.53051],[8.88764,47.5284],[8.8876,47.52839]]]}},{"type":"Feature","properties":{"name":"Gachnang","cantonId":"thurgau","municipalityId":"gachnang-4571"},"geometry":{"type":"Polygon","coordinates":[[[8.86651,47.53047],[8.84071,47.53275],[8.83994,47.53933],[8.83441,47.54291],[8.82979,47.55171],[8.82789,47.55598],[8.82946,47.5576],[8.83868,47.55735],[8.84164,47.56002],[8.85109,47.5608],[8.85254,47.56694],[8.85488,47.56666],[8.85591,47.56943],[8.86512,47.56772],[8.8638,47.56105],[8.86598,47.56134],[8.86774,47.55632],[8.87231,47.55665],[8.87328,47.55353],[8.86996,47.55242],[8.87608,47.5493],[8.87612,47.54588],[8.88064,47.54532],[8.87997,47.54356],[8.86843,47.54078],[8.86812,47.53642],[8.87198,47.53364],[8.86741,47.53109],[8.86651,47.53047]]]}},{"type":"Feature","properties":{"name":"Gottlieben","cantonId":"thurgau","municipalityId":"gottlieben-4651"},"geometry":{"type":"Polygon","coordinates":[[[9.12144,47.66381],[9.11651,47.66555],[9.12658,47.66632],[9.13902,47.6625],[9.12247,47.66373],[9.12144,47.66381]]]}},{"type":"Feature","properties":{"name":"Güttingen","cantonId":"thurgau","municipalityId":"guettingen-4656"},"geometry":{"type":"Polygon","coordinates":[[[9.31382,47.60115],[9.30573,47.59899],[9.29927,47.59383],[9.30478,47.59078],[9.29897,47.5847],[9.29756,47.57898],[9.28933,47.57828],[9.28683,47.58107],[9.27755,47.58197],[9.27524,47.57964],[9.26669,47.5813],[9.26456,47.57785],[9.26264,47.5792],[9.2643,47.58274],[9.25941,47.5812],[9.2628,47.58389],[9.2621,47.58702],[9.26764,47.58919],[9.2693,47.59393],[9.27585,47.59646],[9.27174,47.6001],[9.27586,47.61035],[9.27347,47.61177],[9.28107,47.61771],[9.29609,47.61285],[9.31381,47.60115],[9.31382,47.60115]]]}},{"type":"Feature","properties":{"name":"Hauptwil-Gottshaus","cantonId":"thurgau","municipalityId":"hauptwil-gottshaus-4486"},"geometry":{"type":"Polygon","coordinates":[[[9.32097,47.49083],[9.29865,47.47723],[9.28118,47.48307],[9.27837,47.47939],[9.26354,47.47467],[9.25116,47.47449],[9.24705,47.47583],[9.24461,47.48028],[9.23904,47.48104],[9.24758,47.48325],[9.24798,47.48876],[9.25958,47.49458],[9.2551,47.49721],[9.25098,47.50363],[9.25988,47.50295],[9.26509,47.50528],[9.27453,47.50031],[9.28283,47.50596],[9.28451,47.50037],[9.29369,47.49619],[9.29659,47.4978],[9.30385,47.4964],[9.302,47.49981],[9.30502,47.50218],[9.30912,47.50106],[9.30874,47.49764],[9.31626,47.50081],[9.31998,47.49729],[9.3209,47.491],[9.32097,47.49083]]]}},{"type":"Feature","properties":{"name":"Hefenhofen","cantonId":"thurgau","municipalityId":"hefenhofen-4416"},"geometry":{"type":"Polygon","coordinates":[[[9.32616,47.56259],[9.32615,47.55699],[9.33217,47.55611],[9.33346,47.5488],[9.32492,47.54844],[9.32456,47.54321],[9.31242,47.54537],[9.30988,47.55509],[9.29728,47.55577],[9.29429,47.56498],[9.29941,47.57069],[9.29786,47.57266],[9.29964,47.57753],[9.30466,47.57741],[9.30794,47.57395],[9.30495,47.56777],[9.31266,47.57209],[9.31389,47.57057],[9.31905,47.57237],[9.32422,47.57111],[9.32554,47.56815],[9.32316,47.56319],[9.32566,47.56299],[9.32616,47.56259]]]}},{"type":"Feature","properties":{"name":"Herdern","cantonId":"thurgau","municipalityId":"herdern-4811"},"geometry":{"type":"Polygon","coordinates":[[[8.92891,47.63781],[8.9299,47.63536],[8.9368,47.6343],[8.93956,47.63128],[8.96046,47.62802],[8.95656,47.62136],[8.95304,47.62289],[8.94318,47.61889],[8.94609,47.61713],[8.9415,47.61694],[8.94502,47.61082],[8.92859,47.60908],[8.92523,47.59723],[8.91297,47.59481],[8.91174,47.59272],[8.90689,47.59617],[8.88572,47.59918],[8.88489,47.60484],[8.8879,47.60727],[8.8981,47.60708],[8.88937,47.61213],[8.89228,47.61492],[8.90401,47.61935],[8.90759,47.62302],[8.91435,47.62315],[8.90859,47.62846],[8.90447,47.62761],[8.90266,47.62931],[8.91482,47.62967],[8.91634,47.6347],[8.92893,47.63783],[8.92891,47.63781]]]}},{"type":"Feature","properties":{"name":"Hohentannen","cantonId":"thurgau","municipalityId":"hohentannen-4495"},"geometry":{"type":"Polygon","coordinates":[[[9.20719,47.5083],[9.20741,47.51913],[9.21463,47.52275],[9.21427,47.52585],[9.21013,47.52866],[9.21218,47.52993],[9.22491,47.53365],[9.23887,47.53458],[9.24089,47.52939],[9.24612,47.52935],[9.24074,47.52503],[9.24059,47.5206],[9.23713,47.51914],[9.23962,47.50834],[9.22901,47.50143],[9.22866,47.49871],[9.22366,47.49518],[9.21288,47.50003],[9.21222,47.50447],[9.2074,47.50804],[9.20719,47.5083]]]}},{"type":"Feature","properties":{"name":"Homburg","cantonId":"thurgau","municipalityId":"homburg-4816"},"geometry":{"type":"Polygon","coordinates":[[[8.94975,47.64966],[8.95792,47.64957],[8.96724,47.64639],[8.96965,47.6488],[8.98634,47.6481],[8.98744,47.65256],[8.9924,47.65055],[8.99991,47.65232],[9.00452,47.65074],[9.00422,47.65374],[9.01198,47.65507],[9.01503,47.65477],[9.01749,47.6514],[9.02063,47.65529],[9.03801,47.65326],[9.03087,47.64689],[9.03528,47.64817],[9.03694,47.64382],[9.03455,47.63972],[9.03632,47.63661],[9.01932,47.62471],[9.02072,47.62083],[8.99114,47.61576],[8.98997,47.61206],[8.99233,47.61023],[8.96622,47.61099],[8.9641,47.61907],[8.96748,47.62072],[8.96582,47.62526],[8.95727,47.62957],[8.93956,47.63128],[8.9368,47.6343],[8.9291,47.63594],[8.92891,47.63781],[8.94009,47.64227],[8.94062,47.64628],[8.94301,47.64554],[8.94841,47.64919],[8.94975,47.64966]]]}},{"type":"Feature","properties":{"name":"Horn","cantonId":"thurgau","municipalityId":"horn-4421"},"geometry":{"type":"Polygon","coordinates":[[[9.44943,47.50142],[9.46519,47.4967],[9.47731,47.49002],[9.46438,47.48414],[9.46573,47.48801],[9.44943,47.4922],[9.44817,47.49361],[9.45037,47.49699],[9.44809,47.49802],[9.44847,47.50074],[9.44943,47.50142]]]}},{"type":"Feature","properties":{"name":"Hüttlingen","cantonId":"thurgau","municipalityId":"huettlingen-4590"},"geometry":{"type":"Polygon","coordinates":[[[8.98475,47.59004],[9.01871,47.58139],[9.01842,47.57612],[9.01157,47.57391],[9.01281,47.57247],[9.00908,47.56891],[9.01238,47.56755],[9.00996,47.56103],[8.99939,47.56101],[8.99934,47.56339],[8.99621,47.56356],[8.99665,47.56666],[8.98601,47.56836],[8.98604,47.56479],[8.96945,47.56205],[8.95986,47.56836],[8.95847,47.57599],[8.95573,47.57542],[8.95758,47.58072],[8.95519,47.58008],[8.95309,47.58379],[8.95558,47.58451],[8.95109,47.58938],[8.98443,47.59009],[8.98475,47.59004]]]}},{"type":"Feature","properties":{"name":"Hüttwilen","cantonId":"thurgau","municipalityId":"huettwilen-4821"},"geometry":{"type":"Polygon","coordinates":[[[8.89933,47.6279],[8.90835,47.62857],[8.91435,47.62315],[8.90759,47.62302],[8.90401,47.61935],[8.89228,47.61492],[8.88937,47.61213],[8.8981,47.60708],[8.8879,47.60727],[8.88522,47.60531],[8.88565,47.59706],[8.85922,47.59931],[8.85628,47.60054],[8.85619,47.60329],[8.84589,47.60435],[8.84637,47.607],[8.84141,47.607],[8.83956,47.6114],[8.83723,47.61199],[8.83214,47.60836],[8.82641,47.60932],[8.82712,47.60657],[8.82176,47.6048],[8.81982,47.6016],[8.81319,47.60113],[8.81327,47.5981],[8.80608,47.6005],[8.80408,47.61163],[8.81379,47.61682],[8.81155,47.61897],[8.8143,47.62108],[8.81171,47.62264],[8.81314,47.62744],[8.82023,47.6293],[8.82533,47.63741],[8.83851,47.63474],[8.841,47.62953],[8.84495,47.6301],[8.84391,47.62853],[8.84723,47.62677],[8.86113,47.62574],[8.86107,47.6238],[8.86956,47.62018],[8.88317,47.617],[8.89745,47.62224],[8.89559,47.62582],[8.89885,47.62768],[8.89933,47.6279]]]}},{"type":"Feature","properties":{"name":"Kemmental","cantonId":"thurgau","municipalityId":"kemmental-4666"},"geometry":{"type":"Polygon","coordinates":[[[9.10018,47.60801],[9.10828,47.61456],[9.10812,47.6166],[9.11843,47.62242],[9.11568,47.62318],[9.12257,47.63255],[9.1401,47.63324],[9.1555,47.62235],[9.16316,47.62149],[9.16468,47.62187],[9.16354,47.62438],[9.15868,47.62574],[9.16303,47.63364],[9.16895,47.63493],[9.16954,47.63271],[9.17394,47.63162],[9.17177,47.62868],[9.17622,47.62592],[9.17568,47.62242],[9.1727,47.62062],[9.17936,47.6173],[9.18032,47.61311],[9.18386,47.61239],[9.18402,47.60648],[9.1773,47.59849],[9.17506,47.59856],[9.17568,47.59147],[9.17217,47.58921],[9.16319,47.59157],[9.16064,47.58834],[9.14811,47.59122],[9.14809,47.58839],[9.14441,47.58659],[9.13469,47.58781],[9.1316,47.58452],[9.11279,47.5836],[9.10737,47.58723],[9.1102,47.59386],[9.09914,47.59387],[9.10034,47.60468],[9.10302,47.60555],[9.10011,47.60795],[9.10018,47.60801]]]}},{"type":"Feature","properties":{"name":"Kesswil","cantonId":"thurgau","municipalityId":"kesswil-4426"},"geometry":{"type":"Polygon","coordinates":[[[9.29756,47.57898],[9.29897,47.5847],[9.30478,47.59078],[9.29927,47.59383],[9.30573,47.59899],[9.31382,47.60115],[9.33166,47.59145],[9.3271,47.5869],[9.32898,47.58426],[9.32683,47.58264],[9.32885,47.58163],[9.32731,47.58048],[9.32158,47.58367],[9.31863,47.58087],[9.31545,47.58109],[9.31209,47.57348],[9.30714,47.57282],[9.3054,47.57701],[9.29763,47.57849],[9.29756,47.57898]]]}},{"type":"Feature","properties":{"name":"Kradolf-Schönenberg","cantonId":"thurgau","municipalityId":"kradolf-schoenenberg-4501"},"geometry":{"type":"Polygon","coordinates":[[[9.17258,47.53113],[9.17685,47.52629],[9.18235,47.53027],[9.18494,47.52848],[9.19831,47.53046],[9.20103,47.52855],[9.21013,47.52866],[9.21427,47.52585],[9.21463,47.52275],[9.20741,47.51913],[9.20719,47.5083],[9.20382,47.50785],[9.20255,47.50995],[9.2043,47.51103],[9.19754,47.51478],[9.19321,47.51428],[9.19158,47.51079],[9.18054,47.50673],[9.1772,47.49856],[9.1786,47.49607],[9.17372,47.49451],[9.16918,47.4983],[9.17196,47.50332],[9.16914,47.50396],[9.16802,47.50127],[9.16539,47.50525],[9.15207,47.50183],[9.14969,47.50379],[9.16489,47.51525],[9.1554,47.51787],[9.15556,47.52201],[9.15352,47.52181],[9.15623,47.52455],[9.15462,47.52877],[9.16095,47.53377],[9.15994,47.53517],[9.16332,47.5351],[9.16382,47.53761],[9.17105,47.53293],[9.17258,47.53113]]]}},{"type":"Feature","properties":{"name":"Kreuzlingen","cantonId":"thurgau","municipalityId":"kreuzlingen-4671"},"geometry":{"type":"Polygon","coordinates":[[[9.20588,47.64431],[9.20087,47.63299],[9.19839,47.63159],[9.1948,47.633],[9.19335,47.6304],[9.18758,47.63122],[9.18194,47.62084],[9.17351,47.62192],[9.17568,47.62242],[9.17622,47.62585],[9.17177,47.62868],[9.17397,47.63158],[9.1658,47.63554],[9.15868,47.62574],[9.16354,47.62438],[9.16462,47.6217],[9.15563,47.62229],[9.1401,47.63324],[9.14492,47.64113],[9.14836,47.64266],[9.14905,47.64641],[9.1598,47.65128],[9.16062,47.65452],[9.15887,47.65598],[9.16352,47.6603],[9.17063,47.65482],[9.18178,47.65595],[9.1813,47.65298],[9.18345,47.65436],[9.19142,47.64928],[9.19104,47.64775],[9.1949,47.64885],[9.20578,47.64433],[9.20588,47.64431]]]}},{"type":"Feature","properties":{"name":"Langrickenbach","cantonId":"thurgau","municipalityId":"langrickenbach-4681"},"geometry":{"type":"Polygon","coordinates":[[[9.26187,47.58619],[9.2628,47.58389],[9.25941,47.5812],[9.2643,47.58274],[9.26264,47.5792],[9.26456,47.57785],[9.26669,47.5813],[9.272,47.58101],[9.27524,47.57964],[9.27379,47.57566],[9.26455,47.57442],[9.26391,47.57005],[9.26088,47.57538],[9.25801,47.57376],[9.2594,47.57052],[9.25381,47.57205],[9.25346,47.57554],[9.25164,47.57243],[9.24592,47.57084],[9.24398,47.57709],[9.23887,47.57591],[9.23283,47.58369],[9.2335,47.58963],[9.22266,47.59155],[9.22103,47.59373],[9.21588,47.59147],[9.21583,47.59504],[9.22252,47.59774],[9.21855,47.60043],[9.2217,47.6028],[9.21945,47.60485],[9.22027,47.60879],[9.21575,47.6104],[9.21599,47.61557],[9.21859,47.61676],[9.22264,47.61549],[9.22391,47.61839],[9.22627,47.61721],[9.22932,47.62006],[9.23381,47.61752],[9.23579,47.61893],[9.24717,47.60682],[9.24483,47.60543],[9.25775,47.59517],[9.25498,47.59358],[9.25796,47.59127],[9.25759,47.58564],[9.26138,47.58598],[9.26187,47.58619]]]}},{"type":"Feature","properties":{"name":"Lengwil","cantonId":"thurgau","municipalityId":"lengwil-4683"},"geometry":{"type":"Polygon","coordinates":[[[9.20336,47.59508],[9.20391,47.59799],[9.20034,47.60052],[9.19691,47.60216],[9.19401,47.59997],[9.18581,47.60445],[9.18736,47.60612],[9.18402,47.60648],[9.18386,47.61239],[9.18032,47.61311],[9.17936,47.6173],[9.17296,47.62107],[9.18194,47.62084],[9.18488,47.62892],[9.18758,47.63122],[9.19335,47.6304],[9.1948,47.633],[9.19839,47.63159],[9.20033,47.62565],[9.20372,47.62899],[9.20804,47.62707],[9.21201,47.62187],[9.21635,47.62048],[9.21498,47.61801],[9.21868,47.61677],[9.21599,47.61557],[9.21575,47.6104],[9.22027,47.60879],[9.21945,47.60485],[9.2217,47.6028],[9.21855,47.60043],[9.22252,47.59774],[9.21169,47.59226],[9.20477,47.59173],[9.20358,47.59456],[9.20336,47.59508]]]}},{"type":"Feature","properties":{"name":"Lommis","cantonId":"thurgau","municipalityId":"lommis-4741"},"geometry":{"type":"Polygon","coordinates":[[[9.01044,47.50552],[9.00233,47.50792],[8.99138,47.50219],[8.98349,47.50916],[8.97752,47.50878],[8.97461,47.51524],[8.97032,47.51652],[8.96879,47.51932],[8.96798,47.5251],[8.97013,47.52802],[8.98858,47.53102],[8.992,47.53372],[8.9943,47.53141],[8.99879,47.53401],[9.007,47.53337],[9.0111,47.5358],[9.01051,47.53026],[9.00717,47.52881],[9.01304,47.52599],[9.01442,47.52182],[9.0116,47.52092],[9.01603,47.51408],[9.00951,47.50983],[9.01045,47.50553],[9.01044,47.50552]]]}},{"type":"Feature","properties":{"name":"Märstetten","cantonId":"thurgau","municipalityId":"maerstetten-4941"},"geometry":{"type":"Polygon","coordinates":[[[9.11058,47.58575],[9.10494,47.58418],[9.09648,47.58611],[9.09053,47.58407],[9.07839,47.57474],[9.07891,47.57284],[9.07587,47.57218],[9.06649,47.57667],[9.05875,47.57673],[9.05751,47.57361],[9.04965,47.57457],[9.04845,47.58207],[9.04958,47.58479],[9.05288,47.58479],[9.05219,47.59106],[9.05813,47.59881],[9.06274,47.59759],[9.06847,47.60058],[9.10052,47.60468],[9.09914,47.59387],[9.1102,47.59386],[9.10737,47.58723],[9.11043,47.58587],[9.11058,47.58575]]]}},{"type":"Feature","properties":{"name":"Mammern","cantonId":"thurgau","municipalityId":"mammern-4826"},"geometry":{"type":"Polygon","coordinates":[[[8.94975,47.64966],[8.94301,47.64554],[8.94062,47.64628],[8.94009,47.64227],[8.93125,47.63773],[8.91634,47.6347],[8.91482,47.62967],[8.90505,47.63033],[8.89933,47.6279],[8.89478,47.63259],[8.89686,47.63469],[8.89467,47.63621],[8.89523,47.64421],[8.90653,47.64375],[8.91671,47.64829],[8.9219,47.64641],[8.93141,47.6525],[8.94406,47.65252],[8.9475,47.65494],[8.94909,47.65504],[8.94768,47.65218],[8.94969,47.64977],[8.94975,47.64966]]]}},{"type":"Feature","properties":{"name":"Matzingen","cantonId":"thurgau","municipalityId":"matzingen-4591"},"geometry":{"type":"Polygon","coordinates":[[[8.93868,47.51266],[8.92958,47.50705],[8.92489,47.51031],[8.91186,47.51315],[8.91006,47.52548],[8.90774,47.52708],[8.90947,47.53034],[8.92403,47.52974],[8.92294,47.53225],[8.92875,47.54009],[8.92729,47.54541],[8.93347,47.55202],[8.93762,47.55248],[8.93687,47.54767],[8.94307,47.54375],[8.93742,47.53927],[8.94092,47.53887],[8.94839,47.53084],[8.93976,47.5265],[8.94293,47.52146],[8.94164,47.52032],[8.94527,47.52122],[8.94721,47.51907],[8.93821,47.51439],[8.93942,47.51297],[8.93868,47.51266]]]}},{"type":"Feature","properties":{"name":"Müllheim","cantonId":"thurgau","municipalityId":"muellheim-4831"},"geometry":{"type":"Polygon","coordinates":[[[8.98475,47.59004],[8.98256,47.60928],[8.99233,47.61023],[8.98997,47.61206],[8.99114,47.61576],[9.01977,47.62046],[9.02294,47.61955],[9.02366,47.61697],[9.02056,47.61688],[9.02432,47.61349],[9.02171,47.61125],[9.02629,47.61168],[9.02917,47.60714],[9.01165,47.59848],[9.01034,47.59742],[9.01475,47.59644],[9.01363,47.59405],[9.00656,47.58944],[9.00807,47.58641],[9.01399,47.58801],[9.02036,47.58538],[9.01871,47.58139],[8.98543,47.58994],[8.98475,47.59004]]]}},{"type":"Feature","properties":{"name":"Münchwilen (TG)","cantonId":"thurgau","municipalityId":"muenchwilen-tg-4746"},"geometry":{"type":"Polygon","coordinates":[[[8.96264,47.4729],[8.96733,47.47679],[8.96617,47.47938],[8.96819,47.48112],[8.9657,47.48177],[8.9675,47.48357],[8.97299,47.48437],[8.9777,47.48127],[8.98584,47.49271],[8.99339,47.49225],[8.99131,47.49399],[8.99396,47.49742],[8.99998,47.49735],[9.00342,47.50026],[9.01048,47.49683],[9.01159,47.48685],[9.00359,47.48119],[9.0088,47.47975],[9.00874,47.47579],[9.01197,47.47534],[9.00822,47.47237],[9.02949,47.46666],[9.02844,47.46389],[9.03073,47.46179],[9.02754,47.4609],[9.02066,47.46731],[9.01168,47.47084],[8.98619,47.47344],[8.98408,47.46852],[8.98332,47.47017],[8.97396,47.4703],[8.96809,47.46866],[8.96285,47.47266],[8.96264,47.4729]]]}},{"type":"Feature","properties":{"name":"Münsterlingen","cantonId":"thurgau","municipalityId":"muensterlingen-4691"},"geometry":{"type":"Polygon","coordinates":[[[9.21236,47.62175],[9.2202,47.62824],[9.21632,47.62996],[9.22055,47.63233],[9.21567,47.63521],[9.21968,47.63925],[9.22624,47.63531],[9.23157,47.63586],[9.23566,47.63292],[9.24458,47.63227],[9.26449,47.62386],[9.25664,47.61792],[9.24345,47.61847],[9.24027,47.61533],[9.23579,47.61893],[9.23381,47.61752],[9.22962,47.62009],[9.22143,47.61564],[9.21498,47.61801],[9.21635,47.62048],[9.21232,47.62167],[9.21236,47.62175]]]}},{"type":"Feature","properties":{"name":"Neunforn","cantonId":"thurgau","municipalityId":"neunforn-4601"},"geometry":{"type":"Polygon","coordinates":[[[8.76195,47.59285],[8.74823,47.59231],[8.74566,47.59649],[8.74878,47.60004],[8.7394,47.60804],[8.74017,47.6119],[8.74581,47.61294],[8.74591,47.62116],[8.74813,47.62304],[8.75632,47.61662],[8.76219,47.61808],[8.7898,47.6094],[8.78879,47.60344],[8.80282,47.60114],[8.80168,47.60296],[8.80405,47.60812],[8.80608,47.6005],[8.80999,47.60043],[8.81054,47.59751],[8.80371,47.59668],[8.80396,47.59234],[8.79802,47.58502],[8.76262,47.59282],[8.76195,47.59285]]]}},{"type":"Feature","properties":{"name":"Pfyn","cantonId":"thurgau","municipalityId":"pfyn-4841"},"geometry":{"type":"Polygon","coordinates":[[[8.98252,47.60919],[8.98475,47.59004],[8.9175,47.587],[8.91159,47.59224],[8.91297,47.59481],[8.92523,47.59723],[8.92859,47.60908],[8.94502,47.61082],[8.9415,47.61694],[8.94609,47.61713],[8.94308,47.6188],[8.95304,47.62289],[8.95656,47.62136],[8.96114,47.62749],[8.96582,47.62526],[8.9674,47.62131],[8.9641,47.61907],[8.96622,47.61099],[8.98223,47.61002],[8.98252,47.60919]]]}},{"type":"Feature","properties":{"name":"Raperswilen","cantonId":"thurgau","municipalityId":"raperswilen-4846"},"geometry":{"type":"Polygon","coordinates":[[[9.03223,47.6559],[9.05205,47.65143],[9.05211,47.64403],[9.0568,47.64536],[9.05968,47.64348],[9.06908,47.6469],[9.07464,47.64245],[9.07109,47.63541],[9.06117,47.63271],[9.05952,47.63503],[9.05661,47.63466],[9.05871,47.6318],[9.05724,47.63019],[9.06045,47.62891],[9.05654,47.62435],[9.01949,47.6215],[9.01932,47.62471],[9.03632,47.63661],[9.03455,47.63972],[9.03694,47.64382],[9.03528,47.64817],[9.03087,47.64689],[9.03801,47.65326],[9.03132,47.65306],[9.03216,47.65585],[9.03223,47.6559]]]}},{"type":"Feature","properties":{"name":"Rickenbach (TG)","cantonId":"thurgau","municipalityId":"rickenbach-tg-4751"},"geometry":{"type":"Polygon","coordinates":[[[9.05432,47.4432],[9.04746,47.44423],[9.04251,47.44016],[9.0381,47.44145],[9.04119,47.44226],[9.04108,47.44411],[9.03673,47.44386],[9.03951,47.44569],[9.03625,47.44645],[9.04153,47.45292],[9.04762,47.45353],[9.05433,47.45057],[9.05459,47.44852],[9.06253,47.44637],[9.05704,47.44563],[9.05896,47.44318],[9.05434,47.44329],[9.05432,47.4432]]]}},{"type":"Feature","properties":{"name":"Roggwil (TG)","cantonId":"thurgau","municipalityId":"roggwil-tg-4431"},"geometry":{"type":"Polygon","coordinates":[[[9.36981,47.48887],[9.37279,47.49046],[9.36844,47.49208],[9.36891,47.49403],[9.37368,47.49484],[9.37446,47.49966],[9.36464,47.50179],[9.37273,47.511],[9.37641,47.51207],[9.37806,47.50994],[9.38328,47.50968],[9.38799,47.5121],[9.38527,47.5165],[9.38826,47.52079],[9.38754,47.5254],[9.39026,47.5277],[9.40195,47.52752],[9.40366,47.52609],[9.40186,47.5224],[9.4128,47.519],[9.4107,47.51621],[9.41231,47.51317],[9.4044,47.51319],[9.40874,47.51075],[9.40716,47.50769],[9.40549,47.50837],[9.41097,47.50168],[9.41932,47.50115],[9.41896,47.49886],[9.41353,47.49752],[9.40957,47.49338],[9.40613,47.4937],[9.40359,47.4876],[9.40041,47.4861],[9.40211,47.48474],[9.40058,47.47931],[9.39636,47.47783],[9.39699,47.47498],[9.37961,47.48547],[9.38083,47.48731],[9.36653,47.48546],[9.36951,47.48874],[9.36981,47.48887]]]}},{"type":"Feature","properties":{"name":"Romanshorn","cantonId":"thurgau","municipalityId":"romanshorn-4436"},"geometry":{"type":"Polygon","coordinates":[[[9.32616,47.56259],[9.33922,47.56671],[9.34464,47.57282],[9.34775,47.57097],[9.35164,47.57278],[9.3576,47.58089],[9.38524,47.56997],[9.3856,47.567],[9.3831,47.56572],[9.38475,47.56191],[9.38203,47.56079],[9.38116,47.55634],[9.36461,47.55627],[9.36368,47.55377],[9.35166,47.55267],[9.35422,47.55181],[9.3529,47.54954],[9.33514,47.55148],[9.33235,47.54961],[9.33217,47.55611],[9.32615,47.55699],[9.32635,47.56215],[9.32616,47.56259]]]}},{"type":"Feature","properties":{"name":"Salenstein","cantonId":"thurgau","municipalityId":"salenstein-4851"},"geometry":{"type":"Polygon","coordinates":[[[9.07156,47.64493],[9.06554,47.64685],[9.05968,47.64348],[9.0568,47.64536],[9.05211,47.64403],[9.05205,47.65143],[9.04046,47.65389],[9.04184,47.65774],[9.0402,47.66339],[9.04253,47.66484],[9.0359,47.67126],[9.04052,47.67153],[9.04191,47.66944],[9.04415,47.67051],[9.04394,47.67298],[9.0483,47.67449],[9.06557,47.6742],[9.06152,47.66885],[9.07353,47.66246],[9.07036,47.65981],[9.07677,47.65846],[9.07751,47.65188],[9.07133,47.64787],[9.07299,47.64586],[9.07156,47.64493]]]}},{"type":"Feature","properties":{"name":"Salmsach","cantonId":"thurgau","municipalityId":"salmsach-4441"},"geometry":{"type":"Polygon","coordinates":[[[9.38165,47.5525],[9.37021,47.54943],[9.36433,47.5454],[9.35539,47.54714],[9.34034,47.54623],[9.32303,47.54208],[9.32213,47.54339],[9.32542,47.54494],[9.32492,47.54844],[9.33301,47.54794],[9.33506,47.55148],[9.3529,47.54954],[9.35422,47.55181],[9.35166,47.55267],[9.37353,47.55667],[9.38061,47.55627],[9.38151,47.55262],[9.38165,47.5525]]]}},{"type":"Feature","properties":{"name":"Schlatt (TG)","cantonId":"thurgau","municipalityId":"schlatt-tg-4546"},"geometry":{"type":"Polygon","coordinates":[[[8.73173,47.64197],[8.72466,47.64305],[8.71969,47.6411],[8.71419,47.64438],[8.70866,47.64191],[8.70035,47.64703],[8.68806,47.64997],[8.67769,47.66258],[8.67905,47.6678],[8.67688,47.67177],[8.66869,47.67574],[8.66943,47.68485],[8.67861,47.68758],[8.6897,47.69532],[8.70212,47.69187],[8.70258,47.68759],[8.70576,47.68701],[8.7072,47.67625],[8.71445,47.67858],[8.72189,47.6621],[8.72428,47.66214],[8.72219,47.65881],[8.72331,47.65228],[8.73226,47.65102],[8.72954,47.64972],[8.73077,47.64691],[8.7291,47.64354],[8.73218,47.64288],[8.73173,47.64197]]]}},{"type":"Feature","properties":{"name":"Schönholzerswilen","cantonId":"thurgau","municipalityId":"schoenholzerswilen-4756"},"geometry":{"type":"Polygon","coordinates":[[[9.158,47.53305],[9.15853,47.53089],[9.15462,47.52877],[9.15623,47.52455],[9.15352,47.52181],[9.15556,47.52201],[9.1571,47.51654],[9.1648,47.51482],[9.15179,47.50628],[9.14969,47.50379],[9.15207,47.50183],[9.14165,47.49391],[9.13512,47.49535],[9.13394,47.49825],[9.13573,47.50081],[9.13,47.5043],[9.12851,47.50824],[9.11557,47.50284],[9.11244,47.50424],[9.11816,47.50927],[9.11063,47.51284],[9.09965,47.50594],[9.0951,47.50723],[9.09643,47.50949],[9.10301,47.51064],[9.10103,47.51715],[9.10347,47.51806],[9.09983,47.51931],[9.10196,47.52395],[9.09956,47.52511],[9.11315,47.52727],[9.12297,47.52541],[9.12696,47.52221],[9.13842,47.52665],[9.13908,47.52983],[9.14119,47.5292],[9.13873,47.53243],[9.14199,47.53356],[9.14507,47.5304],[9.1559,47.53281],[9.158,47.53305]]]}},{"type":"Feature","properties":{"name":"Sirnach","cantonId":"thurgau","municipalityId":"sirnach-4761"},"geometry":{"type":"Polygon","coordinates":[[[8.97673,47.44809],[8.97441,47.44987],[8.97642,47.45264],[8.97114,47.45449],[8.96996,47.45743],[8.97369,47.45991],[8.9834,47.45949],[8.98441,47.46055],[8.98029,47.46307],[8.98619,47.47344],[9.01168,47.47084],[9.02261,47.46602],[9.02798,47.46053],[9.02591,47.45576],[9.02795,47.45456],[9.02441,47.45324],[9.02455,47.44927],[9.02772,47.44766],[9.02511,47.4462],[9.02709,47.44559],[9.02134,47.44506],[9.02044,47.44352],[9.02256,47.44208],[9.01875,47.43676],[9.01105,47.43337],[9.01011,47.43528],[8.99969,47.43469],[8.99469,47.44122],[8.9964,47.44266],[8.98626,47.44167],[8.98185,47.44767],[8.97734,47.44812],[8.97673,47.44809]]]}},{"type":"Feature","properties":{"name":"Sommeri","cantonId":"thurgau","municipalityId":"sommeri-4446"},"geometry":{"type":"Polygon","coordinates":[[[9.29756,47.57898],[9.29964,47.57753],[9.29786,47.57266],[9.29948,47.57098],[9.29429,47.56498],[9.29639,47.55881],[9.2901,47.55857],[9.28491,47.56359],[9.278,47.56372],[9.2651,47.5682],[9.26455,47.57442],[9.27379,47.57566],[9.27516,47.58122],[9.28647,47.58115],[9.28933,47.57828],[9.29742,47.57916],[9.29756,47.57898]]]}},{"type":"Feature","properties":{"name":"Steckborn","cantonId":"thurgau","municipalityId":"steckborn-4864"},"geometry":{"type":"Polygon","coordinates":[[[8.94975,47.64966],[8.94768,47.65218],[8.94909,47.65504],[8.95235,47.65419],[8.95751,47.65762],[8.96181,47.65628],[8.96985,47.65904],[8.97272,47.66464],[8.97998,47.66522],[8.98144,47.66868],[8.98931,47.66835],[8.99993,47.67136],[9.00402,47.6713],[9.00541,47.66725],[9.01323,47.66763],[9.01838,47.66456],[9.01691,47.66332],[9.02497,47.6615],[9.03217,47.65609],[9.02063,47.65529],[9.01906,47.65143],[9.01198,47.65507],[9.00422,47.65374],[9.00428,47.6507],[8.99991,47.65232],[8.9924,47.65055],[8.98744,47.65256],[8.98634,47.6481],[8.96965,47.6488],[8.96724,47.64639],[8.95792,47.64957],[8.94976,47.64965],[8.94975,47.64966]]]}},{"type":"Feature","properties":{"name":"Stettfurt","cantonId":"thurgau","municipalityId":"stettfurt-4606"},"geometry":{"type":"Polygon","coordinates":[[[8.97491,47.51363],[8.96062,47.5141],[8.95244,47.50966],[8.94754,47.51187],[8.94273,47.51121],[8.93821,47.51439],[8.94721,47.51907],[8.94527,47.52122],[8.94164,47.52032],[8.94293,47.52146],[8.93976,47.5265],[8.94839,47.53084],[8.94092,47.53887],[8.93742,47.53927],[8.94302,47.54079],[8.95019,47.5403],[8.9523,47.53759],[8.97413,47.535],[8.97371,47.53251],[8.98151,47.53071],[8.96832,47.52589],[8.97032,47.51652],[8.97461,47.51524],[8.97491,47.51363]]]}},{"type":"Feature","properties":{"name":"Sulgen","cantonId":"thurgau","municipalityId":"sulgen-4506"},"geometry":{"type":"Polygon","coordinates":[[[9.17258,47.53113],[9.17595,47.53201],[9.16858,47.54401],[9.16997,47.5525],[9.18682,47.55265],[9.18811,47.5561],[9.19283,47.55744],[9.19221,47.55888],[9.19687,47.56182],[9.20038,47.56207],[9.20358,47.55826],[9.20922,47.55813],[9.20709,47.55158],[9.21002,47.54833],[9.19933,47.53949],[9.22144,47.53862],[9.22542,47.53631],[9.22537,47.53371],[9.20635,47.52785],[9.19831,47.53046],[9.18494,47.52848],[9.18235,47.53027],[9.17685,47.52629],[9.17312,47.53049],[9.17258,47.53113]]]}},{"type":"Feature","properties":{"name":"Tägerwilen","cantonId":"thurgau","municipalityId":"taegerwilen-4696"},"geometry":{"type":"Polygon","coordinates":[[[9.12144,47.66381],[9.13902,47.6625],[9.1483,47.66652],[9.15668,47.66607],[9.16352,47.6603],[9.15887,47.65598],[9.16062,47.65452],[9.1598,47.65128],[9.14905,47.64641],[9.14836,47.64266],[9.14492,47.64113],[9.14027,47.63335],[9.12257,47.63255],[9.1196,47.63016],[9.11886,47.6258],[9.11476,47.62312],[9.11023,47.62555],[9.10601,47.63538],[9.10793,47.63882],[9.10708,47.64271],[9.11299,47.64892],[9.10972,47.65379],[9.11511,47.65399],[9.11569,47.65752],[9.12074,47.65978],[9.12122,47.66214],[9.12144,47.66381]]]}},{"type":"Feature","properties":{"name":"Thundorf","cantonId":"thurgau","municipalityId":"thundorf-4611"},"geometry":{"type":"Polygon","coordinates":[[[9.0117,47.54244],[9.01412,47.53901],[9.01219,47.53508],[9.00139,47.53276],[8.99879,47.53401],[8.9943,47.53141],[8.992,47.53372],[8.98318,47.53037],[8.97371,47.53251],[8.97413,47.535],[8.95215,47.53762],[8.95019,47.5403],[8.93983,47.5403],[8.93909,47.54197],[8.94307,47.54375],[8.93687,47.54767],[8.93612,47.55038],[8.94582,47.55504],[8.94004,47.56238],[8.94758,47.5621],[8.95223,47.56444],[8.96945,47.56205],[8.98604,47.56479],[8.98601,47.56836],[8.99665,47.56666],[8.99621,47.56356],[9.00219,47.56074],[9.00482,47.55246],[8.99702,47.54515],[9.00541,47.54602],[9.00674,47.54297],[9.00966,47.54439],[9.01141,47.54257],[9.0117,47.54244]]]}},{"type":"Feature","properties":{"name":"Tobel-Tägerschen","cantonId":"thurgau","municipalityId":"tobel-taegerschen-4776"},"geometry":{"type":"Polygon","coordinates":[[[9.01044,47.50552],[9.00951,47.50983],[9.02489,47.51665],[9.02997,47.52174],[9.04653,47.52486],[9.04908,47.52307],[9.0483,47.5214],[9.0519,47.52248],[9.05351,47.52068],[9.05781,47.52276],[9.06427,47.51939],[9.06831,47.52019],[9.07121,47.51284],[9.07613,47.51007],[9.07192,47.50834],[9.06292,47.5112],[9.06011,47.51449],[9.05458,47.51412],[9.05362,47.51173],[9.04139,47.51097],[9.04407,47.5049],[9.04216,47.50419],[9.04293,47.50232],[9.04745,47.49889],[9.04209,47.49579],[9.0405,47.50049],[9.03173,47.50225],[9.01396,47.50267],[9.01149,47.50078],[9.00841,47.50477],[9.01049,47.50539],[9.01044,47.50552]]]}},{"type":"Feature","properties":{"name":"Uesslingen-Buch","cantonId":"thurgau","municipalityId":"uesslingen-buch-4616"},"geometry":{"type":"Polygon","coordinates":[[[8.79802,47.58502],[8.80396,47.59234],[8.80371,47.59668],[8.81327,47.5981],[8.81319,47.60113],[8.81982,47.6016],[8.82176,47.6048],[8.82712,47.60657],[8.82641,47.60932],[8.83214,47.60836],[8.83815,47.61189],[8.84141,47.607],[8.84637,47.607],[8.84589,47.60435],[8.85619,47.60329],[8.85628,47.60054],[8.86304,47.59889],[8.86168,47.58894],[8.85903,47.58817],[8.86112,47.58592],[8.84996,47.58584],[8.85158,47.57839],[8.84109,47.57572],[8.84044,47.57127],[8.83123,47.57339],[8.83002,47.5711],[8.82249,47.57306],[8.81659,47.57017],[8.80741,47.57157],[8.8081,47.57433],[8.80475,47.57506],[8.80621,47.5795],[8.80107,47.58054],[8.8024,47.58285],[8.80605,47.58315],[8.79802,47.58502]]]}},{"type":"Feature","properties":{"name":"Uttwil","cantonId":"thurgau","municipalityId":"uttwil-4451"},"geometry":{"type":"Polygon","coordinates":[[[9.32616,47.56259],[9.32316,47.56319],[9.32554,47.56815],[9.32383,47.57179],[9.33033,47.57611],[9.32644,47.57827],[9.32872,47.57892],[9.32683,47.58264],[9.32898,47.58426],[9.32684,47.58559],[9.33166,47.59145],[9.3574,47.58096],[9.35728,47.57914],[9.35164,47.57278],[9.34775,47.57097],[9.34464,47.57282],[9.33922,47.56671],[9.32646,47.56278],[9.32616,47.56259]]]}},{"type":"Feature","properties":{"name":"Wäldi","cantonId":"thurgau","municipalityId":"waeldi-4701"},"geometry":{"type":"Polygon","coordinates":[[[9.10018,47.60801],[9.0976,47.60901],[9.09908,47.61107],[9.09714,47.61269],[9.04754,47.61111],[9.04538,47.61464],[9.0496,47.61652],[9.04925,47.62039],[9.06045,47.62891],[9.05724,47.63019],[9.05871,47.6318],[9.05661,47.63466],[9.05952,47.63503],[9.06117,47.63271],[9.07109,47.63541],[9.07065,47.63712],[9.07365,47.63749],[9.07349,47.64172],[9.07739,47.64293],[9.08316,47.64015],[9.10505,47.63684],[9.11023,47.62555],[9.11843,47.62242],[9.10812,47.6166],[9.10828,47.61456],[9.10025,47.60805],[9.10018,47.60801]]]}},{"type":"Feature","properties":{"name":"Wängi","cantonId":"thurgau","municipalityId":"waengi-4781"},"geometry":{"type":"Polygon","coordinates":[[[8.96264,47.4729],[8.95363,47.47044],[8.94864,47.47148],[8.9469,47.46772],[8.94244,47.47182],[8.93865,47.47122],[8.93659,47.47722],[8.92977,47.48],[8.93009,47.48403],[8.92668,47.4842],[8.92535,47.48824],[8.92196,47.48868],[8.92297,47.49141],[8.92847,47.493],[8.92905,47.49656],[8.94125,47.49694],[8.94257,47.49866],[8.93091,47.508],[8.9378,47.51282],[8.95244,47.50966],[8.96062,47.5141],[8.97505,47.51366],[8.97752,47.50878],[8.98349,47.50916],[8.98771,47.50379],[8.99557,47.50023],[8.99634,47.49713],[8.99375,47.4973],[8.99131,47.49399],[8.99339,47.49225],[8.98584,47.49271],[8.9777,47.48127],[8.97299,47.48437],[8.9675,47.48357],[8.9657,47.48177],[8.96819,47.48112],[8.96617,47.47938],[8.96733,47.47679],[8.96428,47.47363],[8.96264,47.4729]]]}},{"type":"Feature","properties":{"name":"Wagenhausen","cantonId":"thurgau","municipalityId":"wagenhausen-4871"},"geometry":{"type":"Polygon","coordinates":[[[8.80314,47.66527],[8.80608,47.66659],[8.79919,47.6701],[8.79886,47.67624],[8.80243,47.67817],[8.81676,47.67782],[8.83089,47.67434],[8.8384,47.67023],[8.8415,47.66446],[8.85457,47.66067],[8.84563,47.65306],[8.85165,47.65125],[8.84768,47.64691],[8.8505,47.64289],[8.84982,47.63628],[8.83851,47.63474],[8.82533,47.63741],[8.82779,47.64078],[8.82618,47.64695],[8.80486,47.65223],[8.80493,47.6604],[8.80341,47.66064],[8.80526,47.66472],[8.80327,47.66521],[8.80314,47.66527]]]}},{"type":"Feature","properties":{"name":"Warth-Weiningen","cantonId":"thurgau","municipalityId":"warth-weiningen-4621"},"geometry":{"type":"Polygon","coordinates":[[[8.88572,47.59918],[8.90689,47.59617],[8.9175,47.587],[8.88215,47.57885],[8.85027,47.57673],[8.85165,47.58271],[8.84996,47.58584],[8.86118,47.58601],[8.85903,47.58817],[8.86168,47.58894],[8.86314,47.59914],[8.88259,47.59664],[8.88612,47.59829],[8.88572,47.59918]]]}},{"type":"Feature","properties":{"name":"Weinfelden","cantonId":"thurgau","municipalityId":"weinfelden-4946"},"geometry":{"type":"Polygon","coordinates":[[[9.11058,47.58575],[9.11279,47.5836],[9.12354,47.58319],[9.13209,47.58467],[9.13469,47.58781],[9.14556,47.58573],[9.14312,47.57864],[9.14599,47.57247],[9.14017,47.57325],[9.13756,47.56451],[9.14248,47.56455],[9.14214,47.56086],[9.13402,47.56061],[9.12892,47.54869],[9.08711,47.55921],[9.06992,47.56695],[9.09053,47.58407],[9.09648,47.58611],[9.10494,47.58418],[9.11054,47.58573],[9.11058,47.58575]]]}},{"type":"Feature","properties":{"name":"Wigoltingen","cantonId":"thurgau","municipalityId":"wigoltingen-4951"},"geometry":{"type":"Polygon","coordinates":[[[9.10018,47.60801],[9.10302,47.60555],[9.09919,47.6037],[9.05617,47.59808],[9.05219,47.59106],[9.05288,47.58479],[9.04958,47.58479],[9.04845,47.58207],[9.04965,47.57457],[9.03869,47.57519],[9.01871,47.58139],[9.02036,47.58538],[9.01399,47.58801],[9.00807,47.58641],[9.00658,47.58936],[9.01363,47.59405],[9.01475,47.59644],[9.01034,47.59742],[9.01165,47.59848],[9.02917,47.60714],[9.02629,47.61168],[9.02171,47.61125],[9.02432,47.61349],[9.02388,47.61532],[9.02061,47.61516],[9.02056,47.61688],[9.02366,47.61697],[9.02056,47.6208],[9.0524,47.62462],[9.05418,47.62251],[9.04925,47.62039],[9.0496,47.61652],[9.04538,47.61464],[9.04754,47.61111],[9.09714,47.61269],[9.09908,47.61107],[9.0976,47.60901],[9.10015,47.6081],[9.10018,47.60801]]]}},{"type":"Feature","properties":{"name":"Wilen (TG)","cantonId":"thurgau","municipalityId":"wilen-tg-4786"},"geometry":{"type":"Polygon","coordinates":[[[9.0381,47.44145],[9.03662,47.4395],[9.03832,47.43712],[9.03401,47.43548],[9.03682,47.43755],[9.03502,47.43925],[9.02647,47.43723],[9.02044,47.44352],[9.02263,47.44596],[9.02709,47.44559],[9.02511,47.4462],[9.02752,47.44834],[9.02455,47.44927],[9.02457,47.45454],[9.02812,47.45532],[9.02591,47.45576],[9.02652,47.45824],[9.04365,47.45384],[9.03625,47.44645],[9.03951,47.44569],[9.03673,47.44386],[9.04108,47.44411],[9.04119,47.44226],[9.03805,47.44161],[9.0381,47.44145]]]}},{"type":"Feature","properties":{"name":"Wuppenau","cantonId":"thurgau","municipalityId":"wuppenau-4791"},"geometry":{"type":"Polygon","coordinates":[[[9.12942,47.4845],[9.11846,47.47972],[9.116,47.47973],[9.11285,47.48441],[9.09855,47.4856],[9.08977,47.48282],[9.08639,47.4883],[9.0836,47.48903],[9.08462,47.49207],[9.08192,47.49523],[9.09525,47.50306],[9.09644,47.50728],[9.09965,47.50594],[9.11063,47.51284],[9.11816,47.50927],[9.11244,47.50424],[9.11557,47.50284],[9.12851,47.50824],[9.13,47.5043],[9.13573,47.50081],[9.13394,47.49825],[9.13512,47.49535],[9.14165,47.49391],[9.14513,47.49495],[9.15033,47.50156],[9.16539,47.50525],[9.16072,47.49998],[9.1626,47.4965],[9.15572,47.48783],[9.14203,47.48439],[9.12971,47.48463],[9.12942,47.4845]]]}},{"type":"Feature","properties":{"name":"Zihlschlacht-Sitterdorf","cantonId":"thurgau","municipalityId":"zihlschlacht-sitterdorf-4511"},"geometry":{"type":"Polygon","coordinates":[[[9.25114,47.5314],[9.27076,47.53197],[9.27779,47.52834],[9.28002,47.52274],[9.28496,47.52497],[9.28676,47.52263],[9.29162,47.5253],[9.29348,47.52291],[9.28229,47.52068],[9.28483,47.51851],[9.28267,47.51465],[9.27948,47.51397],[9.28036,47.51008],[9.27539,47.51315],[9.26877,47.51167],[9.27361,47.50701],[9.29157,47.50666],[9.30258,47.51234],[9.30336,47.51566],[9.317,47.50864],[9.31505,47.50689],[9.31015,47.50764],[9.3084,47.5015],[9.30278,47.50107],[9.30364,47.49633],[9.29197,47.49675],[9.28451,47.50037],[9.2823,47.50599],[9.27421,47.50029],[9.26509,47.50528],[9.25297,47.50252],[9.24997,47.50446],[9.24452,47.49735],[9.23954,47.50058],[9.24008,47.5045],[9.23367,47.50391],[9.23962,47.50834],[9.23672,47.51742],[9.23754,47.52003],[9.24059,47.5206],[9.24074,47.52503],[9.25112,47.53105],[9.25114,47.5314]]]}}]}
