{"type":"FeatureCollection","features":[{"type":"Feature","properties":{"name":"Acquarossa","cantonId":"ticino","municipalityId":"acquarossa-5048"},"geometry":{"type":"Polygon","coordinates":[[[8.86273,46.50341],[8.87134,46.50166],[8.88436,46.50536],[8.89559,46.50569],[8.89529,46.49635],[8.90145,46.49223],[8.91528,46.48881],[8.92463,46.48925],[8.92562,46.49301],[8.93229,46.49382],[8.93591,46.49911],[8.94446,46.49844],[8.94714,46.49417],[8.94266,46.48711],[8.94414,46.48437],[8.94039,46.4827],[8.93714,46.47648],[8.94714,46.47642],[8.97804,46.46971],[8.98388,46.47202],[8.99208,46.47123],[8.99666,46.46635],[8.99523,46.46026],[9.00107,46.44493],[8.99649,46.43992],[8.98942,46.43784],[8.98667,46.42539],[8.97983,46.42533],[8.97615,46.42219],[8.97503,46.42586],[8.95723,46.43155],[8.9518,46.42678],[8.9416,46.43066],[8.92968,46.42427],[8.93417,46.42309],[8.92454,46.42075],[8.91744,46.41613],[8.91424,46.41721],[8.90235,46.42934],[8.89786,46.43083],[8.89706,46.43513],[8.88863,46.44313],[8.87842,46.45004],[8.8704,46.46327],[8.86698,46.4651],[8.86417,46.47183],[8.87031,46.47771],[8.86743,46.48172],[8.86193,46.4841],[8.86544,46.48908],[8.86392,46.49432],[8.86594,46.49762],[8.86201,46.50309],[8.86273,46.50341]]]}},{"type":"Feature","properties":{"name":"Agno","cantonId":"ticino","municipalityId":"agno-5141"},"geometry":{"type":"Polygon","coordinates":[[[8.90169,45.98636],[8.886,45.98932],[8.8902,45.99243],[8.888,45.99391],[8.90034,46.00903],[8.9024,46.01503],[8.91111,46.0073],[8.90723,46.00351],[8.91212,46.00434],[8.90586,45.99793],[8.90886,45.99763],[8.90474,45.98839],[8.90169,45.98636]]]}},{"type":"Feature","properties":{"name":"Airolo","cantonId":"ticino","municipalityId":"airolo-5061"},"geometry":{"type":"Polygon","coordinates":[[[8.67875,46.57919],[8.6984,46.58105],[8.70477,46.57713],[8.7053,46.5738],[8.69222,46.57079],[8.69292,46.56571],[8.67399,46.54776],[8.67178,46.54108],[8.66527,46.53679],[8.66681,46.53498],[8.66242,46.5223],[8.65448,46.51833],[8.65298,46.51368],[8.64872,46.51492],[8.64408,46.51188],[8.65238,46.50632],[8.63944,46.49948],[8.63347,46.49121],[8.59938,46.50055],[8.58204,46.49946],[8.57915,46.49392],[8.57528,46.49259],[8.55795,46.4923],[8.55436,46.49879],[8.5522,46.51023],[8.54955,46.51077],[8.54621,46.5152],[8.54735,46.51639],[8.53985,46.52312],[8.54573,46.52419],[8.54478,46.52737],[8.53438,46.53728],[8.51947,46.53892],[8.52044,46.5425],[8.51572,46.54861],[8.51587,46.55447],[8.51312,46.55808],[8.52101,46.56692],[8.52119,46.57725],[8.52502,46.57783],[8.52633,46.58153],[8.53139,46.58457],[8.53921,46.58678],[8.55092,46.58069],[8.5737,46.58371],[8.58139,46.57705],[8.59054,46.5734],[8.61126,46.575],[8.61496,46.57815],[8.62535,46.57694],[8.62955,46.57374],[8.63088,46.5658],[8.64075,46.56413],[8.6566,46.56866],[8.65996,46.57365],[8.66686,46.57659],[8.67718,46.57863],[8.67875,46.57919]]]}},{"type":"Feature","properties":{"name":"Alto Malcantone","cantonId":"ticino","municipalityId":"alto-malcantone-5237"},"geometry":{"type":"Polygon","coordinates":[[[8.91327,46.03958],[8.90115,46.03922],[8.88942,46.03242],[8.8864,46.03405],[8.88144,46.02919],[8.87799,46.03029],[8.86925,46.02584],[8.86448,46.02867],[8.86212,46.03631],[8.82849,46.04653],[8.83453,46.05136],[8.84418,46.04851],[8.85459,46.06158],[8.85211,46.07564],[8.85588,46.07531],[8.86581,46.08428],[8.87151,46.08394],[8.87731,46.08181],[8.88543,46.07232],[8.89771,46.07123],[8.90442,46.06537],[8.9091,46.05666],[8.91271,46.05413],[8.91262,46.04542],[8.91059,46.04317],[8.91278,46.0402],[8.91327,46.03958]]]}},{"type":"Feature","properties":{"name":"Aranno","cantonId":"ticino","municipalityId":"aranno-5143"},"geometry":{"type":"Polygon","coordinates":[[[8.8831,46.01147],[8.8722,46.00761],[8.8627,46.01404],[8.86248,46.01615],[8.87026,46.02689],[8.87879,46.03026],[8.88108,46.02907],[8.88326,46.01292],[8.8831,46.01147]]]}},{"type":"Feature","properties":{"name":"Arbedo-Castione","cantonId":"ticino","municipalityId":"arbedo-castione-5001"},"geometry":{"type":"Polygon","coordinates":[[[9.13935,46.17865],[9.13426,46.17694],[9.11314,46.17827],[9.10349,46.18185],[9.08313,46.18334],[9.07484,46.18706],[9.06509,46.18796],[9.05895,46.19409],[9.05832,46.20128],[9.05558,46.20459],[9.0385,46.20517],[9.04089,46.2153],[9.0389,46.21598],[9.03309,46.23494],[9.02944,46.23738],[9.03232,46.23945],[9.03674,46.23578],[9.05462,46.24161],[9.04956,46.23373],[9.05024,46.22715],[9.05326,46.22369],[9.07407,46.21524],[9.08031,46.21054],[9.08612,46.21011],[9.08906,46.21237],[9.11123,46.20498],[9.12578,46.19434],[9.13109,46.18839],[9.13191,46.18376],[9.13861,46.17871],[9.13935,46.17865]]]}},{"type":"Feature","properties":{"name":"Arogno","cantonId":"ticino","municipalityId":"arogno-5144"},"geometry":{"type":"Polygon","coordinates":[[[9.0122,45.94378],[8.99942,45.94512],[8.99344,45.94297],[8.98249,45.94641],[8.98058,45.94398],[8.9742,45.94273],[8.97538,45.95541],[8.97808,45.95942],[8.97565,45.96166],[8.97936,45.97104],[8.97633,45.97586],[8.97752,45.98244],[8.98976,45.97717],[8.99096,45.97168],[8.98847,45.97283],[8.98899,45.97034],[8.99403,45.96655],[9.01396,45.96055],[9.01712,45.94901],[9.01241,45.94379],[9.0122,45.94378]]]}},{"type":"Feature","properties":{"name":"Ascona","cantonId":"ticino","municipalityId":"ascona-5091"},"geometry":{"type":"Polygon","coordinates":[[[8.77496,46.16617],[8.80208,46.14234],[8.78685,46.13578],[8.75332,46.13077],[8.7482,46.13484],[8.74004,46.14887],[8.74022,46.15101],[8.74655,46.15378],[8.74174,46.15538],[8.73375,46.15722],[8.71597,46.15572],[8.6959,46.14774],[8.71544,46.15633],[8.7684,46.16159],[8.77312,46.1648],[8.77496,46.16617]]]}},{"type":"Feature","properties":{"name":"Avegno Gordevio","cantonId":"ticino","municipalityId":"avegno-gordevio-5324"},"geometry":{"type":"Polygon","coordinates":[[[8.79113,46.20262],[8.79003,46.1966],[8.78038,46.19732],[8.77583,46.19229],[8.76662,46.19305],[8.7699,46.19022],[8.75567,46.18983],[8.75145,46.19647],[8.74117,46.20122],[8.7402,46.2112],[8.74567,46.21623],[8.74057,46.2172],[8.74141,46.22005],[8.72926,46.22701],[8.73223,46.23249],[8.74292,46.23972],[8.73828,46.2431],[8.7476,46.25459],[8.7542,46.25332],[8.77175,46.25944],[8.77872,46.2468],[8.78552,46.24432],[8.79049,46.24556],[8.79744,46.23878],[8.79524,46.23129],[8.80025,46.22261],[8.79049,46.21023],[8.79223,46.20876],[8.79166,46.20418],[8.79113,46.20262]]]}},{"type":"Feature","properties":{"name":"Balerna","cantonId":"ticino","municipalityId":"balerna-5242"},"geometry":{"type":"Polygon","coordinates":[[[9.01005,45.85265],[9.01323,45.85193],[9.01079,45.84941],[9.01319,45.84464],[9.02181,45.83994],[9.01891,45.84003],[9.01539,45.83542],[9.01729,45.83228],[9.00123,45.83475],[9.00432,45.84306],[8.99388,45.84658],[8.99829,45.84889],[8.99958,45.85371],[9.00691,45.85133],[9.00858,45.85271],[9.01005,45.85265]]]}},{"type":"Feature","properties":{"name":"Bedano","cantonId":"ticino","municipalityId":"bedano-5148"},"geometry":{"type":"Polygon","coordinates":[[[8.92495,46.04458],[8.91262,46.04542],[8.91271,46.05413],[8.9091,46.05666],[8.90442,46.06537],[8.91777,46.05774],[8.92978,46.05615],[8.92501,46.05038],[8.92491,46.04467],[8.92495,46.04458]]]}},{"type":"Feature","properties":{"name":"Bedretto","cantonId":"ticino","municipalityId":"bedretto-5063"},"geometry":{"type":"Polygon","coordinates":[[[8.47764,46.52761],[8.48264,46.53239],[8.50542,46.53518],[8.51608,46.53885],[8.53542,46.53673],[8.54538,46.52657],[8.54573,46.52419],[8.53985,46.52312],[8.54735,46.51639],[8.54621,46.5152],[8.5522,46.51023],[8.55422,46.50495],[8.55436,46.49879],[8.55893,46.49188],[8.55666,46.48739],[8.55721,46.47876],[8.54832,46.4714],[8.53788,46.46704],[8.52651,46.47156],[8.52439,46.47446],[8.50919,46.46651],[8.49919,46.46513],[8.49755,46.46691],[8.48458,46.46341],[8.48475,46.45953],[8.46792,46.45564],[8.462,46.45061],[8.4528,46.45535],[8.45315,46.45817],[8.45001,46.46184],[8.44572,46.46372],[8.43864,46.46267],[8.43853,46.4643],[8.4171,46.45876],[8.40842,46.45874],[8.40223,46.45474],[8.39595,46.45456],[8.39296,46.45158],[8.38509,46.45191],[8.38233,46.45992],[8.38575,46.46182],[8.38546,46.46557],[8.39247,46.46797],[8.38599,46.47568],[8.39429,46.4837],[8.39238,46.49465],[8.40142,46.49245],[8.41442,46.49473],[8.41968,46.49262],[8.43167,46.49698],[8.44307,46.49538],[8.4517,46.5078],[8.46041,46.51129],[8.47282,46.52324],[8.47797,46.52495],[8.47745,46.52741],[8.47764,46.52761]]]}},{"type":"Feature","properties":{"name":"Bellinzona","cantonId":"ticino","municipalityId":"bellinzona-5002"},"geometry":{"type":"Polygon","coordinates":[[[8.99873,46.14489],[8.99893,46.1487],[8.99391,46.15627],[8.98919,46.1576],[8.98506,46.15569],[8.97993,46.16263],[8.97244,46.1611],[8.97009,46.16391],[8.96339,46.16165],[8.96163,46.1648],[8.94833,46.16413],[8.94776,46.16585],[8.92392,46.16357],[8.92276,46.16674],[8.93054,46.16943],[8.92731,46.17229],[8.93089,46.1794],[8.93324,46.19475],[8.93145,46.19762],[8.93601,46.20517],[8.93905,46.22004],[8.94273,46.22627],[8.93834,46.23282],[8.93149,46.2332],[8.91701,46.23863],[8.92446,46.24731],[8.9258,46.25118],[8.92432,46.2538],[8.93144,46.25386],[8.93215,46.26011],[8.94811,46.26657],[8.95096,46.27044],[8.95208,46.26592],[8.95897,46.26708],[8.96547,46.273],[8.96993,46.27199],[8.97536,46.27582],[8.99147,46.27644],[8.99125,46.28864],[8.99666,46.29134],[8.9984,46.27563],[9.00664,46.27245],[9.01493,46.27443],[9.01347,46.28237],[9.01749,46.28601],[9.02767,46.28858],[9.04258,46.29701],[9.05563,46.29603],[9.05448,46.29039],[9.05813,46.2813],[9.06258,46.2766],[9.06284,46.26292],[9.05962,46.26188],[9.06162,46.25882],[9.05939,46.25103],[9.05501,46.24696],[9.05462,46.24161],[9.03674,46.23578],[9.03232,46.23945],[9.02944,46.23738],[9.03309,46.23494],[9.0389,46.21598],[9.04089,46.2153],[9.0385,46.20517],[9.05558,46.20459],[9.05832,46.20128],[9.05895,46.19409],[9.06509,46.18796],[9.07484,46.18706],[9.08313,46.18334],[9.10349,46.18185],[9.11314,46.17827],[9.13426,46.17694],[9.13935,46.17865],[9.15288,46.17035],[9.15969,46.16923],[9.1565,46.16212],[9.13448,46.15331],[9.1215,46.13481],[9.11221,46.13471],[9.10484,46.13205],[9.09978,46.12671],[9.08998,46.12558],[9.07924,46.1212],[9.0691,46.1321],[9.06784,46.13894],[9.06093,46.14776],[9.05845,46.14636],[9.05551,46.14951],[9.03913,46.1498],[9.02347,46.1434],[9.01155,46.14798],[9.0009,46.1456],[8.99873,46.14489]]]}},{"type":"Feature","properties":{"name":"Biasca","cantonId":"ticino","municipalityId":"biasca-5281"},"geometry":{"type":"Polygon","coordinates":[[[9.06932,46.34356],[9.04618,46.34593],[9.03602,46.34287],[9.01657,46.34551],[9.01134,46.34213],[9.01146,46.33966],[9.00547,46.33381],[9.00624,46.33159],[8.9789,46.32566],[8.96576,46.34431],[8.95921,46.34662],[8.95407,46.35612],[8.96004,46.36025],[8.96635,46.37339],[8.95567,46.37524],[8.9511,46.38531],[8.96145,46.39075],[8.97594,46.38885],[8.97546,46.38133],[8.99696,46.37517],[8.99967,46.37799],[8.99505,46.38135],[8.99616,46.3842],[8.98641,46.38802],[8.98956,46.3948],[9.00006,46.39237],[9.01416,46.40051],[9.03217,46.40001],[9.06099,46.39447],[9.0723,46.38933],[9.08726,46.38883],[9.08996,46.38637],[9.09563,46.373],[9.09296,46.37083],[9.09445,46.36407],[9.09259,46.3574],[9.08827,46.3492],[9.08193,46.34902],[9.06942,46.34355],[9.06932,46.34356]]]}},{"type":"Feature","properties":{"name":"Bioggio","cantonId":"ticino","municipalityId":"bioggio-5151"},"geometry":{"type":"Polygon","coordinates":[[[8.8831,46.01147],[8.89004,46.00729],[8.893,46.01354],[8.89754,46.01204],[8.8977,46.0153],[8.90395,46.01727],[8.90519,46.02029],[8.90127,46.02137],[8.90287,46.03303],[8.89636,46.03108],[8.89989,46.03873],[8.90495,46.03904],[8.90932,46.03547],[8.91495,46.02254],[8.92839,46.02009],[8.91589,46.00391],[8.90723,46.00351],[8.91111,46.0073],[8.90245,46.01505],[8.89133,45.99688],[8.8828,46.00045],[8.87017,46.0011],[8.87286,46.00506],[8.87146,46.0073],[8.88304,46.01143],[8.8831,46.01147]]]}},{"type":"Feature","properties":{"name":"Bissone","cantonId":"ticino","municipalityId":"bissone-5154"},"geometry":{"type":"Polygon","coordinates":[[[8.95662,45.93839],[8.95223,45.94431],[8.95609,45.9465],[8.95964,45.95308],[8.95707,45.96088],[8.95854,45.96482],[8.97742,45.96104],[8.97538,45.95541],[8.97566,45.9443],[8.95983,45.93627],[8.95662,45.93839]]]}},{"type":"Feature","properties":{"name":"Blenio","cantonId":"ticino","municipalityId":"blenio-5049"},"geometry":{"type":"Polygon","coordinates":[[[9.04016,46.49395],[9.03897,46.49157],[9.03115,46.49275],[9.02056,46.49059],[9.01577,46.48416],[8.99698,46.47789],[8.99208,46.47123],[8.98388,46.47202],[8.97804,46.46971],[8.94714,46.47642],[8.93714,46.47648],[8.94039,46.4827],[8.94414,46.48437],[8.94266,46.48711],[8.94714,46.49417],[8.94446,46.49844],[8.93591,46.49911],[8.93229,46.49382],[8.92562,46.49301],[8.92463,46.48925],[8.91528,46.48881],[8.90145,46.49223],[8.89529,46.49635],[8.89559,46.50569],[8.86554,46.50223],[8.85631,46.50634],[8.85144,46.50557],[8.8455,46.50967],[8.81829,46.51857],[8.80884,46.51772],[8.80131,46.52228],[8.78781,46.52039],[8.78334,46.51679],[8.77294,46.52041],[8.76793,46.52503],[8.77222,46.53017],[8.76977,46.53386],[8.77693,46.53963],[8.77478,46.54241],[8.78488,46.56079],[8.77958,46.56625],[8.78523,46.56767],[8.80074,46.56328],[8.82968,46.57137],[8.83175,46.56393],[8.84323,46.56336],[8.86295,46.57305],[8.87695,46.57467],[8.87944,46.57762],[8.90368,46.5841],[8.91598,46.59235],[8.91537,46.59583],[8.91709,46.5966],[8.9072,46.60621],[8.90542,46.612],[8.9073,46.61571],[8.92302,46.62304],[8.94146,46.61849],[8.95038,46.62397],[8.95279,46.63248],[8.95783,46.62987],[8.963,46.61814],[8.9597,46.6107],[8.96221,46.60264],[8.97206,46.60241],[8.98375,46.60881],[8.99535,46.61173],[9.00421,46.61133],[9.01171,46.60796],[9.01623,46.60321],[9.0208,46.60325],[9.0272,46.59942],[9.0341,46.60002],[9.03354,46.59409],[9.04347,46.58784],[9.04223,46.58536],[9.04389,46.58337],[9.03733,46.58203],[9.0354,46.57521],[9.0267,46.56598],[9.02669,46.56181],[9.02324,46.55824],[9.02465,46.55534],[9.01926,46.54754],[9.02296,46.53788],[9.02165,46.53394],[9.01664,46.53204],[9.01719,46.52904],[9.02092,46.52707],[9.02364,46.50873],[9.03469,46.50079],[9.04009,46.49401],[9.04016,46.49395]]]}},{"type":"Feature","properties":{"name":"Bosco/Gurin","cantonId":"ticino","municipalityId":"bosco-gurin-5304"},"geometry":{"type":"Polygon","coordinates":[[[8.44053,46.30412],[8.43912,46.30805],[8.44179,46.31014],[8.44141,46.31563],[8.44372,46.31949],[8.45385,46.32126],[8.45566,46.32725],[8.46042,46.32841],[8.46536,46.33376],[8.46332,46.33646],[8.46432,46.34408],[8.47193,46.34133],[8.49653,46.33816],[8.51068,46.33882],[8.51538,46.33575],[8.52016,46.33611],[8.52559,46.32594],[8.51829,46.30654],[8.49977,46.30462],[8.4848,46.30626],[8.4617,46.29912],[8.44769,46.30028],[8.44102,46.30383],[8.44053,46.30412]]]}},{"type":"Feature","properties":{"name":"Breggia","cantonId":"ticino","municipalityId":"breggia-5269"},"geometry":{"type":"Polygon","coordinates":[[[9.01434,45.85707],[9.01835,45.86313],[9.02682,45.8696],[9.02573,45.87476],[9.0335,45.8793],[9.03189,45.88243],[9.0356,45.88422],[9.03636,45.888],[9.04135,45.89028],[9.04265,45.89435],[9.04209,45.89857],[9.02292,45.89319],[9.02297,45.89667],[9.01901,45.901],[9.02075,45.90301],[9.01455,45.90665],[9.01433,45.9091],[9.01717,45.90904],[9.01645,45.91055],[9.02013,45.91235],[9.01647,45.91761],[9.01744,45.92204],[9.02162,45.92431],[9.02435,45.92188],[9.02918,45.92407],[9.02984,45.9265],[9.04271,45.9275],[9.04908,45.92042],[9.0599,45.92094],[9.05906,45.91648],[9.06819,45.91291],[9.06781,45.91063],[9.07264,45.91284],[9.07658,45.91142],[9.07693,45.8993],[9.08684,45.90221],[9.089,45.90065],[9.08744,45.89905],[9.08886,45.89697],[9.08164,45.8918],[9.07795,45.89203],[9.07946,45.88866],[9.07784,45.88507],[9.07143,45.88174],[9.06639,45.87539],[9.05506,45.87391],[9.0537,45.86799],[9.04916,45.86261],[9.05145,45.85556],[9.04168,45.85217],[9.0244,45.85473],[9.02115,45.85812],[9.0156,45.85728],[9.01434,45.85707]]]}},{"type":"Feature","properties":{"name":"Brione sopra Minusio","cantonId":"ticino","municipalityId":"brione-sopra-minusio-5096"},"geometry":{"type":"Polygon","coordinates":[[[8.79223,46.20876],[8.80716,46.20801],[8.82196,46.20365],[8.82597,46.1973],[8.82544,46.19227],[8.8377,46.18589],[8.82247,46.18588],[8.81194,46.18128],[8.80932,46.18642],[8.81653,46.18794],[8.8131,46.19378],[8.81618,46.19632],[8.80601,46.2013],[8.79113,46.20262],[8.7921,46.20766],[8.79223,46.20876]],[[8.83683,46.18572],[8.83728,46.18551],[8.83751,46.18567],[8.83756,46.18572],[8.8376,46.18576],[8.83764,46.18583],[8.83765,46.18588],[8.83764,46.18596],[8.83746,46.18618],[8.83738,46.18621],[8.83575,46.18679],[8.83517,46.18647],[8.83683,46.18572]]]}},{"type":"Feature","properties":{"name":"Brissago","cantonId":"ticino","municipalityId":"brissago-5097"},"geometry":{"type":"MultiPolygon","coordinates":[[[[8.74234,46.12231],[8.72427,46.11021],[8.71399,46.09723],[8.69657,46.10201],[8.68575,46.10204],[8.6794,46.11039],[8.67027,46.10883],[8.65771,46.11269],[8.64802,46.12335],[8.65595,46.12483],[8.66279,46.13631],[8.66837,46.13686],[8.66693,46.14265],[8.67151,46.15011],[8.6923,46.14935],[8.72643,46.12865],[8.74234,46.12231]]],[[[8.73853,46.1304],[8.7327,46.13047],[8.73283,46.13589],[8.73866,46.13582],[8.73853,46.1304]]]]}},{"type":"Feature","properties":{"name":"Brusino Arsizio","cantonId":"ticino","municipalityId":"brusino-arsizio-5160"},"geometry":{"type":"Polygon","coordinates":[[[8.93154,45.92813],[8.94427,45.94027],[8.95223,45.94431],[8.95662,45.93839],[8.94865,45.9334],[8.95386,45.92822],[8.95231,45.91629],[8.94715,45.91266],[8.93809,45.91501],[8.93265,45.91008],[8.92025,45.90896],[8.91429,45.9178],[8.92052,45.91951],[8.93103,45.92754],[8.93154,45.92813]]]}},{"type":"Feature","properties":{"name":"Cademario","cantonId":"ticino","municipalityId":"cademario-5161"},"geometry":{"type":"Polygon","coordinates":[[[8.8831,46.01147],[8.88092,46.03001],[8.8864,46.03405],[8.88942,46.03242],[8.89539,46.03635],[8.89817,46.03671],[8.89636,46.03108],[8.90287,46.03303],[8.90127,46.02137],[8.90519,46.02029],[8.90395,46.01727],[8.8977,46.0153],[8.89754,46.01204],[8.893,46.01354],[8.89004,46.00729],[8.88359,46.01067],[8.8831,46.01147]]]}},{"type":"Feature","properties":{"name":"Cadempino","cantonId":"ticino","municipalityId":"cadempino-5162"},"geometry":{"type":"Polygon","coordinates":[[[8.94005,46.03141],[8.92743,46.02943],[8.92754,46.034],[8.93295,46.03788],[8.93209,46.03918],[8.93933,46.03901],[8.93824,46.03538],[8.94015,46.03475],[8.94018,46.03151],[8.94005,46.03141]]]}},{"type":"Feature","properties":{"name":"Cadenazzo","cantonId":"ticino","municipalityId":"cadenazzo-5003"},"geometry":{"type":"Polygon","coordinates":[[[8.97463,46.13382],[8.96036,46.13364],[8.95146,46.1307],[8.94907,46.13434],[8.92971,46.13848],[8.9278,46.14305],[8.94034,46.14455],[8.93709,46.15272],[8.93383,46.15313],[8.93361,46.15625],[8.92036,46.15846],[8.91912,46.16285],[8.93153,46.1643],[8.93236,46.16173],[8.93685,46.16206],[8.93816,46.1598],[8.94769,46.16149],[8.94963,46.1595],[8.95407,46.16024],[8.95611,46.1546],[8.96013,46.15595],[8.96171,46.15223],[8.98013,46.13802],[8.97486,46.13614],[8.97307,46.13458],[8.97462,46.1341],[8.97463,46.13382]]]}},{"type":"Feature","properties":{"name":"Campo (Vallemaggia)","cantonId":"ticino","municipalityId":"campo-vallemaggia-5307"},"geometry":{"type":"Polygon","coordinates":[[[8.44053,46.30412],[8.44769,46.30028],[8.4617,46.29912],[8.4848,46.30626],[8.50138,46.30513],[8.51723,46.29582],[8.52267,46.29978],[8.53616,46.29317],[8.5405,46.28986],[8.5404,46.28441],[8.54977,46.2793],[8.562,46.2799],[8.57414,46.27617],[8.56815,46.26692],[8.5549,46.26817],[8.54463,46.26205],[8.51724,46.25785],[8.50927,46.25964],[8.4993,46.25271],[8.47661,46.25303],[8.46378,46.24455],[8.44699,46.24796],[8.44317,46.25062],[8.44228,46.25415],[8.44789,46.25802],[8.44827,46.26122],[8.45588,46.26376],[8.44977,46.27432],[8.4363,46.28567],[8.434,46.29182],[8.42796,46.29766],[8.42928,46.30034],[8.43941,46.30389],[8.44053,46.30412]]]}},{"type":"Feature","properties":{"name":"Canobbio","cantonId":"ticino","municipalityId":"canobbio-5167"},"geometry":{"type":"Polygon","coordinates":[[[8.9661,46.04702],[8.97195,46.04575],[8.97269,46.03095],[8.96616,46.02698],[8.96581,46.02994],[8.9596,46.03264],[8.9671,46.04273],[8.96625,46.04662],[8.9661,46.04702]]]}},{"type":"Feature","properties":{"name":"Capriasca","cantonId":"ticino","municipalityId":"capriasca-5226"},"geometry":{"type":"MultiPolygon","coordinates":[[[[8.94416,46.09492],[8.94596,46.09758],[8.95062,46.09406],[8.9576,46.09579],[8.96841,46.10697],[8.98614,46.11596],[8.98734,46.11484],[8.99067,46.12399],[9.00396,46.13101],[9.02485,46.12534],[9.02519,46.11656],[9.03314,46.11574],[9.03623,46.11916],[9.03857,46.11684],[9.04933,46.11747],[9.05235,46.11344],[9.03307,46.11052],[9.02749,46.10081],[9.02523,46.10048],[9.02592,46.09552],[9.02366,46.09299],[9.02519,46.08661],[9.02198,46.08445],[9.01686,46.08502],[9.01811,46.07981],[8.98439,46.06888],[8.97785,46.06277],[8.9779,46.05501],[8.97507,46.05359],[8.97576,46.05071],[8.97195,46.04575],[8.95495,46.05016],[8.95348,46.06256],[8.94296,46.06792],[8.94086,46.0751],[8.9332,46.07785],[8.94187,46.08435],[8.93982,46.08377],[8.93922,46.08678],[8.94197,46.09139],[8.94416,46.09492]]],[[[8.93363,46.07413],[8.93869,46.07011],[8.93344,46.07392],[8.93363,46.07413]]]]}},{"type":"Feature","properties":{"name":"Caslano","cantonId":"ticino","municipalityId":"caslano-5171"},"geometry":{"type":"Polygon","coordinates":[[[8.86367,45.97081],[8.87885,45.98195],[8.89678,45.9732],[8.89151,45.96761],[8.89414,45.96384],[8.89366,45.95898],[8.87821,45.95664],[8.8678,45.96093],[8.8629,45.9706],[8.86367,45.97081]]]}},{"type":"Feature","properties":{"name":"Castel San Pietro","cantonId":"ticino","municipalityId":"castel-san-pietro-5249"},"geometry":{"type":"Polygon","coordinates":[[[9.01434,45.85707],[9.00691,45.85133],[9.00028,45.85377],[9.00092,45.85767],[8.99391,45.85956],[8.98584,45.85863],[8.98239,45.86158],[8.99438,45.8698],[8.99967,45.86822],[8.99808,45.87178],[9.00917,45.87885],[9.01138,45.8879],[9.00992,45.89416],[9.0139,45.89893],[9.00737,45.91352],[9.01574,45.91461],[9.0143,45.91779],[9.01697,45.91871],[9.01283,45.92027],[9.01342,45.9251],[9.02294,45.92901],[9.02984,45.9265],[9.02918,45.92407],[9.02435,45.92188],[9.02162,45.92431],[9.01631,45.92046],[9.02013,45.91235],[9.01392,45.90867],[9.02075,45.90301],[9.01901,45.901],[9.02297,45.89667],[9.02292,45.89319],[9.03688,45.89806],[9.04292,45.89776],[9.04142,45.89036],[9.03628,45.88791],[9.0356,45.88422],[9.03189,45.88243],[9.0335,45.8793],[9.02573,45.87476],[9.02682,45.8696],[9.01458,45.85742],[9.01434,45.85707]]]}},{"type":"Feature","properties":{"name":"Centovalli","cantonId":"ticino","municipalityId":"centovalli-5397"},"geometry":{"type":"Polygon","coordinates":[[[8.6959,46.14774],[8.68341,46.15057],[8.67145,46.15009],[8.66693,46.14265],[8.66837,46.13686],[8.66279,46.13631],[8.65595,46.12483],[8.61184,46.12166],[8.60971,46.13288],[8.59273,46.14286],[8.59306,46.14599],[8.59998,46.1496],[8.60017,46.1533],[8.60373,46.1536],[8.60318,46.15533],[8.58811,46.15657],[8.58915,46.15897],[8.58712,46.16165],[8.57822,46.16166],[8.57364,46.16431],[8.56985,46.1769],[8.57257,46.18357],[8.56978,46.18515],[8.58054,46.18674],[8.58155,46.18365],[8.58646,46.18308],[8.59255,46.18562],[8.5945,46.18213],[8.59802,46.1831],[8.60129,46.17919],[8.62011,46.18225],[8.63812,46.18175],[8.65921,46.18668],[8.69345,46.18857],[8.69401,46.18275],[8.69761,46.17968],[8.71135,46.18056],[8.721,46.17871],[8.71756,46.17111],[8.71816,46.16678],[8.71262,46.15947],[8.71544,46.15633],[8.69626,46.14887],[8.6959,46.14774]]]}},{"type":"Feature","properties":{"name":"Cerentino","cantonId":"ticino","municipalityId":"cerentino-5309"},"geometry":{"type":"Polygon","coordinates":[[[8.56543,46.29203],[8.56608,46.28856],[8.56363,46.28812],[8.562,46.2799],[8.54977,46.2793],[8.5404,46.28441],[8.5405,46.28986],[8.53616,46.29317],[8.52267,46.29978],[8.51723,46.29582],[8.50138,46.30513],[8.51906,46.30699],[8.52559,46.32594],[8.52016,46.33611],[8.53744,46.3427],[8.55987,46.33171],[8.5592,46.32535],[8.56317,46.31653],[8.57481,46.30425],[8.5748,46.29859],[8.57116,46.29505],[8.56543,46.29203]]]}},{"type":"Feature","properties":{"name":"Cevio","cantonId":"ticino","municipalityId":"cevio-5310"},"geometry":{"type":"Polygon","coordinates":[[[8.56543,46.29203],[8.58283,46.29415],[8.58615,46.29174],[8.59299,46.30059],[8.58996,46.31011],[8.59268,46.31089],[8.58781,46.31416],[8.58977,46.3187],[8.58127,46.32339],[8.57288,46.33177],[8.56592,46.33035],[8.5568,46.3322],[8.53744,46.3427],[8.52254,46.33605],[8.51602,46.33571],[8.51068,46.33882],[8.49653,46.33816],[8.46432,46.34408],[8.46159,46.35339],[8.47023,46.36255],[8.46681,46.36832],[8.46651,46.38006],[8.46084,46.38668],[8.47117,46.39592],[8.4636,46.40273],[8.46348,46.40608],[8.46842,46.41153],[8.45804,46.42052],[8.45724,46.42526],[8.46076,46.4284],[8.45753,46.43476],[8.46624,46.44268],[8.46155,46.44624],[8.46296,46.45197],[8.46792,46.45564],[8.48475,46.45953],[8.48458,46.46341],[8.49755,46.46691],[8.49919,46.46513],[8.50919,46.46651],[8.52439,46.47446],[8.52651,46.47156],[8.53658,46.46832],[8.5367,46.46475],[8.53227,46.46243],[8.5319,46.45982],[8.53742,46.45434],[8.54907,46.44845],[8.54226,46.43381],[8.54803,46.42731],[8.54744,46.4236],[8.56522,46.41572],[8.56337,46.40992],[8.57464,46.40432],[8.5762,46.40106],[8.57429,46.39067],[8.5901,46.3829],[8.60783,46.38606],[8.61743,46.37926],[8.60392,46.35862],[8.60869,46.35348],[8.61835,46.3504],[8.63737,46.35505],[8.64266,46.3432],[8.65544,46.3351],[8.66659,46.33254],[8.68149,46.32489],[8.66618,46.32374],[8.66175,46.32003],[8.64893,46.32094],[8.63119,46.3179],[8.6209,46.32002],[8.62624,46.31543],[8.61773,46.30975],[8.62382,46.30409],[8.62379,46.29972],[8.60477,46.29082],[8.60467,46.28821],[8.59986,46.28749],[8.59437,46.28047],[8.58671,46.27755],[8.57414,46.27617],[8.56485,46.27818],[8.562,46.2799],[8.56199,46.28316],[8.56402,46.28466],[8.56363,46.28812],[8.56608,46.28856],[8.56543,46.29203]]]}},{"type":"Feature","properties":{"name":"Chiasso","cantonId":"ticino","municipalityId":"chiasso-5250"},"geometry":{"type":"Polygon","coordinates":[[[9.02309,45.83955],[9.03545,45.83984],[9.03786,45.83547],[9.03093,45.82469],[9.03408,45.82261],[9.02872,45.82065],[9.02212,45.82187],[9.01797,45.81808],[8.99844,45.82292],[8.99375,45.82202],[8.99694,45.83424],[9.01729,45.83228],[9.01539,45.83542],[9.01811,45.83923],[9.02305,45.83947],[9.02309,45.83955]]]}},{"type":"Feature","properties":{"name":"Coldrerio","cantonId":"ticino","municipalityId":"coldrerio-5251"},"geometry":{"type":"Polygon","coordinates":[[[8.98364,45.85986],[9.00092,45.85767],[8.99829,45.84889],[8.99419,45.84672],[8.98497,45.85015],[8.98446,45.84693],[8.98229,45.84657],[8.97184,45.85286],[8.96895,45.85753],[8.97543,45.86054],[8.98361,45.85979],[8.98364,45.85986]]]}},{"type":"Feature","properties":{"name":"Collina d'Oro","cantonId":"ticino","municipalityId":"collina-doro-5236"},"geometry":{"type":"Polygon","coordinates":[[[8.89678,45.9732],[8.90169,45.98636],[8.90583,45.98954],[8.92314,45.99592],[8.92515,45.9941],[8.93791,45.99473],[8.93834,45.98957],[8.93079,45.98903],[8.92523,45.98559],[8.92384,45.98273],[8.92867,45.97908],[8.92873,45.97395],[8.92628,45.97429],[8.91849,45.96296],[8.91433,45.9648],[8.91417,45.96255],[8.90942,45.96213],[8.90866,45.95833],[8.90258,45.961],[8.905,45.96549],[8.89414,45.96384],[8.89151,45.96761],[8.89647,45.97256],[8.89678,45.9732]]]}},{"type":"Feature","properties":{"name":"Comano","cantonId":"ticino","municipalityId":"comano-5176"},"geometry":{"type":"Polygon","coordinates":[[[8.9661,46.04702],[8.9671,46.04273],[8.95976,46.0327],[8.94739,46.03091],[8.95032,46.04576],[8.95801,46.04908],[8.96551,46.04719],[8.9661,46.04702]]]}},{"type":"Feature","properties":{"name":"Cugnasco-Gerra","cantonId":"ticino","municipalityId":"cugnasco-gerra-5138"},"geometry":{"type":"Polygon","coordinates":[[[8.89914,46.17438],[8.89805,46.18041],[8.87733,46.18433],[8.88158,46.19033],[8.87797,46.19707],[8.88087,46.198],[8.88134,46.20269],[8.88742,46.20632],[8.89581,46.20536],[8.9219,46.21159],[8.93108,46.23314],[8.93591,46.23342],[8.93928,46.23235],[8.94274,46.22593],[8.93905,46.22004],[8.93601,46.20517],[8.93145,46.19762],[8.93324,46.19475],[8.93089,46.1794],[8.92731,46.17229],[8.92795,46.17045],[8.93069,46.17092],[8.93007,46.16801],[8.92276,46.16674],[8.92392,46.16357],[8.91405,46.16137],[8.91171,46.16557],[8.91659,46.17533],[8.90051,46.17421],[8.89914,46.17438]]]}},{"type":"Feature","properties":{"name":"Cureglia","cantonId":"ticino","municipalityId":"cureglia-5180"},"geometry":{"type":"Polygon","coordinates":[[[8.94005,46.03141],[8.94015,46.03475],[8.93824,46.03538],[8.93978,46.04274],[8.95026,46.04556],[8.94745,46.03146],[8.94415,46.02862],[8.94024,46.03133],[8.94005,46.03141]]]}},{"type":"Feature","properties":{"name":"Dalpe","cantonId":"ticino","municipalityId":"dalpe-5071"},"geometry":{"type":"Polygon","coordinates":[[[8.77073,46.48622],[8.77892,46.47936],[8.78738,46.47725],[8.78727,46.47439],[8.79096,46.47319],[8.78986,46.47012],[8.79718,46.46931],[8.79544,46.46389],[8.78008,46.4621],[8.77444,46.45597],[8.77756,46.44906],[8.78919,46.44387],[8.78722,46.44086],[8.77865,46.43318],[8.76946,46.43123],[8.76365,46.44109],[8.75525,46.44481],[8.745,46.44457],[8.73936,46.44851],[8.70722,46.45341],[8.71277,46.45933],[8.72386,46.45835],[8.72916,46.46123],[8.74105,46.45866],[8.75285,46.46053],[8.75613,46.46307],[8.76332,46.46126],[8.76062,46.46988],[8.76406,46.47992],[8.77058,46.48601],[8.77073,46.48622]]]}},{"type":"Feature","properties":{"name":"Faido","cantonId":"ticino","municipalityId":"faido-5072"},"geometry":{"type":"Polygon","coordinates":[[[8.77073,46.48622],[8.74751,46.48883],[8.74342,46.49493],[8.74291,46.49633],[8.74892,46.49849],[8.75246,46.50533],[8.74856,46.50706],[8.74878,46.51519],[8.74952,46.51869],[8.75383,46.52142],[8.75391,46.52486],[8.76772,46.52512],[8.78006,46.51688],[8.7846,46.51689],[8.78781,46.52039],[8.80131,46.52228],[8.80884,46.51772],[8.81829,46.51857],[8.8455,46.50967],[8.85144,46.50557],[8.85631,46.50634],[8.86273,46.50341],[8.86172,46.50197],[8.86594,46.49762],[8.86392,46.49432],[8.86544,46.48908],[8.86193,46.4841],[8.86743,46.48172],[8.87031,46.47771],[8.86417,46.47183],[8.87385,46.45489],[8.89706,46.43513],[8.89786,46.43083],[8.90235,46.42934],[8.92933,46.40563],[8.92141,46.40151],[8.91458,46.39104],[8.90902,46.38818],[8.90121,46.38794],[8.89631,46.39351],[8.874,46.40885],[8.86587,46.4197],[8.86263,46.41946],[8.85442,46.42429],[8.85749,46.42099],[8.85347,46.41986],[8.85617,46.40899],[8.84842,46.40953],[8.83803,46.40004],[8.83543,46.39442],[8.84401,46.39039],[8.84135,46.38548],[8.84269,46.38371],[8.82943,46.37843],[8.81487,46.38399],[8.81251,46.38783],[8.80177,46.38844],[8.78819,46.39363],[8.78234,46.39319],[8.77294,46.39688],[8.76075,46.39825],[8.75349,46.40533],[8.74197,46.40575],[8.73805,46.4274],[8.72589,46.42977],[8.72311,46.43445],[8.70775,46.44262],[8.70722,46.45341],[8.73936,46.44851],[8.745,46.44457],[8.75525,46.44481],[8.76365,46.44109],[8.76946,46.43123],[8.77865,46.43318],[8.78919,46.44387],[8.77756,46.44906],[8.77444,46.45597],[8.78008,46.4621],[8.79544,46.46389],[8.79718,46.46931],[8.78986,46.47012],[8.79096,46.47319],[8.78727,46.47439],[8.78738,46.47725],[8.77892,46.47936],[8.77102,46.48618],[8.77073,46.48622]]]}},{"type":"Feature","properties":{"name":"Gambarogno","cantonId":"ticino","municipalityId":"gambarogno-5398"},"geometry":{"type":"Polygon","coordinates":[[[8.75332,46.13077],[8.78685,46.13578],[8.79698,46.13915],[8.81288,46.14641],[8.83058,46.15901],[8.84722,46.15197],[8.8692,46.15023],[8.86956,46.15411],[8.89716,46.15773],[8.90499,46.15682],[8.90809,46.16],[8.91289,46.15516],[8.91963,46.15465],[8.92036,46.15846],[8.93361,46.15625],[8.94034,46.14455],[8.89783,46.14685],[8.89129,46.13452],[8.89188,46.13219],[8.88636,46.13013],[8.87623,46.11594],[8.87138,46.10444],[8.86597,46.10388],[8.86758,46.09803],[8.86415,46.09109],[8.86581,46.08428],[8.85588,46.07531],[8.84752,46.07575],[8.83377,46.08285],[8.81529,46.09732],[8.80604,46.10128],[8.79978,46.0947],[8.78303,46.09417],[8.76824,46.10075],[8.76002,46.10157],[8.74234,46.12231],[8.74642,46.12522],[8.75332,46.13077]]]}},{"type":"Feature","properties":{"name":"Giornico","cantonId":"ticino","municipalityId":"giornico-5073"},"geometry":{"type":"Polygon","coordinates":[[[8.92933,46.40563],[8.93059,46.39762],[8.94186,46.38752],[8.92827,46.37781],[8.93193,46.37654],[8.93014,46.37713],[8.93126,46.37571],[8.92716,46.37351],[8.93106,46.37163],[8.92813,46.36895],[8.92403,46.37236],[8.91499,46.37341],[8.90647,46.37919],[8.90155,46.37992],[8.90136,46.37656],[8.89353,46.37921],[8.89095,46.38243],[8.88318,46.3757],[8.86873,46.37138],[8.85712,46.36482],[8.84413,46.36317],[8.83146,46.36644],[8.83285,46.36987],[8.82917,46.37792],[8.84269,46.38371],[8.84135,46.38548],[8.84401,46.39039],[8.83543,46.39442],[8.83803,46.40004],[8.84842,46.40953],[8.85617,46.40899],[8.85347,46.41986],[8.85749,46.42099],[8.85442,46.42429],[8.86263,46.41946],[8.86587,46.4197],[8.874,46.40885],[8.89631,46.39351],[8.90121,46.38794],[8.90902,46.38818],[8.91458,46.39104],[8.92141,46.40151],[8.9289,46.40563],[8.92933,46.40563]]]}},{"type":"Feature","properties":{"name":"Gordola","cantonId":"ticino","municipalityId":"gordola-5108"},"geometry":{"type":"Polygon","coordinates":[[[8.87911,46.17692],[8.87003,46.17899],[8.86892,46.16952],[8.85841,46.16748],[8.86046,46.17578],[8.85864,46.17933],[8.84605,46.18538],[8.84448,46.18837],[8.84801,46.19337],[8.84805,46.19947],[8.85269,46.2047],[8.85485,46.20555],[8.87797,46.19707],[8.88158,46.19033],[8.87733,46.18433],[8.88174,46.18261],[8.87949,46.17725],[8.87911,46.17692]]]}},{"type":"Feature","properties":{"name":"Grancia","cantonId":"ticino","municipalityId":"grancia-5186"},"geometry":{"type":"Polygon","coordinates":[[[8.92873,45.97395],[8.93192,45.97323],[8.93183,45.9668],[8.92584,45.96032],[8.92424,45.96106],[8.92489,45.96752],[8.92194,45.96647],[8.92628,45.97429],[8.92862,45.97397],[8.92873,45.97395]]]}},{"type":"Feature","properties":{"name":"Gravesano","cantonId":"ticino","municipalityId":"gravesano-5187"},"geometry":{"type":"Polygon","coordinates":[[[8.92495,46.04458],[8.92474,46.03767],[8.91371,46.03923],[8.91059,46.04317],[8.91088,46.04549],[8.92463,46.04455],[8.92495,46.04458]]]}},{"type":"Feature","properties":{"name":"Isone","cantonId":"ticino","municipalityId":"isone-5009"},"geometry":{"type":"Polygon","coordinates":[[[8.97463,46.13382],[8.97307,46.13458],[8.97528,46.13638],[9.01155,46.14798],[9.02347,46.1434],[9.03252,46.14692],[9.03495,46.14094],[9.0393,46.14396],[9.04348,46.14367],[9.05095,46.14015],[9.05112,46.13473],[9.0603,46.13236],[9.05118,46.12227],[9.04019,46.12491],[9.03239,46.12315],[9.00396,46.13101],[8.99067,46.12399],[8.98721,46.11484],[8.98393,46.11552],[8.98115,46.12017],[8.97115,46.12429],[8.97451,46.13315],[8.97463,46.13382]]]}},{"type":"Feature","properties":{"name":"Lamone","cantonId":"ticino","municipalityId":"lamone-5189"},"geometry":{"type":"Polygon","coordinates":[[[8.92495,46.04458],[8.92501,46.05038],[8.92978,46.05615],[8.9349,46.05564],[8.93461,46.05145],[8.94044,46.04631],[8.93933,46.03901],[8.93209,46.03918],[8.93295,46.03788],[8.92777,46.03402],[8.92802,46.03703],[8.92477,46.0378],[8.92523,46.0434],[8.92495,46.04458]]]}},{"type":"Feature","properties":{"name":"Lavertezzo","cantonId":"ticino","municipalityId":"lavertezzo-5112"},"geometry":{"type":"Polygon","coordinates":[[[8.87911,46.17692],[8.88165,46.18279],[8.89805,46.18041],[8.89914,46.17438],[8.88527,46.17614],[8.87911,46.17692]]]}},{"type":"Feature","properties":{"name":"Lavizzara","cantonId":"ticino","municipalityId":"lavizzara-5323"},"geometry":{"type":"Polygon","coordinates":[[[8.71277,46.45933],[8.70639,46.45247],[8.70775,46.44262],[8.72311,46.43445],[8.72589,46.42977],[8.73805,46.4274],[8.74269,46.40664],[8.73095,46.39082],[8.7314,46.38555],[8.73537,46.38152],[8.73537,46.37604],[8.73214,46.37559],[8.72535,46.36617],[8.71169,46.35926],[8.71279,46.35432],[8.69472,46.34802],[8.69193,46.3354],[8.68355,46.33033],[8.68149,46.32489],[8.66659,46.33254],[8.65544,46.3351],[8.64266,46.3432],[8.63737,46.35505],[8.61835,46.3504],[8.60869,46.35348],[8.60392,46.35862],[8.6085,46.36313],[8.60895,46.36856],[8.61713,46.37963],[8.60783,46.38606],[8.5901,46.3829],[8.57429,46.39067],[8.5762,46.40106],[8.57464,46.40432],[8.56337,46.40992],[8.56522,46.41572],[8.54744,46.4236],[8.54803,46.42731],[8.54226,46.43381],[8.54907,46.44845],[8.53742,46.45434],[8.53162,46.46151],[8.55721,46.47876],[8.55666,46.48739],[8.55893,46.49188],[8.57582,46.49272],[8.57915,46.49392],[8.58204,46.49946],[8.59938,46.50055],[8.6339,46.49111],[8.64745,46.48257],[8.65479,46.481],[8.66664,46.48216],[8.68249,46.4755],[8.68948,46.47455],[8.69155,46.47666],[8.70206,46.4741],[8.71274,46.45939],[8.71277,46.45933]]]}},{"type":"Feature","properties":{"name":"Lema","cantonId":"ticino","municipalityId":"lema-5395"},"geometry":{"type":"Polygon","coordinates":[[[8.8704,45.99219],[8.85545,45.99117],[8.85611,45.98899],[8.8512,45.98736],[8.8477,45.99175],[8.8501,45.99511],[8.8485,46.00235],[8.83769,45.99808],[8.8373,46.00121],[8.82824,46.00044],[8.8325,46.00603],[8.83085,46.00936],[8.82625,46.00957],[8.81947,46.00536],[8.7972,46.01223],[8.80591,46.02193],[8.81966,46.02548],[8.82533,46.03053],[8.83003,46.0416],[8.83271,46.04056],[8.83544,46.04376],[8.84157,46.043],[8.86212,46.03631],[8.86448,46.02867],[8.86925,46.02584],[8.86249,46.01586],[8.8722,46.00761],[8.86972,45.99743],[8.86751,45.99676],[8.87044,45.99229],[8.8704,45.99219]]]}},{"type":"Feature","properties":{"name":"Linescio","cantonId":"ticino","municipalityId":"linescio-5315"},"geometry":{"type":"Polygon","coordinates":[[[8.56543,46.29203],[8.57316,46.29641],[8.57481,46.30425],[8.56317,46.31653],[8.5592,46.32535],[8.55987,46.33171],[8.57288,46.33177],[8.58127,46.32339],[8.58977,46.3187],[8.58781,46.31416],[8.59268,46.31089],[8.58996,46.31011],[8.59299,46.30059],[8.58615,46.29174],[8.58283,46.29415],[8.56715,46.29176],[8.56543,46.29203]]]}},{"type":"Feature","properties":{"name":"Locarno","cantonId":"ticino","municipalityId":"locarno-5113"},"geometry":{"type":"MultiPolygon","coordinates":[[[[8.77496,46.16617],[8.74942,46.18595],[8.7562,46.18701],[8.75567,46.18983],[8.7699,46.19022],[8.76662,46.19305],[8.77583,46.19229],[8.78038,46.19732],[8.79003,46.1966],[8.78674,46.18084],[8.79016,46.17622],[8.82751,46.1579],[8.81288,46.14641],[8.80208,46.14234],[8.77668,46.1654],[8.77496,46.16617]]],[[[8.92036,46.15846],[8.91963,46.15465],[8.91289,46.15516],[8.90809,46.16],[8.90499,46.15682],[8.89716,46.15773],[8.86956,46.15411],[8.8692,46.15023],[8.84722,46.15197],[8.83155,46.15883],[8.85746,46.16746],[8.86537,46.16764],[8.86541,46.16955],[8.86892,46.16952],[8.87003,46.17899],[8.90662,46.17346],[8.91659,46.17533],[8.91171,46.16557],[8.91405,46.16137],[8.91948,46.16206],[8.9202,46.16009],[8.92036,46.15846]]]]}},{"type":"Feature","properties":{"name":"Losone","cantonId":"ticino","municipalityId":"losone-5115"},"geometry":{"type":"Polygon","coordinates":[[[8.77496,46.16617],[8.7684,46.16159],[8.71562,46.15601],[8.71262,46.15947],[8.71816,46.16678],[8.71756,46.17111],[8.721,46.17871],[8.72671,46.17804],[8.73962,46.18241],[8.74164,46.18042],[8.75868,46.18002],[8.77569,46.16671],[8.77496,46.16617]]]}},{"type":"Feature","properties":{"name":"Lugano","cantonId":"ticino","municipalityId":"lugano-5192"},"geometry":{"type":"Polygon","coordinates":[[[8.93281,46.01756],[8.93978,46.01542],[8.93549,46.01226],[8.93636,46.01071],[8.94192,46.00802],[8.94777,46.00848],[8.94686,46.01],[8.95129,46.01415],[8.9501,46.0197],[8.95391,46.02336],[8.95777,46.02232],[8.97256,46.03077],[8.97183,46.0454],[8.97576,46.05071],[8.97507,46.05359],[8.9779,46.05501],[8.97785,46.06277],[8.98944,46.07121],[9.01811,46.07981],[9.01686,46.08502],[9.02198,46.08445],[9.02519,46.08661],[9.02453,46.09171],[9.02761,46.0956],[9.02523,46.10048],[9.02749,46.10081],[9.03386,46.11116],[9.05235,46.11344],[9.07032,46.11906],[9.0779,46.11023],[9.08962,46.08702],[9.0842,46.07874],[9.07907,46.07592],[9.07702,46.06405],[9.06042,46.06066],[9.05023,46.06236],[9.01721,46.04973],[9.01689,46.0431],[9.00952,46.03729],[9.00759,46.0298],[9.02254,46.01686],[9.02451,46.00076],[9.02846,45.99363],[9.02289,45.99276],[9.0225,45.98954],[9.01808,45.98765],[9.01136,45.9879],[9.01115,45.98318],[9.00735,45.9803],[8.99529,45.98049],[8.99632,45.97438],[8.99465,45.97164],[8.99096,45.97168],[8.98976,45.97717],[8.98069,45.97965],[8.97726,45.98304],[8.96708,45.98415],[8.96252,45.97385],[8.95216,45.97796],[8.94324,45.96646],[8.94381,45.95911],[8.94067,45.95305],[8.93257,45.94249],[8.92795,45.94297],[8.92688,45.93974],[8.89807,45.94936],[8.89366,45.95898],[8.89414,45.96384],[8.905,45.96549],[8.90258,45.961],[8.90866,45.95833],[8.90942,45.96213],[8.91417,45.96255],[8.91433,45.9648],[8.91813,45.96274],[8.92489,45.96752],[8.92424,45.96106],[8.92584,45.96032],[8.93183,45.9668],[8.93192,45.97323],[8.92866,45.97354],[8.92867,45.97908],[8.92403,45.9839],[8.93079,45.98903],[8.93823,45.98936],[8.93752,45.9939],[8.9407,45.99515],[8.93985,45.99696],[8.94298,46.00027],[8.9383,46.00224],[8.93615,46.0072],[8.92544,45.99876],[8.91534,46.00496],[8.9278,46.01897],[8.93195,46.01735],[8.93281,46.01756]],[[8.95606,45.98394],[8.96708,45.98416],[8.96916,45.99168],[8.96225,45.99415],[8.94875,45.99433],[8.93636,45.98622],[8.94079,45.98834],[8.94735,45.98413],[8.95595,45.98391],[8.95606,45.98394]]]}},{"type":"Feature","properties":{"name":"Lumino","cantonId":"ticino","municipalityId":"lumino-5010"},"geometry":{"type":"Polygon","coordinates":[[[9.06258,46.2766],[9.06365,46.27305],[9.07222,46.26771],[9.07777,46.2603],[9.07603,46.23787],[9.07117,46.23566],[9.07457,46.23172],[9.07961,46.23328],[9.08359,46.22058],[9.08906,46.21237],[9.08612,46.21011],[9.08031,46.21054],[9.07407,46.21524],[9.05326,46.22369],[9.05024,46.22715],[9.04956,46.23373],[9.05517,46.24255],[9.05501,46.24696],[9.05939,46.25103],[9.06162,46.25882],[9.05962,46.26188],[9.06284,46.26292],[9.06158,46.2758],[9.06258,46.2766]]]}},{"type":"Feature","properties":{"name":"Maggia","cantonId":"ticino","municipalityId":"maggia-5317"},"geometry":{"type":"Polygon","coordinates":[[[8.70633,46.20537],[8.70698,46.20951],[8.70031,46.21226],[8.69703,46.22194],[8.67741,46.22643],[8.67346,46.23074],[8.66216,46.2304],[8.65872,46.2336],[8.64955,46.2312],[8.64385,46.2327],[8.62673,46.24328],[8.62688,46.24929],[8.62389,46.25527],[8.60132,46.26112],[8.59241,46.2605],[8.56919,46.26724],[8.57607,46.27742],[8.58671,46.27755],[8.59437,46.28047],[8.59986,46.28749],[8.60467,46.28821],[8.60477,46.29082],[8.62379,46.29972],[8.62382,46.30409],[8.61773,46.30975],[8.62624,46.31543],[8.6209,46.32002],[8.63119,46.3179],[8.64893,46.32094],[8.66175,46.32003],[8.66618,46.32374],[8.68149,46.32489],[8.68979,46.32025],[8.69081,46.31561],[8.7078,46.30949],[8.71601,46.30908],[8.73308,46.30183],[8.73598,46.2952],[8.75192,46.28767],[8.75421,46.28121],[8.76559,46.2783],[8.77604,46.26799],[8.77265,46.259],[8.7542,46.25332],[8.7476,46.25459],[8.74049,46.24773],[8.73828,46.2431],[8.74292,46.23972],[8.73223,46.23249],[8.72926,46.22701],[8.74141,46.22005],[8.74057,46.2172],[8.74567,46.21623],[8.74079,46.21254],[8.73987,46.20487],[8.70748,46.20529],[8.70633,46.20537]]]}},{"type":"Feature","properties":{"name":"Magliaso","cantonId":"ticino","municipalityId":"magliaso-5193"},"geometry":{"type":"Polygon","coordinates":[[[8.89678,45.9732],[8.87992,45.98102],[8.87871,45.98207],[8.88211,45.98568],[8.89217,45.98933],[8.90169,45.98636],[8.8972,45.97359],[8.89678,45.9732]]]}},{"type":"Feature","properties":{"name":"Manno","cantonId":"ticino","municipalityId":"manno-5194"},"geometry":{"type":"Polygon","coordinates":[[[8.92743,46.02943],[8.92765,46.02038],[8.9157,46.02209],[8.91277,46.02453],[8.913,46.02929],[8.90733,46.03821],[8.91327,46.03958],[8.92802,46.03703],[8.92728,46.03021],[8.92743,46.02943]]]}},{"type":"Feature","properties":{"name":"Massagno","cantonId":"ticino","municipalityId":"massagno-5196"},"geometry":{"type":"Polygon","coordinates":[[[8.93978,46.01542],[8.95043,46.01665],[8.95129,46.01415],[8.94686,46.01],[8.94777,46.00848],[8.94192,46.00802],[8.93636,46.01071],[8.93549,46.01226],[8.93957,46.01523],[8.93978,46.01542]]]}},{"type":"Feature","properties":{"name":"Melide","cantonId":"ticino","municipalityId":"melide-5198"},"geometry":{"type":"Polygon","coordinates":[[[8.93192,45.94247],[8.94104,45.95367],[8.94384,45.95927],[8.94324,45.96646],[8.95216,45.97796],[8.96252,45.97385],[8.95747,45.96293],[8.95975,45.95377],[8.95609,45.9465],[8.94063,45.9367],[8.93256,45.94178],[8.93192,45.94247]]]}},{"type":"Feature","properties":{"name":"Mendrisio","cantonId":"ticino","municipalityId":"mendrisio-5254"},"geometry":{"type":"Polygon","coordinates":[[[8.94678,45.84266],[8.94489,45.8454],[8.9538,45.84941],[8.95257,45.85196],[8.95554,45.85458],[8.93935,45.86376],[8.9453,45.86698],[8.94206,45.87034],[8.93703,45.86731],[8.93377,45.87033],[8.93194,45.88502],[8.92154,45.89577],[8.92484,45.9037],[8.92025,45.90896],[8.93265,45.91008],[8.93809,45.91501],[8.94454,45.91207],[8.94983,45.9141],[8.95891,45.90216],[8.96661,45.88529],[8.97622,45.88891],[8.97307,45.89458],[8.97629,45.89941],[8.97765,45.91351],[8.99727,45.90864],[9.01178,45.9199],[9.01697,45.91871],[9.0143,45.91779],[9.01574,45.91461],[9.00759,45.9143],[9.0139,45.89893],[9.00992,45.89416],[9.01138,45.8879],[9.00917,45.87885],[8.99808,45.87178],[8.99967,45.86822],[8.99438,45.8698],[8.98239,45.86158],[8.98361,45.85979],[8.97543,45.86054],[8.96876,45.85754],[8.96167,45.85121],[8.9629,45.84675],[8.95618,45.8416],[8.95624,45.84338],[8.94881,45.84343],[8.94678,45.84266]]]}},{"type":"Feature","properties":{"name":"Mergoscia","cantonId":"ticino","municipalityId":"mergoscia-5117"},"geometry":{"type":"Polygon","coordinates":[[[8.85485,46.20555],[8.84804,46.19836],[8.83614,46.20007],[8.83595,46.19804],[8.82877,46.19622],[8.81746,46.20572],[8.79223,46.20876],[8.79049,46.21023],[8.80025,46.22261],[8.79805,46.22767],[8.80649,46.22736],[8.80883,46.22978],[8.81663,46.23062],[8.84481,46.22278],[8.85355,46.22334],[8.85785,46.21622],[8.85412,46.20858],[8.85502,46.20571],[8.85485,46.20555]]]}},{"type":"Feature","properties":{"name":"Mezzovico-Vira","cantonId":"ticino","municipalityId":"mezzovico-vira-5199"},"geometry":{"type":"MultiPolygon","coordinates":[[[[8.93922,46.08678],[8.91691,46.08474],[8.91405,46.08273],[8.90026,46.0854],[8.89428,46.09006],[8.88424,46.09319],[8.88752,46.09703],[8.87635,46.10557],[8.88555,46.10912],[8.90644,46.10738],[8.91658,46.11087],[8.92143,46.10693],[8.93071,46.1063],[8.93095,46.10144],[8.94407,46.09503],[8.93937,46.08708],[8.93922,46.08678]]],[[[8.8644,46.0899],[8.87214,46.09051],[8.87974,46.08816],[8.88379,46.0822],[8.86581,46.08428],[8.86471,46.08843],[8.8644,46.0899]]]]}},{"type":"Feature","properties":{"name":"Minusio","cantonId":"ticino","municipalityId":"minusio-5118"},"geometry":{"type":"Polygon","coordinates":[[[8.79003,46.1966],[8.79113,46.20262],[8.80601,46.2013],[8.81556,46.19689],[8.8131,46.19378],[8.81653,46.18794],[8.80932,46.18642],[8.81194,46.18128],[8.82247,46.18588],[8.83683,46.18522],[8.83658,46.18743],[8.84395,46.18488],[8.84642,46.18083],[8.84437,46.17844],[8.84572,46.17638],[8.83418,46.17052],[8.83058,46.15901],[8.82751,46.1579],[8.81172,46.16618],[8.80947,46.17503],[8.79161,46.19584],[8.79003,46.1966]]]}},{"type":"Feature","properties":{"name":"Monteceneri","cantonId":"ticino","municipalityId":"monteceneri-5238"},"geometry":{"type":"Polygon","coordinates":[[[8.93603,46.14411],[8.9278,46.14305],[8.92971,46.13848],[8.94907,46.13434],[8.95146,46.1307],[8.96036,46.13364],[8.97463,46.13382],[8.97115,46.12429],[8.98115,46.12017],[8.98577,46.1152],[8.96696,46.10601],[8.9576,46.09579],[8.95062,46.09406],[8.94596,46.09758],[8.94416,46.09492],[8.93095,46.10144],[8.93071,46.1063],[8.92143,46.10693],[8.91658,46.11087],[8.90644,46.10738],[8.88555,46.10912],[8.87635,46.10557],[8.88752,46.09703],[8.88424,46.09319],[8.89428,46.09006],[8.90026,46.0854],[8.91405,46.08273],[8.91691,46.08474],[8.93966,46.08675],[8.93982,46.08377],[8.94187,46.08435],[8.93297,46.0787],[8.93392,46.07263],[8.93831,46.06971],[8.91529,46.07287],[8.90144,46.07729],[8.89282,46.07491],[8.88838,46.07596],[8.88732,46.0824],[8.88379,46.0822],[8.87974,46.08816],[8.86415,46.09109],[8.86758,46.09803],[8.86597,46.10388],[8.87138,46.10444],[8.87623,46.11594],[8.88636,46.13013],[8.89188,46.13219],[8.89129,46.13452],[8.89783,46.14685],[8.9357,46.14407],[8.93603,46.14411]]]}},{"type":"Feature","properties":{"name":"Morbio Inferiore","cantonId":"ticino","municipalityId":"morbio-inferiore-5257"},"geometry":{"type":"Polygon","coordinates":[[[9.01005,45.85265],[9.01285,45.85657],[9.02102,45.85812],[9.0244,45.85473],[9.03441,45.85353],[9.03039,45.85048],[9.03289,45.84782],[9.02623,45.84439],[9.02305,45.83947],[9.01319,45.84464],[9.01079,45.84941],[9.01323,45.85193],[9.01004,45.8525],[9.01005,45.85265]]]}},{"type":"Feature","properties":{"name":"Morcote","cantonId":"ticino","municipalityId":"morcote-5203"},"geometry":{"type":"Polygon","coordinates":[[[8.93154,45.92813],[8.92052,45.91951],[8.90745,45.91779],[8.8961,45.92717],[8.89293,45.93234],[8.8935,45.93739],[8.8984,45.94505],[8.89807,45.94936],[8.91898,45.94234],[8.91276,45.93219],[8.91393,45.92637],[8.92056,45.92671],[8.92701,45.92998],[8.93154,45.92813]]]}},{"type":"Feature","properties":{"name":"Muralto","cantonId":"ticino","municipalityId":"muralto-5120"},"geometry":{"type":"Polygon","coordinates":[[[8.81172,46.16618],[8.79452,46.17423],[8.80665,46.17837],[8.81012,46.17364],[8.81072,46.16815],[8.81172,46.16618]]]}},{"type":"Feature","properties":{"name":"Muzzano","cantonId":"ticino","municipalityId":"muzzano-5205"},"geometry":{"type":"Polygon","coordinates":[[[8.90583,45.98954],[8.90886,45.99763],[8.90586,45.99793],[8.91204,46.00417],[8.92094,46.00226],[8.92685,45.99784],[8.93231,45.99839],[8.92758,45.99445],[8.92278,45.99586],[8.90658,45.98956],[8.90583,45.98954]]]}},{"type":"Feature","properties":{"name":"Neggio","cantonId":"ticino","municipalityId":"neggio-5206"},"geometry":{"type":"Polygon","coordinates":[[[8.8704,45.99219],[8.86751,45.99676],[8.86967,45.99737],[8.87542,45.9922],[8.88266,45.99216],[8.88255,45.98784],[8.88565,45.98941],[8.88939,45.98708],[8.88211,45.98568],[8.87874,45.98209],[8.8757,45.98473],[8.87669,45.98692],[8.86878,45.99116],[8.87036,45.9921],[8.8704,45.99219]]]}},{"type":"Feature","properties":{"name":"Novazzano","cantonId":"ticino","municipalityId":"novazzano-5260"},"geometry":{"type":"Polygon","coordinates":[[[8.99748,45.83464],[8.98989,45.83532],[8.98667,45.83852],[8.98166,45.83574],[8.97617,45.83663],[8.97421,45.83304],[8.96998,45.83235],[8.96146,45.83637],[8.96202,45.83903],[8.95641,45.84244],[8.9629,45.84675],[8.96167,45.85121],[8.96876,45.85754],[8.97184,45.85286],[8.98184,45.84668],[8.98446,45.84693],[8.98497,45.85015],[9.00432,45.84306],[9.00297,45.83687],[8.99805,45.83489],[8.99748,45.83464]]]}},{"type":"Feature","properties":{"name":"Onsernone","cantonId":"ticino","municipalityId":"onsernone-5136"},"geometry":{"type":"Polygon","coordinates":[[[8.70633,46.20537],[8.70174,46.19955],[8.69221,46.19643],[8.69218,46.18872],[8.65921,46.18668],[8.63812,46.18175],[8.62011,46.18225],[8.60129,46.17919],[8.59802,46.1831],[8.5945,46.18213],[8.59255,46.18562],[8.58646,46.18308],[8.58155,46.18365],[8.58054,46.18674],[8.57276,46.18684],[8.56978,46.18515],[8.57257,46.18357],[8.56985,46.1769],[8.5637,46.18395],[8.55404,46.18614],[8.55359,46.19203],[8.54048,46.19781],[8.5364,46.20427],[8.53244,46.21828],[8.52169,46.22185],[8.51455,46.22029],[8.49238,46.2291],[8.46868,46.23289],[8.46393,46.24462],[8.47661,46.25303],[8.4993,46.25271],[8.50927,46.25964],[8.51724,46.25785],[8.54463,46.26205],[8.5549,46.26817],[8.56919,46.26724],[8.59241,46.2605],[8.60132,46.26112],[8.62335,46.25551],[8.62688,46.24929],[8.62673,46.24328],[8.64291,46.23321],[8.64955,46.2312],[8.65872,46.2336],[8.66216,46.2304],[8.67346,46.23074],[8.67741,46.22643],[8.68773,46.22306],[8.69344,46.22344],[8.69703,46.22194],[8.70031,46.21226],[8.70698,46.20951],[8.70679,46.20726],[8.70633,46.20537]]]}},{"type":"Feature","properties":{"name":"Origlio","cantonId":"ticino","municipalityId":"origlio-5208"},"geometry":{"type":"Polygon","coordinates":[[[8.95303,46.05588],[8.95603,46.05213],[8.95495,46.05016],[8.95792,46.0506],[8.95801,46.04908],[8.94674,46.04519],[8.94567,46.04304],[8.93978,46.04274],[8.94044,46.04631],[8.93461,46.05145],[8.93396,46.05744],[8.93575,46.0604],[8.93935,46.05724],[8.95247,46.05609],[8.95303,46.05588]]]}},{"type":"Feature","properties":{"name":"Orselina","cantonId":"ticino","municipalityId":"orselina-5121"},"geometry":{"type":"Polygon","coordinates":[[[8.79003,46.1966],[8.79345,46.19544],[8.79452,46.19135],[8.80015,46.18763],[8.80206,46.18226],[8.80665,46.17837],[8.79452,46.17423],[8.78695,46.1803],[8.79013,46.19641],[8.79003,46.1966]]]}},{"type":"Feature","properties":{"name":"Paradiso","cantonId":"ticino","municipalityId":"paradiso-5210"},"geometry":{"type":"Polygon","coordinates":[[[8.95606,45.98394],[8.94735,45.98413],[8.94079,45.98834],[8.93636,45.98622],[8.94875,45.99433],[8.96728,45.99299],[8.96916,45.99168],[8.96708,45.98416],[8.95606,45.98394]]]}},{"type":"Feature","properties":{"name":"Personico","cantonId":"ticino","municipalityId":"personico-5076"},"geometry":{"type":"Polygon","coordinates":[[[8.84323,46.36318],[8.85712,46.36482],[8.86873,46.37138],[8.88318,46.3757],[8.89095,46.38243],[8.89353,46.37921],[8.90136,46.37656],[8.90155,46.37992],[8.90378,46.38006],[8.91558,46.37315],[8.92403,46.37236],[8.93048,46.36396],[8.95397,46.356],[8.92263,46.33439],[8.91478,46.32211],[8.90337,46.31684],[8.89933,46.30773],[8.88704,46.30482],[8.88415,46.30509],[8.88489,46.30907],[8.88158,46.31369],[8.87756,46.31464],[8.87176,46.3204],[8.85351,46.32092],[8.84829,46.32498],[8.84703,46.32679],[8.84884,46.33004],[8.85956,46.33742],[8.85896,46.34009],[8.8623,46.34211],[8.861,46.34433],[8.86275,46.34692],[8.86181,46.34933],[8.85195,46.35207],[8.84306,46.36302],[8.84323,46.36318]]]}},{"type":"Feature","properties":{"name":"Pollegio","cantonId":"ticino","municipalityId":"pollegio-5077"},"geometry":{"type":"Polygon","coordinates":[[[8.95397,46.356],[8.92977,46.3644],[8.92813,46.36895],[8.93106,46.37163],[8.92716,46.37351],[8.93126,46.37571],[8.93014,46.37713],[8.93193,46.37654],[8.92827,46.37781],[8.93521,46.38107],[8.94186,46.38752],[8.94035,46.38871],[8.94738,46.38833],[8.94809,46.37989],[8.95026,46.37758],[8.96635,46.37339],[8.96004,46.36025],[8.95407,46.35612],[8.95397,46.356]]]}},{"type":"Feature","properties":{"name":"Ponte Capriasca","cantonId":"ticino","municipalityId":"ponte-capriasca-5212"},"geometry":{"type":"MultiPolygon","coordinates":[[[[9.07869,46.12124],[9.05235,46.11344],[9.04933,46.11747],[9.03857,46.11684],[9.03623,46.11916],[9.03314,46.11574],[9.02479,46.11707],[9.02465,46.12604],[9.03239,46.12315],[9.04019,46.12491],[9.05118,46.12227],[9.06419,46.13488],[9.06767,46.13473],[9.07842,46.12189],[9.07869,46.12124]]],[[[8.95303,46.05588],[8.93935,46.05724],[8.93575,46.0604],[8.93595,46.06395],[8.93299,46.06486],[8.93869,46.07011],[8.93363,46.07413],[8.93334,46.07774],[8.93789,46.07733],[8.94159,46.0742],[8.94296,46.06792],[8.95254,46.06365],[8.95351,46.05712],[8.95303,46.05588]]]]}},{"type":"Feature","properties":{"name":"Porza","cantonId":"ticino","municipalityId":"porza-5214"},"geometry":{"type":"Polygon","coordinates":[[[8.94415,46.02862],[8.94707,46.03105],[8.95968,46.03263],[8.96581,46.02994],[8.96632,46.02699],[8.95777,46.02232],[8.9515,46.02437],[8.93958,46.01985],[8.94397,46.02831],[8.94415,46.02862]]]}},{"type":"Feature","properties":{"name":"Pura","cantonId":"ticino","municipalityId":"pura-5216"},"geometry":{"type":"Polygon","coordinates":[[[8.86367,45.97081],[8.85753,45.97583],[8.85881,45.97847],[8.85706,45.98347],[8.85065,45.98647],[8.85611,45.98899],[8.85545,45.99117],[8.8704,45.99219],[8.86878,45.99116],[8.87669,45.98692],[8.8757,45.98473],[8.87885,45.98195],[8.86392,45.97088],[8.86367,45.97081]]]}},{"type":"Feature","properties":{"name":"Quinto","cantonId":"ticino","municipalityId":"quinto-5079"},"geometry":{"type":"Polygon","coordinates":[[[8.77073,46.48622],[8.76406,46.47992],[8.76062,46.46988],[8.76332,46.46126],[8.75613,46.46307],[8.75285,46.46053],[8.74105,46.45866],[8.72916,46.46123],[8.72281,46.45833],[8.71237,46.45959],[8.70716,46.46476],[8.70293,46.47379],[8.69155,46.47666],[8.68948,46.47455],[8.68249,46.4755],[8.66664,46.48216],[8.65479,46.481],[8.64745,46.48257],[8.63347,46.49121],[8.63944,46.49948],[8.65238,46.50632],[8.64408,46.51188],[8.64872,46.51492],[8.65298,46.51368],[8.65448,46.51833],[8.66242,46.5223],[8.66681,46.53498],[8.66527,46.53679],[8.67178,46.54108],[8.67399,46.54776],[8.69292,46.56571],[8.69222,46.57079],[8.70566,46.57384],[8.71751,46.57111],[8.72794,46.57709],[8.73905,46.57219],[8.74394,46.57223],[8.75074,46.57622],[8.78523,46.56767],[8.77958,46.56625],[8.78488,46.56079],[8.77478,46.54241],[8.77693,46.53963],[8.76995,46.53435],[8.77222,46.53017],[8.77106,46.52705],[8.76793,46.52503],[8.75391,46.52486],[8.75383,46.52142],[8.74952,46.51869],[8.74878,46.51519],[8.74856,46.50706],[8.75246,46.50533],[8.74892,46.49849],[8.74291,46.49633],[8.74751,46.48883],[8.76943,46.48634],[8.77073,46.48622]]]}},{"type":"Feature","properties":{"name":"Riva San Vitale","cantonId":"ticino","municipalityId":"riva-san-vitale-5263"},"geometry":{"type":"Polygon","coordinates":[[[8.94983,45.9141],[8.95336,45.91753],[8.95386,45.92822],[8.9495,45.9345],[8.95662,45.93839],[8.97146,45.92756],[8.97765,45.91351],[8.97629,45.89941],[8.97307,45.89458],[8.97622,45.88891],[8.96598,45.88584],[8.95891,45.90216],[8.94982,45.91403],[8.94983,45.9141]]]}},{"type":"Feature","properties":{"name":"Riviera","cantonId":"ticino","municipalityId":"riviera-5287"},"geometry":{"type":"Polygon","coordinates":[[[8.95397,46.356],[8.95987,46.34573],[8.96576,46.34431],[8.9789,46.32566],[9.00624,46.33159],[9.00547,46.33381],[9.01146,46.33966],[9.01134,46.34213],[9.01657,46.34551],[9.03602,46.34287],[9.04618,46.34593],[9.06932,46.34356],[9.06645,46.33636],[9.06965,46.33253],[9.06433,46.32537],[9.07258,46.31884],[9.07506,46.31407],[9.07218,46.30856],[9.06796,46.30711],[9.06002,46.29705],[9.04258,46.29701],[9.02767,46.28858],[9.01749,46.28601],[9.01347,46.28237],[9.01493,46.27443],[9.00664,46.27245],[8.9984,46.27563],[8.99666,46.29134],[8.99125,46.28864],[8.99147,46.27644],[8.97536,46.27582],[8.96993,46.27199],[8.96547,46.273],[8.95897,46.26708],[8.95208,46.26592],[8.95096,46.27044],[8.94811,46.26657],[8.93215,46.26011],[8.93144,46.25386],[8.91706,46.25486],[8.9134,46.25784],[8.91201,46.2625],[8.91232,46.27168],[8.90713,46.27428],[8.90478,46.27845],[8.90636,46.29144],[8.91161,46.29922],[8.91042,46.30306],[8.89894,46.30748],[8.90337,46.31684],[8.91478,46.32211],[8.92263,46.33439],[8.95271,46.35508],[8.95397,46.356]]]}},{"type":"Feature","properties":{"name":"Ronco sopra Ascona","cantonId":"ticino","municipalityId":"ronco-sopra-ascona-5125"},"geometry":{"type":"Polygon","coordinates":[[[8.74234,46.12231],[8.72643,46.12865],[8.69628,46.14625],[8.70233,46.15135],[8.71597,46.15572],[8.73375,46.15722],[8.74655,46.15378],[8.74022,46.15101],[8.74004,46.14887],[8.7482,46.13484],[8.75332,46.13077],[8.74416,46.12295],[8.74234,46.12231]],[[8.73853,46.1304],[8.73866,46.13582],[8.73283,46.13589],[8.7327,46.13047],[8.73853,46.1304]]]}},{"type":"Feature","properties":{"name":"Sant'Antonino","cantonId":"ticino","municipalityId":"santantonino-5017"},"geometry":{"type":"Polygon","coordinates":[[[8.99873,46.14489],[8.98048,46.13751],[8.96171,46.15223],[8.96013,46.15595],[8.95611,46.1546],[8.95407,46.16024],[8.94963,46.1595],[8.94769,46.16149],[8.93816,46.1598],[8.93685,46.16206],[8.93236,46.16173],[8.93153,46.1643],[8.94776,46.16585],[8.94833,46.16413],[8.96163,46.1648],[8.96339,46.16165],[8.97009,46.16391],[8.97244,46.1611],[8.97993,46.16263],[8.98506,46.15569],[8.98919,46.1576],[8.99391,46.15627],[8.99893,46.1487],[8.999,46.14516],[8.99873,46.14489]]]}},{"type":"Feature","properties":{"name":"Savosa","cantonId":"ticino","municipalityId":"savosa-5221"},"geometry":{"type":"Polygon","coordinates":[[[8.93281,46.01756],[8.95347,46.02453],[8.9501,46.0197],[8.95043,46.01665],[8.94165,46.01473],[8.93292,46.01747],[8.93281,46.01756]]]}},{"type":"Feature","properties":{"name":"Serravalle","cantonId":"ticino","municipalityId":"serravalle-5050"},"geometry":{"type":"Polygon","coordinates":[[[8.92933,46.40563],[8.91718,46.41565],[8.92454,46.42075],[8.93417,46.42309],[8.92968,46.42427],[8.9416,46.43066],[8.9518,46.42678],[8.95723,46.43155],[8.97503,46.42586],[8.97615,46.42219],[8.97983,46.42533],[8.98667,46.42539],[8.98942,46.43784],[8.99649,46.43992],[9.00107,46.44493],[8.99523,46.46026],[8.99666,46.46635],[8.99208,46.47123],[8.99698,46.47789],[9.01577,46.48416],[9.02056,46.49059],[9.03115,46.49275],[9.03897,46.49157],[9.04638,46.48664],[9.04788,46.48364],[9.04535,46.48135],[9.05401,46.47681],[9.06055,46.4763],[9.07356,46.48027],[9.08259,46.47704],[9.08543,46.4754],[9.08506,46.47095],[9.09508,46.46038],[9.09211,46.4488],[9.08702,46.44369],[9.08902,46.43215],[9.10092,46.41754],[9.1031,46.41166],[9.09045,46.40652],[9.09144,46.40323],[9.09622,46.39987],[9.08726,46.38883],[9.0723,46.38933],[9.06099,46.39447],[9.03262,46.39996],[9.01416,46.40051],[9.00006,46.39237],[8.98956,46.3948],[8.98641,46.38802],[8.99616,46.3842],[8.99505,46.38135],[8.99967,46.37799],[8.99696,46.37517],[8.97546,46.38133],[8.97594,46.38885],[8.96145,46.39075],[8.9511,46.38531],[8.95362,46.37814],[8.95026,46.37758],[8.94809,46.37989],[8.94738,46.38833],[8.94035,46.38871],[8.93633,46.39217],[8.93059,46.39762],[8.9296,46.40482],[8.92933,46.40563]]]}},{"type":"Feature","properties":{"name":"Sorengo","cantonId":"ticino","municipalityId":"sorengo-5225"},"geometry":{"type":"Polygon","coordinates":[[[8.93857,45.9943],[8.93029,45.99562],[8.93125,45.99923],[8.92669,45.99814],[8.93546,46.00729],[8.9383,46.00224],[8.94298,46.00027],[8.93873,45.99436],[8.93857,45.9943]]]}},{"type":"Feature","properties":{"name":"Stabio","cantonId":"ticino","municipalityId":"stabio-5266"},"geometry":{"type":"Polygon","coordinates":[[[8.94678,45.84266],[8.93337,45.83923],[8.92895,45.83335],[8.92048,45.8342],[8.91215,45.83044],[8.91423,45.84223],[8.93254,45.86096],[8.93934,45.86379],[8.95554,45.85458],[8.95257,45.85196],[8.9538,45.84941],[8.94489,45.8454],[8.94671,45.84266],[8.94678,45.84266]]]}},{"type":"Feature","properties":{"name":"Tenero-Contra","cantonId":"ticino","municipalityId":"tenero-contra-5131"},"geometry":{"type":"MultiPolygon","coordinates":[[[[8.83058,46.15901],[8.83418,46.17052],[8.84414,46.17504],[8.84642,46.18083],[8.84395,46.18488],[8.82544,46.19227],[8.8251,46.1958],[8.83595,46.19804],[8.83614,46.20007],[8.84311,46.19943],[8.84804,46.19836],[8.8485,46.19594],[8.8445,46.18979],[8.84519,46.18678],[8.85864,46.17933],[8.86046,46.17578],[8.85937,46.17044],[8.85841,46.16748],[8.85247,46.16446],[8.83155,46.15883],[8.83058,46.15901]]],[[[8.83683,46.18572],[8.83517,46.18647],[8.83575,46.18679],[8.83738,46.18621],[8.83746,46.18618],[8.83764,46.18596],[8.83765,46.18588],[8.83764,46.18583],[8.8376,46.18576],[8.83756,46.18572],[8.83751,46.18567],[8.83728,46.18551],[8.83683,46.18572]]]]}},{"type":"Feature","properties":{"name":"Terre di Pedemonte","cantonId":"ticino","municipalityId":"terre-di-pedemonte-5396"},"geometry":{"type":"Polygon","coordinates":[[[8.70633,46.20537],[8.74134,46.20483],[8.74199,46.20015],[8.75096,46.19683],[8.7525,46.19302],[8.75571,46.19214],[8.7562,46.18701],[8.74942,46.18595],[8.75868,46.18002],[8.74164,46.18042],[8.73962,46.18241],[8.72671,46.17804],[8.71135,46.18056],[8.69761,46.17968],[8.69401,46.18275],[8.69485,46.18639],[8.69086,46.19329],[8.69221,46.19643],[8.70174,46.19955],[8.70614,46.20379],[8.70633,46.20537]]]}},{"type":"Feature","properties":{"name":"Torricella-Taverne","cantonId":"ticino","municipalityId":"torricella-taverne-5227"},"geometry":{"type":"Polygon","coordinates":[[[8.88379,46.0822],[8.88732,46.0824],[8.88838,46.07596],[8.89282,46.07491],[8.90144,46.07729],[8.91529,46.07287],[8.93831,46.06971],[8.93299,46.06486],[8.93643,46.0624],[8.93297,46.05562],[8.91777,46.05774],[8.90646,46.06348],[8.89771,46.07123],[8.88543,46.07232],[8.87689,46.08215],[8.88379,46.0822]]]}},{"type":"Feature","properties":{"name":"Tresa","cantonId":"ticino","municipalityId":"tresa-5239"},"geometry":{"type":"Polygon","coordinates":[[[8.8512,45.98736],[8.85706,45.98347],[8.85881,45.97847],[8.85753,45.97583],[8.8638,45.97124],[8.86419,45.96543],[8.84963,45.97287],[8.84346,45.97757],[8.8427,45.98147],[8.83132,45.98802],[8.82014,45.98741],[8.81383,45.99097],[8.79577,45.99207],[8.79242,45.99189],[8.79083,45.98859],[8.78588,45.98908],[8.79309,46.0081],[8.7972,46.01223],[8.81947,46.00536],[8.82625,46.00957],[8.83085,46.00936],[8.8325,46.00603],[8.82824,46.00044],[8.8373,46.00121],[8.83769,45.99808],[8.8485,46.00235],[8.8501,45.99511],[8.8477,45.99175],[8.85106,45.98759],[8.8512,45.98736]]]}},{"type":"Feature","properties":{"name":"Vacallo","cantonId":"ticino","municipalityId":"vacallo-5268"},"geometry":{"type":"Polygon","coordinates":[[[9.05145,45.85556],[9.04824,45.85318],[9.05077,45.85221],[9.04381,45.84659],[9.04073,45.84657],[9.03865,45.84203],[9.03366,45.8392],[9.02309,45.83955],[9.02623,45.84439],[9.03293,45.84788],[9.03073,45.85107],[9.03434,45.85391],[9.04168,45.85217],[9.05084,45.85546],[9.05145,45.85556]]]}},{"type":"Feature","properties":{"name":"Val Mara","cantonId":"ticino","municipalityId":"val-mara-5240"},"geometry":{"type":"Polygon","coordinates":[[[9.0122,45.94378],[9.02234,45.9375],[9.01974,45.92884],[9.01342,45.9251],[9.01244,45.91947],[8.99931,45.90971],[8.98652,45.91027],[8.97765,45.91351],[8.97146,45.92756],[8.96058,45.93593],[8.96447,45.9399],[8.98058,45.94398],[8.98249,45.94641],[8.99344,45.94297],[8.99942,45.94512],[9.01196,45.94384],[9.0122,45.94378]]]}},{"type":"Feature","properties":{"name":"Vernate","cantonId":"ticino","municipalityId":"vernate-5230"},"geometry":{"type":"Polygon","coordinates":[[[8.87017,46.0011],[8.87492,46.00195],[8.88979,45.99871],[8.888,45.99391],[8.89033,45.99266],[8.88376,45.98768],[8.88257,45.99222],[8.87833,45.99129],[8.87136,45.9945],[8.86921,45.99797],[8.87019,46.00108],[8.87017,46.0011]]]}},{"type":"Feature","properties":{"name":"Verzasca","cantonId":"ticino","municipalityId":"verzasca-5399"},"geometry":{"type":"Polygon","coordinates":[[[8.84323,46.36318],[8.85195,46.35207],[8.86256,46.34821],[8.85956,46.33742],[8.84703,46.32679],[8.84944,46.32347],[8.854,46.32084],[8.87176,46.3204],[8.88434,46.3106],[8.88415,46.30509],[8.89894,46.30748],[8.91042,46.30306],[8.91161,46.29922],[8.90636,46.29144],[8.90481,46.27832],[8.91329,46.2695],[8.9134,46.25784],[8.92576,46.25221],[8.92446,46.24731],[8.91701,46.23863],[8.93137,46.2334],[8.9219,46.21159],[8.89581,46.20536],[8.88489,46.20555],[8.88134,46.20269],[8.88087,46.198],[8.87797,46.19707],[8.85686,46.20364],[8.85412,46.20858],[8.85785,46.21622],[8.85355,46.22334],[8.84481,46.22278],[8.81663,46.23062],[8.80883,46.22978],[8.80649,46.22736],[8.79805,46.22767],[8.79516,46.23274],[8.79744,46.23878],[8.79253,46.2444],[8.77872,46.2468],[8.77265,46.259],[8.77604,46.26799],[8.76559,46.2783],[8.75421,46.28121],[8.75382,46.28631],[8.73598,46.2952],[8.73308,46.30183],[8.71601,46.30908],[8.7078,46.30949],[8.69081,46.31561],[8.68979,46.32025],[8.68149,46.32489],[8.68355,46.33033],[8.69193,46.3354],[8.69472,46.34802],[8.71279,46.35432],[8.71169,46.35926],[8.72535,46.36617],[8.73214,46.37559],[8.73537,46.37604],[8.73537,46.38152],[8.7314,46.38555],[8.73095,46.39082],[8.74197,46.40575],[8.75349,46.40533],[8.76075,46.39825],[8.77294,46.39688],[8.78234,46.39319],[8.78819,46.39363],[8.80177,46.38844],[8.81251,46.38783],[8.81487,46.38399],[8.82943,46.37843],[8.83285,46.36987],[8.83146,46.36644],[8.84269,46.36339],[8.84323,46.36318]]]}},{"type":"Feature","properties":{"name":"Vezia","cantonId":"ticino","municipalityId":"vezia-5231"},"geometry":{"type":"Polygon","coordinates":[[[8.94005,46.03141],[8.94415,46.02862],[8.94334,46.02559],[8.93958,46.01985],[8.93123,46.01744],[8.92765,46.02038],[8.92743,46.02943],[8.93966,46.03157],[8.94005,46.03141]]]}},{"type":"Feature","properties":{"name":"Vico Morcote","cantonId":"ticino","municipalityId":"vico-morcote-5233"},"geometry":{"type":"Polygon","coordinates":[[[8.93154,45.92813],[8.92588,45.93054],[8.92066,45.92674],[8.91393,45.92637],[8.91275,45.93214],[8.91608,45.9389],[8.91898,45.94234],[8.92658,45.93967],[8.92795,45.94297],[8.93192,45.94247],[8.94063,45.9367],[8.93202,45.92876],[8.93154,45.92813]]]}}]}
