{"type":"FeatureCollection","features":[{"type":"Feature","properties":{"name":"Altdorf (UR)","cantonId":"uri","municipalityId":"altdorf-ur-1201"},"geometry":{"type":"Polygon","coordinates":[[[8.63263,46.86363],[8.61552,46.89419],[8.62202,46.89328],[8.62688,46.89726],[8.62892,46.89518],[8.63289,46.8978],[8.63326,46.90154],[8.64024,46.90349],[8.64048,46.9091],[8.65512,46.90838],[8.65831,46.90034],[8.66732,46.89666],[8.65946,46.8933],[8.65992,46.89003],[8.65453,46.88316],[8.65701,46.88047],[8.65525,46.8787],[8.65624,46.87547],[8.64292,46.87195],[8.63332,46.86403],[8.63263,46.86363]]]}},{"type":"Feature","properties":{"name":"Andermatt","cantonId":"uri","municipalityId":"andermatt-1202"},"geometry":{"type":"Polygon","coordinates":[[[8.67875,46.57919],[8.65996,46.57365],[8.65729,46.56907],[8.65129,46.56669],[8.64075,46.56413],[8.63145,46.56542],[8.62955,46.57374],[8.62656,46.57637],[8.61322,46.57931],[8.60982,46.58463],[8.61161,46.59438],[8.59171,46.61152],[8.59036,46.61631],[8.58473,46.62293],[8.57973,46.62511],[8.57751,46.63011],[8.5742,46.62984],[8.56142,46.63674],[8.54655,46.63957],[8.5512,46.64288],[8.56461,46.64497],[8.56982,46.64978],[8.59981,46.64878],[8.62034,46.65736],[8.62997,46.66512],[8.63786,46.66779],[8.64391,46.67558],[8.66211,46.67122],[8.66635,46.67585],[8.6737,46.67705],[8.67373,46.67101],[8.67861,46.66426],[8.66622,46.65597],[8.6614,46.65602],[8.65488,46.64997],[8.65842,46.64716],[8.65748,46.64163],[8.65188,46.63794],[8.65107,46.63458],[8.65659,46.63133],[8.65796,46.62616],[8.66403,46.62168],[8.67668,46.61997],[8.67964,46.60562],[8.67672,46.59937],[8.68061,46.59505],[8.68192,46.58853],[8.67875,46.57919]]]}},{"type":"Feature","properties":{"name":"Attinghausen","cantonId":"uri","municipalityId":"attinghausen-1203"},"geometry":{"type":"Polygon","coordinates":[[[8.63263,46.86363],[8.63502,46.86082],[8.63135,46.84776],[8.62764,46.84336],[8.61461,46.8381],[8.60616,46.83751],[8.59851,46.84026],[8.58104,46.83629],[8.55586,46.83964],[8.54633,46.83595],[8.55171,46.83189],[8.55143,46.8275],[8.54719,46.82473],[8.547,46.81759],[8.52788,46.8037],[8.52299,46.784],[8.51322,46.77878],[8.50861,46.77941],[8.5034,46.77544],[8.49845,46.77642],[8.49144,46.77253],[8.48829,46.78146],[8.47856,46.78927],[8.48194,46.79389],[8.48114,46.79842],[8.47259,46.79545],[8.46472,46.79851],[8.46427,46.80053],[8.47232,46.79937],[8.4833,46.8047],[8.48324,46.80875],[8.47813,46.81372],[8.48369,46.81987],[8.48342,46.82702],[8.48631,46.83204],[8.48897,46.83566],[8.50437,46.84118],[8.50689,46.84548],[8.51993,46.84669],[8.53493,46.84025],[8.54163,46.84149],[8.55216,46.84873],[8.55148,46.85059],[8.55938,46.84664],[8.57416,46.85288],[8.57935,46.85827],[8.59448,46.86673],[8.60544,46.87703],[8.62428,46.87799],[8.63255,46.86372],[8.63263,46.86363]]]}},{"type":"Feature","properties":{"name":"Bürglen (UR)","cantonId":"uri","municipalityId":"buerglen-ur-1205"},"geometry":{"type":"Polygon","coordinates":[[[8.63263,46.86363],[8.64292,46.87195],[8.65626,46.87549],[8.65525,46.8787],[8.65701,46.88047],[8.65453,46.88316],[8.65992,46.89003],[8.65946,46.8933],[8.67406,46.90209],[8.67898,46.91565],[8.68274,46.91764],[8.70607,46.91478],[8.70777,46.91716],[8.71768,46.91849],[8.72853,46.92836],[8.73743,46.93238],[8.74363,46.93236],[8.74597,46.93535],[8.74913,46.93367],[8.77093,46.9415],[8.77448,46.93968],[8.77785,46.93313],[8.78775,46.93035],[8.79197,46.93078],[8.79797,46.93673],[8.8107,46.94145],[8.81419,46.93863],[8.82677,46.93571],[8.83008,46.93046],[8.82884,46.92286],[8.80959,46.9135],[8.80818,46.91069],[8.79019,46.91067],[8.7883,46.90912],[8.78901,46.90633],[8.78026,46.90229],[8.77785,46.89753],[8.76869,46.89682],[8.75984,46.89265],[8.73362,46.89993],[8.72373,46.90863],[8.72474,46.91248],[8.71644,46.91304],[8.7147,46.90278],[8.71694,46.88706],[8.71237,46.87828],[8.70738,46.8779],[8.70656,46.87376],[8.69789,46.87023],[8.70664,46.86401],[8.71217,46.8638],[8.71616,46.84781],[8.68987,46.85124],[8.69058,46.85389],[8.68695,46.85819],[8.68354,46.8578],[8.67774,46.86424],[8.67379,46.86306],[8.66762,46.86495],[8.65618,46.87269],[8.63277,46.86348],[8.63263,46.86363]]]}},{"type":"Feature","properties":{"name":"Erstfeld","cantonId":"uri","municipalityId":"erstfeld-1206"},"geometry":{"type":"Polygon","coordinates":[[[8.63135,46.84776],[8.63206,46.84628],[8.63787,46.84932],[8.63998,46.84217],[8.64615,46.84475],[8.6573,46.84201],[8.65733,46.83919],[8.66493,46.83622],[8.67321,46.83631],[8.68303,46.83309],[8.67851,46.82932],[8.67699,46.82263],[8.6664,46.81765],[8.66036,46.81022],[8.66162,46.80296],[8.6646,46.7993],[8.63169,46.78585],[8.6125,46.79301],[8.58884,46.78876],[8.58276,46.78259],[8.57674,46.78414],[8.55642,46.78104],[8.55137,46.78275],[8.54717,46.77907],[8.53659,46.77637],[8.52867,46.77661],[8.51751,46.78055],[8.52454,46.78676],[8.52308,46.78902],[8.52732,46.7974],[8.52693,46.80251],[8.547,46.81759],[8.54719,46.82473],[8.55143,46.8275],[8.55171,46.83189],[8.54633,46.83595],[8.55586,46.83964],[8.58104,46.83629],[8.59851,46.84026],[8.60616,46.83751],[8.61342,46.83792],[8.62764,46.84336],[8.63067,46.84768],[8.63135,46.84776]]]}},{"type":"Feature","properties":{"name":"Flüelen","cantonId":"uri","municipalityId":"flueelen-1207"},"geometry":{"type":"Polygon","coordinates":[[[8.61558,46.89326],[8.60764,46.90734],[8.60787,46.91813],[8.5987,46.92796],[8.61333,46.9281],[8.61669,46.9272],[8.61733,46.92372],[8.6208,46.92324],[8.62516,46.93004],[8.6397,46.93201],[8.64646,46.92799],[8.66611,46.92448],[8.6698,46.92061],[8.6835,46.9194],[8.67898,46.91565],[8.67406,46.90209],[8.66732,46.89666],[8.65831,46.90034],[8.65512,46.90838],[8.64361,46.90956],[8.64048,46.9091],[8.64024,46.90349],[8.63326,46.90154],[8.63289,46.8978],[8.62892,46.89518],[8.62688,46.89726],[8.62202,46.89328],[8.61599,46.89337],[8.61558,46.89326]]]}},{"type":"Feature","properties":{"name":"Göschenen","cantonId":"uri","municipalityId":"goeschenen-1208"},"geometry":{"type":"Polygon","coordinates":[[[8.42236,46.62726],[8.41881,46.63592],[8.42199,46.64788],[8.41823,46.65219],[8.41027,46.65294],[8.40843,46.66562],[8.40234,46.66867],[8.39806,46.67423],[8.39873,46.69165],[8.41223,46.69071],[8.41481,46.68744],[8.42819,46.68606],[8.44081,46.68551],[8.45145,46.6884],[8.45507,46.69752],[8.45215,46.7042],[8.45369,46.71056],[8.4654,46.71612],[8.47768,46.71384],[8.48693,46.71697],[8.50695,46.69687],[8.52257,46.69089],[8.52596,46.6854],[8.53276,46.6832],[8.54662,46.68143],[8.56443,46.68333],[8.57013,46.67864],[8.57882,46.67616],[8.59243,46.67962],[8.60422,46.67669],[8.63509,46.68316],[8.64035,46.67897],[8.64179,46.67302],[8.63831,46.66809],[8.62997,46.66512],[8.62034,46.65736],[8.59981,46.64878],[8.58626,46.65048],[8.57898,46.64817],[8.56772,46.64928],[8.56461,46.64497],[8.5512,46.64288],[8.52718,46.63202],[8.51231,46.63239],[8.50218,46.62522],[8.49433,46.62399],[8.4833,46.61862],[8.46826,46.62526],[8.45422,46.62031],[8.43789,46.61993],[8.42244,46.62709],[8.42236,46.62726]]]}},{"type":"Feature","properties":{"name":"Gurtnellen","cantonId":"uri","municipalityId":"gurtnellen-1209"},"geometry":{"type":"Polygon","coordinates":[[[8.6737,46.67705],[8.66635,46.67585],[8.66211,46.67122],[8.64992,46.67516],[8.64198,46.67423],[8.64035,46.67897],[8.63467,46.68398],[8.63638,46.69076],[8.6341,46.70227],[8.63758,46.70721],[8.63694,46.71283],[8.61531,46.7145],[8.59204,46.72336],[8.5849,46.73091],[8.57695,46.7352],[8.57334,46.7404],[8.551,46.7476],[8.54519,46.75286],[8.54133,46.76441],[8.53666,46.76729],[8.53809,46.77271],[8.54041,46.77392],[8.53659,46.77637],[8.54717,46.77907],[8.55137,46.78275],[8.55642,46.78104],[8.57674,46.78414],[8.58276,46.78259],[8.58884,46.78876],[8.6125,46.79301],[8.63169,46.78585],[8.6646,46.7993],[8.66826,46.78288],[8.66601,46.77588],[8.66996,46.76864],[8.66084,46.76486],[8.65609,46.75996],[8.64961,46.75904],[8.64459,46.75356],[8.64516,46.75158],[8.66435,46.74742],[8.6813,46.73698],[8.68545,46.73041],[8.68569,46.72816],[8.67895,46.72422],[8.68395,46.72042],[8.68523,46.71565],[8.68337,46.71263],[8.69355,46.70461],[8.68629,46.69417],[8.6783,46.69495],[8.67436,46.69214],[8.67418,46.67794],[8.6737,46.67705]]]}},{"type":"Feature","properties":{"name":"Hospental","cantonId":"uri","municipalityId":"hospental-1210"},"geometry":{"type":"Polygon","coordinates":[[[8.61496,46.57815],[8.61126,46.575],[8.59054,46.5734],[8.58139,46.57705],[8.5737,46.58371],[8.56521,46.58133],[8.54805,46.58174],[8.53921,46.58678],[8.52603,46.60683],[8.52101,46.60533],[8.52234,46.60714],[8.5146,46.61727],[8.50831,46.62335],[8.50185,46.62574],[8.51231,46.63239],[8.52718,46.63202],[8.53284,46.63606],[8.54662,46.63943],[8.56142,46.63674],[8.5742,46.62984],[8.57704,46.63041],[8.57973,46.62511],[8.58473,46.62293],[8.59036,46.61631],[8.59171,46.61152],[8.61161,46.59438],[8.60982,46.58463],[8.61486,46.5785],[8.61496,46.57815]]]}},{"type":"Feature","properties":{"name":"Isenthal","cantonId":"uri","municipalityId":"isenthal-1211"},"geometry":{"type":"Polygon","coordinates":[[[8.54406,46.92786],[8.55373,46.92711],[8.55467,46.92306],[8.56596,46.92005],[8.56795,46.91767],[8.58578,46.92293],[8.5908,46.91747],[8.60785,46.91725],[8.60773,46.91162],[8.58753,46.91282],[8.5878,46.91026],[8.57721,46.90498],[8.56846,46.89748],[8.57242,46.89447],[8.56933,46.89284],[8.56754,46.88685],[8.57839,46.88408],[8.5778,46.87917],[8.57299,46.87234],[8.56001,46.86708],[8.55216,46.84873],[8.54144,46.84142],[8.53006,46.84093],[8.51993,46.84669],[8.50681,46.84548],[8.49787,46.85373],[8.4902,46.85304],[8.48005,46.85725],[8.47085,46.85484],[8.46791,46.86064],[8.47135,46.86813],[8.4672,46.87624],[8.4791,46.88252],[8.47297,46.89148],[8.47406,46.89343],[8.46766,46.89756],[8.45831,46.89877],[8.46427,46.90473],[8.48127,46.90853],[8.4861,46.91847],[8.49812,46.91875],[8.50279,46.91443],[8.51533,46.91798],[8.51984,46.92284],[8.53172,46.92354],[8.54357,46.9277],[8.54406,46.92786]]]}},{"type":"Feature","properties":{"name":"Realp","cantonId":"uri","municipalityId":"realp-1212"},"geometry":{"type":"Polygon","coordinates":[[[8.47764,46.52761],[8.46442,46.53583],[8.45741,46.53365],[8.43557,46.54013],[8.42632,46.54732],[8.42326,46.56015],[8.41963,46.56357],[8.41703,46.5711],[8.40996,46.57748],[8.40614,46.58596],[8.41031,46.59638],[8.40799,46.60119],[8.41614,46.60683],[8.42236,46.62726],[8.43789,46.61993],[8.45422,46.62031],[8.46826,46.62526],[8.4833,46.61862],[8.49433,46.62399],[8.50646,46.62422],[8.5146,46.61727],[8.52234,46.60714],[8.52101,46.60533],[8.52603,46.60683],[8.53368,46.59384],[8.53872,46.58973],[8.53893,46.58642],[8.53139,46.58457],[8.52633,46.58153],[8.52502,46.57783],[8.52119,46.57725],[8.52101,46.56692],[8.51312,46.55808],[8.51587,46.55447],[8.51572,46.54861],[8.52044,46.5425],[8.51947,46.53892],[8.48264,46.53239],[8.47841,46.52802],[8.47764,46.52761]]]}},{"type":"Feature","properties":{"name":"Schattdorf","cantonId":"uri","municipalityId":"schattdorf-1213"},"geometry":{"type":"Polygon","coordinates":[[[8.63135,46.84776],[8.63497,46.86023],[8.63277,46.86348],[8.65618,46.87269],[8.66762,46.86495],[8.67379,46.86306],[8.67774,46.86424],[8.68354,46.8578],[8.68695,46.85819],[8.69058,46.85389],[8.68987,46.85124],[8.71447,46.84691],[8.71195,46.84293],[8.71404,46.83856],[8.7119,46.83384],[8.70675,46.83448],[8.70483,46.8309],[8.69194,46.82907],[8.68202,46.83069],[8.68303,46.83309],[8.68036,46.83486],[8.65818,46.83871],[8.65599,46.84239],[8.64529,46.84492],[8.63998,46.84217],[8.63787,46.84932],[8.63148,46.84683],[8.63135,46.84776]]]}},{"type":"Feature","properties":{"name":"Seedorf (UR)","cantonId":"uri","municipalityId":"seedorf-ur-1214"},"geometry":{"type":"MultiPolygon","coordinates":[[[[8.62428,46.87799],[8.60526,46.87696],[8.59448,46.86673],[8.57935,46.85827],[8.57416,46.85288],[8.55938,46.84664],[8.55148,46.85059],[8.55454,46.85213],[8.55324,46.85456],[8.55865,46.86073],[8.56001,46.86708],[8.57299,46.87234],[8.5778,46.87917],[8.57839,46.88408],[8.56754,46.88685],[8.56933,46.89284],[8.57242,46.89447],[8.56846,46.89748],[8.57721,46.90498],[8.5878,46.91026],[8.58701,46.9126],[8.60773,46.91162],[8.60764,46.90734],[8.62244,46.88121],[8.62428,46.87799]]],[[[8.60062,46.94342],[8.59537,46.93153],[8.60785,46.91725],[8.5908,46.91747],[8.58578,46.92293],[8.56795,46.91767],[8.56596,46.92005],[8.55591,46.9226],[8.56359,46.93054],[8.56313,46.93298],[8.55645,46.93727],[8.56979,46.93702],[8.57085,46.94061],[8.5847,46.94357],[8.60062,46.94342]]]]}},{"type":"Feature","properties":{"name":"Seelisberg","cantonId":"uri","municipalityId":"seelisberg-1215"},"geometry":{"type":"Polygon","coordinates":[[[8.54406,46.92786],[8.54768,46.93482],[8.54358,46.93935],[8.55883,46.9404],[8.55564,46.94111],[8.55734,46.94752],[8.55498,46.96321],[8.56024,46.96558],[8.56306,46.97022],[8.56222,46.97292],[8.56852,46.97557],[8.57453,46.98235],[8.57105,46.99016],[8.58242,46.99341],[8.60315,46.98684],[8.60414,46.98233],[8.60119,46.97523],[8.6044,46.95196],[8.60062,46.94342],[8.58331,46.94382],[8.58355,46.94235],[8.57085,46.94061],[8.56979,46.93702],[8.55718,46.9377],[8.56359,46.93054],[8.55591,46.9226],[8.55373,46.92711],[8.54483,46.92796],[8.54406,46.92786]]]}},{"type":"Feature","properties":{"name":"Silenen","cantonId":"uri","municipalityId":"silenen-1216"},"geometry":{"type":"Polygon","coordinates":[[[8.69259,46.70184],[8.69359,46.70507],[8.68337,46.71263],[8.68523,46.71565],[8.68395,46.72042],[8.67895,46.72422],[8.68569,46.72816],[8.68188,46.73646],[8.66435,46.74742],[8.64516,46.75158],[8.64459,46.75356],[8.64961,46.75904],[8.65609,46.75996],[8.66084,46.76486],[8.66996,46.76864],[8.66601,46.77588],[8.66826,46.78288],[8.66036,46.81022],[8.6664,46.81765],[8.67699,46.82263],[8.68051,46.83093],[8.69194,46.82907],[8.70612,46.83091],[8.70779,46.82938],[8.70642,46.82371],[8.71101,46.82076],[8.72309,46.81707],[8.73711,46.8172],[8.73742,46.81153],[8.75506,46.80681],[8.78062,46.81125],[8.79302,46.82153],[8.79764,46.82127],[8.81653,46.8285],[8.83536,46.82629],[8.84086,46.83062],[8.84497,46.83808],[8.85287,46.84224],[8.85646,46.84047],[8.86595,46.84297],[8.87299,46.84136],[8.87437,46.8352],[8.88164,46.82907],[8.88017,46.82008],[8.87557,46.81596],[8.87705,46.81291],[8.87393,46.80863],[8.85989,46.80569],[8.8473,46.79801],[8.84822,46.79344],[8.83447,46.79521],[8.82768,46.79164],[8.82631,46.78835],[8.82895,46.78354],[8.82791,46.7792],[8.83036,46.77115],[8.83458,46.76685],[8.83172,46.76433],[8.82542,46.76603],[8.81855,46.76248],[8.81857,46.7584],[8.81453,46.75526],[8.81394,46.74936],[8.81044,46.74492],[8.81298,46.73731],[8.79953,46.73145],[8.78199,46.72831],[8.77278,46.73976],[8.76966,46.74057],[8.76959,46.74435],[8.76612,46.74478],[8.74764,46.73591],[8.7444,46.72888],[8.74907,46.72074],[8.74303,46.71552],[8.72763,46.70744],[8.71771,46.70608],[8.7172,46.70258],[8.70899,46.69896],[8.70116,46.70339],[8.69554,46.70283],[8.69259,46.70184]]]}},{"type":"Feature","properties":{"name":"Sisikon","cantonId":"uri","municipalityId":"sisikon-1217"},"geometry":{"type":"Polygon","coordinates":[[[8.70777,46.91716],[8.70441,46.91458],[8.68456,46.91689],[8.68253,46.91987],[8.6698,46.92061],[8.66611,46.92448],[8.64646,46.92799],[8.6397,46.93201],[8.62516,46.93004],[8.6208,46.92324],[8.61733,46.92372],[8.61669,46.9272],[8.61333,46.9281],[8.5987,46.92796],[8.59537,46.93153],[8.6044,46.95196],[8.6224,46.95273],[8.62739,46.94982],[8.64544,46.94903],[8.66942,46.94408],[8.69296,46.94698],[8.69981,46.9348],[8.70032,46.93265],[8.69654,46.9288],[8.69856,46.92429],[8.70775,46.91716],[8.70777,46.91716]]]}},{"type":"Feature","properties":{"name":"Spiringen","cantonId":"uri","municipalityId":"spiringen-1218"},"geometry":{"type":"MultiPolygon","coordinates":[[[[8.93538,46.91985],[8.94357,46.90616],[8.94859,46.90161],[8.95342,46.90069],[8.95729,46.8879],[8.95781,46.8795],[8.95592,46.87533],[8.91782,46.86048],[8.90925,46.86097],[8.89567,46.84957],[8.8727,46.84209],[8.8498,46.84081],[8.85104,46.84565],[8.84827,46.85289],[8.85924,46.85885],[8.85481,46.86915],[8.85493,46.87391],[8.84834,46.87729],[8.85935,46.88136],[8.85362,46.88528],[8.86145,46.89163],[8.86128,46.89451],[8.87443,46.89497],[8.88698,46.90235],[8.89518,46.90292],[8.90166,46.90779],[8.90746,46.90748],[8.91132,46.91073],[8.93508,46.91973],[8.93538,46.91985]]],[[[8.77785,46.89753],[8.78185,46.89467],[8.77681,46.88871],[8.75502,46.87292],[8.75571,46.86763],[8.75295,46.86471],[8.75537,46.86236],[8.74909,46.85128],[8.73997,46.85084],[8.73017,46.8423],[8.72413,46.8415],[8.71261,46.84375],[8.71648,46.84994],[8.71217,46.8638],[8.70664,46.86401],[8.69789,46.87023],[8.70656,46.87376],[8.70738,46.8779],[8.71237,46.87828],[8.71694,46.88706],[8.7147,46.90278],[8.71644,46.91304],[8.72474,46.91248],[8.72373,46.90863],[8.73362,46.89993],[8.75502,46.89281],[8.77728,46.89757],[8.77785,46.89753]]]]}},{"type":"Feature","properties":{"name":"Unterschächen","cantonId":"uri","municipalityId":"unterschaechen-1219"},"geometry":{"type":"Polygon","coordinates":[[[8.8275,46.92241],[8.83612,46.90768],[8.84269,46.90946],[8.84708,46.91378],[8.84881,46.91277],[8.84784,46.89099],[8.85935,46.88136],[8.84834,46.87729],[8.85493,46.87391],[8.85481,46.86915],[8.85924,46.85885],[8.84827,46.85289],[8.85104,46.84565],[8.8498,46.84081],[8.84497,46.83808],[8.84086,46.83062],[8.83536,46.82629],[8.81653,46.8285],[8.79764,46.82127],[8.79302,46.82153],[8.78062,46.81125],[8.75506,46.80681],[8.73742,46.81153],[8.73711,46.8172],[8.72309,46.81707],[8.71101,46.82076],[8.70642,46.82371],[8.70779,46.82938],[8.70483,46.8309],[8.70675,46.83448],[8.7119,46.83384],[8.714,46.83791],[8.71261,46.84375],[8.73017,46.8423],[8.73997,46.85084],[8.74909,46.85128],[8.75537,46.86236],[8.75295,46.86471],[8.75571,46.86763],[8.75502,46.87292],[8.77681,46.88871],[8.78185,46.89467],[8.77785,46.89753],[8.77921,46.90108],[8.78901,46.90633],[8.78918,46.9101],[8.80818,46.91069],[8.80959,46.9135],[8.82037,46.91885],[8.8275,46.92241]]]}},{"type":"Feature","properties":{"name":"Wassen","cantonId":"uri","municipalityId":"wassen-1220"},"geometry":{"type":"Polygon","coordinates":[[[8.51751,46.78055],[8.54013,46.77498],[8.53666,46.76729],[8.54238,46.76295],[8.54584,46.75194],[8.55961,46.74387],[8.57334,46.7404],[8.57695,46.7352],[8.5849,46.73091],[8.59204,46.72336],[8.61531,46.7145],[8.63694,46.71283],[8.63758,46.70721],[8.6341,46.70227],[8.63638,46.69076],[8.63509,46.68316],[8.60422,46.67669],[8.59243,46.67962],[8.57882,46.67616],[8.57013,46.67864],[8.56443,46.68333],[8.54662,46.68143],[8.53276,46.6832],[8.52596,46.6854],[8.52257,46.69089],[8.50695,46.69687],[8.48693,46.71697],[8.47768,46.71384],[8.4665,46.71638],[8.45408,46.71085],[8.44858,46.71247],[8.44708,46.72706],[8.44972,46.72984],[8.4407,46.73804],[8.44071,46.74444],[8.44377,46.7471],[8.43904,46.75242],[8.44734,46.75791],[8.44833,46.76342],[8.46036,46.7691],[8.48013,46.76858],[8.49845,46.77642],[8.5034,46.77544],[8.50861,46.77941],[8.51707,46.78034],[8.51751,46.78055]]]}}]}
