{"type":"FeatureCollection","features":[{"type":"Feature","properties":{"name":"Agarn","cantonId":"valais","municipalityId":"agarn-6101"},"geometry":{"type":"Polygon","coordinates":[[[7.67775,46.28726],[7.6696,46.28434],[7.67271,46.26456],[7.66773,46.26061],[7.66872,46.25636],[7.66327,46.25205],[7.66515,46.24843],[7.65687,46.24359],[7.65362,46.23904],[7.6432,46.24422],[7.64281,46.24774],[7.64809,46.25447],[7.65572,46.25896],[7.66025,46.26835],[7.66104,46.27436],[7.65812,46.28354],[7.66047,46.297],[7.66295,46.29921],[7.67214,46.29866],[7.6854,46.30483],[7.68489,46.30175],[7.67929,46.29824],[7.67766,46.28749],[7.67775,46.28726]]]}},{"type":"Feature","properties":{"name":"Albinen","cantonId":"valais","municipalityId":"albinen-6102"},"geometry":{"type":"Polygon","coordinates":[[[7.67099,46.37613],[7.66865,46.36857],[7.67035,46.35818],[7.66949,46.35055],[7.66711,46.34833],[7.66865,46.34587],[7.64028,46.33088],[7.62577,46.32744],[7.62361,46.33035],[7.62537,46.33298],[7.62198,46.33768],[7.62263,46.34103],[7.61812,46.34677],[7.62175,46.3494],[7.61826,46.35112],[7.6191,46.35556],[7.61544,46.35557],[7.61551,46.358],[7.64026,46.37117],[7.64285,46.37447],[7.6515,46.37731],[7.67021,46.37621],[7.67099,46.37613]]]}},{"type":"Feature","properties":{"name":"Anniviers","cantonId":"valais","municipalityId":"anniviers-6252"},"geometry":{"type":"Polygon","coordinates":[[[7.51585,46.16622],[7.51952,46.16808],[7.51955,46.17671],[7.52248,46.18087],[7.52328,46.18748],[7.53397,46.19483],[7.52861,46.20161],[7.53291,46.20842],[7.53074,46.21618],[7.54877,46.22462],[7.56289,46.23598],[7.5635,46.24718],[7.56569,46.24986],[7.56368,46.25345],[7.56635,46.25528],[7.54723,46.2689],[7.54632,46.2718],[7.55126,46.27742],[7.55683,46.27971],[7.56783,46.27311],[7.59532,46.27808],[7.6162,46.26295],[7.61791,46.25677],[7.62311,46.25223],[7.64281,46.24774],[7.64492,46.24245],[7.6557,46.23712],[7.66071,46.22775],[7.66208,46.19653],[7.65844,46.19341],[7.65958,46.19056],[7.65665,46.1818],[7.66201,46.17752],[7.66081,46.17364],[7.67192,46.16755],[7.6732,46.16134],[7.66813,46.15438],[7.66281,46.15151],[7.66954,46.14484],[7.67385,46.13387],[7.68068,46.13007],[7.69021,46.11887],[7.70946,46.11221],[7.7161,46.10139],[7.70638,46.09082],[7.70509,46.08454],[7.69996,46.07755],[7.69099,46.07046],[7.69005,46.06433],[7.68548,46.06012],[7.68437,46.05504],[7.67828,46.05144],[7.67664,46.0471],[7.67777,46.04152],[7.65216,46.0353],[7.64969,46.03276],[7.63057,46.02729],[7.62016,46.03537],[7.61187,46.03432],[7.60613,46.0468],[7.61096,46.0509],[7.61067,46.05329],[7.6,46.05677],[7.5973,46.06133],[7.59174,46.06246],[7.59033,46.06797],[7.58609,46.07243],[7.57323,46.07771],[7.57676,46.08429],[7.57236,46.09079],[7.56131,46.09741],[7.55804,46.10412],[7.54955,46.10827],[7.54473,46.11789],[7.52573,46.13835],[7.51514,46.14401],[7.5218,46.14636],[7.5173,46.15166],[7.52074,46.15855],[7.5187,46.1589],[7.51731,46.16319],[7.51585,46.16622]]]}},{"type":"Feature","properties":{"name":"Arbaz","cantonId":"valais","municipalityId":"arbaz-6261"},"geometry":{"type":"Polygon","coordinates":[[[7.39052,46.26672],[7.37862,46.26589],[7.37848,46.26755],[7.37093,46.26372],[7.36802,46.27611],[7.35843,46.28146],[7.35022,46.29575],[7.35801,46.31945],[7.35525,46.32231],[7.35787,46.32704],[7.35629,46.33136],[7.35894,46.34049],[7.38369,46.32951],[7.38489,46.30972],[7.38902,46.31247],[7.39666,46.30637],[7.393,46.30227],[7.38855,46.30181],[7.39444,46.28017],[7.39862,46.27729],[7.3914,46.27208],[7.39026,46.267],[7.39052,46.26672]]]}},{"type":"Feature","properties":{"name":"Ardon","cantonId":"valais","municipalityId":"ardon-6021"},"geometry":{"type":"Polygon","coordinates":[[[7.19503,46.24026],[7.19699,46.24451],[7.20521,46.25037],[7.20733,46.25516],[7.21924,46.26185],[7.2239,46.25962],[7.24158,46.2609],[7.25373,46.23946],[7.25054,46.22103],[7.26866,46.2107],[7.28262,46.1992],[7.2675,46.19309],[7.2582,46.19696],[7.25323,46.19298],[7.24921,46.19451],[7.24391,46.19762],[7.24588,46.1993],[7.24425,46.20624],[7.23621,46.20985],[7.22293,46.22775],[7.20672,46.23805],[7.19531,46.24018],[7.19503,46.24026]]]}},{"type":"Feature","properties":{"name":"Ausserberg","cantonId":"valais","municipalityId":"ausserberg-6191"},"geometry":{"type":"Polygon","coordinates":[[[7.85442,46.35592],[7.86608,46.35659],[7.86733,46.34876],[7.87814,46.33423],[7.87838,46.32595],[7.8755,46.32233],[7.88077,46.32135],[7.87984,46.31539],[7.84228,46.30718],[7.82103,46.31392],[7.81893,46.32014],[7.82121,46.32373],[7.84624,46.3395],[7.84517,46.34264],[7.85618,46.35497],[7.85444,46.35589],[7.85442,46.35592]]]}},{"type":"Feature","properties":{"name":"Ayent","cantonId":"valais","municipalityId":"ayent-6082"},"geometry":{"type":"Polygon","coordinates":[[[7.39052,46.26672],[7.3914,46.27208],[7.39862,46.27729],[7.39444,46.28017],[7.38855,46.30181],[7.393,46.30227],[7.39666,46.30637],[7.38902,46.31247],[7.38489,46.30972],[7.38369,46.32951],[7.35894,46.34049],[7.35772,46.34311],[7.36156,46.34895],[7.35894,46.35312],[7.36263,46.35666],[7.38153,46.36439],[7.39939,46.37646],[7.40099,46.3742],[7.41685,46.38017],[7.42741,46.38058],[7.43339,46.38508],[7.43863,46.38615],[7.4424,46.38327],[7.45433,46.38321],[7.45911,46.381],[7.45902,46.37818],[7.46213,46.37642],[7.44657,46.37205],[7.4218,46.35704],[7.44125,46.34301],[7.45039,46.32541],[7.44631,46.31426],[7.43107,46.29624],[7.43098,46.28883],[7.42369,46.27644],[7.42342,46.26872],[7.41991,46.26788],[7.4111,46.25925],[7.41624,46.25471],[7.41102,46.25585],[7.40715,46.25305],[7.39672,46.25256],[7.39391,46.25517],[7.3965,46.25768],[7.39558,46.26352],[7.39051,46.26669],[7.39052,46.26672]]]}},{"type":"Feature","properties":{"name":"Baltschieder","cantonId":"valais","municipalityId":"baltschieder-6281"},"geometry":{"type":"MultiPolygon","coordinates":[[[[7.85442,46.35592],[7.85309,46.35916],[7.85939,46.37324],[7.85757,46.38545],[7.84826,46.39629],[7.86106,46.40688],[7.87048,46.41062],[7.87783,46.41093],[7.88937,46.41817],[7.89776,46.41757],[7.9089,46.41178],[7.91172,46.40774],[7.90931,46.38981],[7.90703,46.38721],[7.91262,46.38458],[7.91419,46.37971],[7.91089,46.36946],[7.89822,46.36442],[7.90025,46.35591],[7.89837,46.35294],[7.88435,46.34852],[7.88555,46.33968],[7.87945,46.33839],[7.88077,46.32135],[7.8755,46.32233],[7.87838,46.32595],[7.87814,46.33423],[7.86733,46.34876],[7.86608,46.35659],[7.85562,46.3563],[7.85442,46.35592]]],[[[7.87685,46.30236],[7.84078,46.30253],[7.84241,46.30724],[7.85967,46.31217],[7.87789,46.31392],[7.88069,46.32005],[7.87977,46.3141],[7.8708,46.31079],[7.86804,46.30722],[7.87875,46.30508],[7.87696,46.3029],[7.87685,46.30236]]]]}},{"type":"Feature","properties":{"name":"Bellwald","cantonId":"valais","municipalityId":"bellwald-6052"},"geometry":{"type":"Polygon","coordinates":[[[8.14866,46.40721],[8.14608,46.41],[8.1539,46.42372],[8.14308,46.43312],[8.14479,46.43805],[8.13942,46.4446],[8.13951,46.44962],[8.13359,46.46423],[8.13864,46.4673],[8.14995,46.46849],[8.16084,46.47596],[8.16266,46.47489],[8.16087,46.46935],[8.16322,46.46274],[8.16972,46.45737],[8.17009,46.45159],[8.17907,46.45313],[8.18006,46.4493],[8.17501,46.44677],[8.17847,46.44258],[8.17584,46.43792],[8.17927,46.43588],[8.16549,46.42223],[8.16816,46.41874],[8.14949,46.40747],[8.14866,46.40721]]]}},{"type":"Feature","properties":{"name":"Bettmeralp","cantonId":"valais","municipalityId":"bettmeralp-6205"},"geometry":{"type":"Polygon","coordinates":[[[8.06642,46.37214],[8.05623,46.369],[8.05039,46.37801],[8.05932,46.4001],[8.06462,46.40276],[8.0543,46.41218],[8.05992,46.424],[8.06873,46.43232],[8.02234,46.45753],[7.99165,46.46648],[8.00545,46.47626],[8.02245,46.47718],[8.03354,46.46975],[8.03542,46.46577],[8.04111,46.46302],[8.0473,46.45551],[8.05235,46.45372],[8.05903,46.45688],[8.08681,46.43941],[8.09419,46.43129],[8.0928,46.42646],[8.08317,46.42076],[8.07883,46.41238],[8.09364,46.40426],[8.08942,46.39967],[8.09878,46.3961],[8.10468,46.39118],[8.10594,46.38517],[8.09574,46.38221],[8.08807,46.38524],[8.0806,46.37661],[8.07315,46.37545],[8.06847,46.37124],[8.06642,46.37214]]]}},{"type":"Feature","properties":{"name":"Binn","cantonId":"valais","municipalityId":"binn-6054"},"geometry":{"type":"Polygon","coordinates":[[[8.20601,46.30645],[8.19891,46.31146],[8.19946,46.31567],[8.19585,46.31722],[8.18482,46.33675],[8.17295,46.34217],[8.17574,46.34961],[8.17527,46.3588],[8.1616,46.36317],[8.1552,46.36883],[8.15909,46.37243],[8.17529,46.37441],[8.18243,46.38318],[8.19855,46.38492],[8.23467,46.39664],[8.24836,46.4039],[8.25335,46.40946],[8.28838,46.40889],[8.30355,46.40244],[8.30967,46.40402],[8.31573,46.39896],[8.31729,46.39399],[8.31416,46.38982],[8.31874,46.38612],[8.31495,46.38394],[8.3129,46.37706],[8.30001,46.37407],[8.28979,46.36913],[8.28428,46.36362],[8.27307,46.36686],[8.26377,46.36402],[8.26074,46.36047],[8.26503,46.3571],[8.26588,46.35184],[8.25993,46.34866],[8.26288,46.34596],[8.25294,46.34644],[8.25004,46.34075],[8.23542,46.34036],[8.22399,46.33444],[8.22502,46.33285],[8.22161,46.33024],[8.22507,46.3264],[8.21465,46.31966],[8.21493,46.31622],[8.21124,46.31258],[8.21212,46.30943],[8.20784,46.30746],[8.20601,46.30645]]]}},{"type":"Feature","properties":{"name":"Bister","cantonId":"valais","municipalityId":"bister-6172"},"geometry":{"type":"Polygon","coordinates":[[[8.06889,46.3689],[8.07514,46.36544],[8.08038,46.35533],[8.09462,46.34729],[8.09888,46.338],[8.09354,46.3365],[8.09542,46.33294],[8.09273,46.32929],[8.0864,46.33083],[8.06349,46.35269],[8.06256,46.35699],[8.05521,46.36214],[8.06878,46.36864],[8.06889,46.3689]]]}},{"type":"Feature","properties":{"name":"Bitsch","cantonId":"valais","municipalityId":"bitsch-6173"},"geometry":{"type":"Polygon","coordinates":[[[8.02613,46.34239],[8.02606,46.34012],[8.01562,46.33433],[8.01301,46.32963],[8.00075,46.33756],[7.99635,46.34992],[7.99639,46.36144],[8.00104,46.36587],[8.00256,46.37289],[8.00826,46.37641],[8.00744,46.36804],[8.01354,46.36896],[8.0112,46.36142],[8.0147,46.35607],[8.01395,46.35339],[8.02572,46.34256],[8.02613,46.34239]]]}},{"type":"Feature","properties":{"name":"Blatten","cantonId":"valais","municipalityId":"blatten-6192"},"geometry":{"type":"Polygon","coordinates":[[[7.84349,46.47786],[7.86992,46.47783],[7.88706,46.48086],[7.89084,46.48333],[7.89766,46.48243],[7.90584,46.4871],[7.91197,46.48692],[7.91679,46.49155],[7.92314,46.49166],[7.92485,46.49314],[7.92346,46.49507],[7.93264,46.49822],[7.93293,46.49456],[7.94017,46.48608],[7.94027,46.48322],[7.96361,46.47484],[7.96554,46.46801],[7.95611,46.4641],[7.94632,46.45126],[7.90856,46.42828],[7.9063,46.4246],[7.88888,46.41801],[7.87783,46.41093],[7.87048,46.41062],[7.86106,46.40688],[7.85093,46.40028],[7.84826,46.39629],[7.85006,46.39261],[7.83313,46.38928],[7.82156,46.39402],[7.79673,46.41067],[7.78969,46.4176],[7.79187,46.42369],[7.77849,46.42883],[7.76841,46.43949],[7.77848,46.44333],[7.77941,46.44672],[7.79833,46.45881],[7.82546,46.46708],[7.8285,46.47094],[7.84316,46.47758],[7.84349,46.47786]]]}},{"type":"Feature","properties":{"name":"Bourg-Saint-Pierre","cantonId":"valais","municipalityId":"bourg-saint-pierre-6032"},"geometry":{"type":"Polygon","coordinates":[[[7.15352,45.87925],[7.13758,45.91397],[7.158,45.92618],[7.16022,45.93375],[7.16575,45.94069],[7.16654,45.95026],[7.17226,45.95935],[7.19088,45.96103],[7.19197,45.96772],[7.20223,45.97318],[7.20898,45.97347],[7.20944,45.96882],[7.21535,45.96927],[7.21363,45.97421],[7.21813,45.97303],[7.22196,45.96612],[7.23132,45.96346],[7.25086,45.96193],[7.25544,45.96353],[7.26205,45.96129],[7.26471,45.95007],[7.27743,45.94025],[7.27769,45.9373],[7.29914,45.9375],[7.30082,45.93488],[7.29442,45.92182],[7.28526,45.91567],[7.27687,45.90074],[7.27146,45.89997],[7.25682,45.88816],[7.25308,45.88851],[7.24947,45.89313],[7.23982,45.88996],[7.22829,45.892],[7.2258,45.88975],[7.21636,45.8888],[7.21568,45.88387],[7.2001,45.87551],[7.19762,45.87032],[7.20079,45.86308],[7.19647,45.86026],[7.19058,45.85868],[7.17896,45.86367],[7.1753,45.86291],[7.16157,45.87163],[7.16419,45.87363],[7.16413,45.87681],[7.15413,45.87923],[7.15352,45.87925]],[[7.20305,45.96419],[7.20312,45.96904],[7.1975,45.96784],[7.19833,45.96009],[7.20137,45.95945],[7.20238,45.96337],[7.20305,45.96419]]]}},{"type":"Feature","properties":{"name":"Bovernier","cantonId":"valais","municipalityId":"bovernier-6131"},"geometry":{"type":"Polygon","coordinates":[[[7.06268,46.07446],[7.06865,46.07589],[7.06819,46.08148],[7.07289,46.0848],[7.09093,46.08926],[7.10892,46.08729],[7.10384,46.0822],[7.10794,46.06197],[7.08485,46.05262],[7.08263,46.04564],[7.06755,46.03778],[7.06287,46.0309],[7.05151,46.02537],[7.05101,46.03508],[7.05689,46.04492],[7.06819,46.05095],[7.07596,46.06015],[7.07067,46.07155],[7.06294,46.07424],[7.06268,46.07446]]]}},{"type":"Feature","properties":{"name":"Brig-Glis","cantonId":"valais","municipalityId":"brig-glis-6002"},"geometry":{"type":"Polygon","coordinates":[[[8.00267,46.32294],[8.00431,46.32148],[8.00117,46.31755],[8.00766,46.31626],[8.00211,46.31311],[8.00361,46.31017],[8.00159,46.30811],[8.00614,46.30453],[8.0046,46.30246],[8.00807,46.30158],[8.01661,46.29162],[8.02355,46.28917],[8.03117,46.27428],[8.0194,46.2617],[7.99276,46.25466],[7.98788,46.25954],[7.98328,46.26074],[7.98172,46.26583],[7.97814,46.2642],[7.96136,46.2686],[7.95836,46.26477],[7.95483,46.26487],[7.95385,46.26143],[7.94311,46.27752],[7.94253,46.28067],[7.9453,46.28322],[7.93903,46.28564],[7.93153,46.28411],[7.92568,46.28993],[7.92627,46.29819],[7.91405,46.2971],[7.91018,46.30166],[7.92763,46.30621],[7.94194,46.30765],[7.94301,46.30549],[7.98324,46.32001],[8.00267,46.32294]]]}},{"type":"Feature","properties":{"name":"Bürchen","cantonId":"valais","municipalityId":"buerchen-6193"},"geometry":{"type":"Polygon","coordinates":[[[7.83386,46.28614],[7.83567,46.28414],[7.83285,46.28282],[7.83433,46.27975],[7.8383,46.27529],[7.84692,46.27481],[7.84995,46.26739],[7.83656,46.26023],[7.82975,46.259],[7.82838,46.2561],[7.82433,46.25522],[7.81089,46.24489],[7.80293,46.24582],[7.79207,46.243],[7.79339,46.25008],[7.79788,46.25489],[7.79914,46.26289],[7.80883,46.27678],[7.8047,46.29067],[7.80101,46.2935],[7.80019,46.30196],[7.81316,46.29891],[7.81071,46.29419],[7.81509,46.29118],[7.83353,46.28618],[7.83386,46.28614]]]}},{"type":"Feature","properties":{"name":"Chalais","cantonId":"valais","municipalityId":"chalais-6232"},"geometry":{"type":"Polygon","coordinates":[[[7.47986,46.25949],[7.50871,46.2677],[7.52858,46.27684],[7.53432,46.27155],[7.54091,46.27217],[7.56554,46.25662],[7.56168,46.2333],[7.53074,46.21618],[7.51549,46.22232],[7.51126,46.23097],[7.51167,46.23678],[7.50282,46.24947],[7.49162,46.25551],[7.48725,46.25459],[7.48258,46.25712],[7.47986,46.25949]]]}},{"type":"Feature","properties":{"name":"Chamoson","cantonId":"valais","municipalityId":"chamoson-6022"},"geometry":{"type":"Polygon","coordinates":[[[7.22353,46.17848],[7.22336,46.19012],[7.22041,46.19655],[7.21716,46.19369],[7.20923,46.19655],[7.19984,46.19642],[7.18997,46.20147],[7.17792,46.20151],[7.17406,46.20622],[7.16346,46.21093],[7.15725,46.21103],[7.1343,46.22995],[7.13036,46.23679],[7.14095,46.2379],[7.14487,46.24144],[7.15648,46.24561],[7.16004,46.24542],[7.16823,46.23625],[7.17397,46.23737],[7.17667,46.23576],[7.1941,46.24026],[7.20672,46.23805],[7.22293,46.22775],[7.23621,46.20985],[7.24425,46.20624],[7.24588,46.1993],[7.24391,46.19762],[7.25323,46.19298],[7.2582,46.19696],[7.2675,46.19309],[7.25352,46.18495],[7.23554,46.18108],[7.23065,46.1771],[7.22394,46.1785],[7.22353,46.17848]]]}},{"type":"Feature","properties":{"name":"Champéry","cantonId":"valais","municipalityId":"champery-6151"},"geometry":{"type":"Polygon","coordinates":[[[6.842,46.13198],[6.831,46.13261],[6.8151,46.12927],[6.80721,46.13653],[6.79888,46.1357],[6.79652,46.13869],[6.79459,46.14759],[6.79025,46.15402],[6.79263,46.15973],[6.7917,46.16294],[6.80533,46.17259],[6.80694,46.17853],[6.81374,46.18231],[6.82129,46.17857],[6.835,46.17984],[6.84538,46.1757],[6.85685,46.18377],[6.85574,46.1862],[6.88578,46.19008],[6.88954,46.18863],[6.88834,46.18535],[6.87854,46.17745],[6.89081,46.17519],[6.89241,46.17163],[6.90062,46.1681],[6.91012,46.15516],[6.89327,46.15036],[6.88386,46.14046],[6.86901,46.13899],[6.85675,46.14156],[6.84308,46.13222],[6.842,46.13198]]]}},{"type":"Feature","properties":{"name":"Chippis","cantonId":"valais","municipalityId":"chippis-6235"},"geometry":{"type":"Polygon","coordinates":[[[7.52858,46.27684],[7.55017,46.28438],[7.55683,46.27971],[7.5481,46.27521],[7.54632,46.2718],[7.54808,46.26767],[7.55475,46.26424],[7.54814,46.26618],[7.54091,46.27217],[7.53432,46.27155],[7.52923,46.27548],[7.52858,46.27684]]]}},{"type":"Feature","properties":{"name":"Collombey-Muraz","cantonId":"valais","municipalityId":"collombey-muraz-6152"},"geometry":{"type":"Polygon","coordinates":[[[6.9617,46.27993],[6.95693,46.27414],[6.96226,46.26458],[6.95806,46.2633],[6.9574,46.26489],[6.95196,46.26391],[6.95142,46.2658],[6.94058,46.26316],[6.93565,46.27214],[6.92247,46.26847],[6.92015,46.27346],[6.91432,46.27331],[6.91575,46.27396],[6.91011,46.28237],[6.8959,46.27431],[6.89535,46.27066],[6.90325,46.27369],[6.90585,46.26985],[6.90392,46.26687],[6.91164,46.26674],[6.92053,46.25981],[6.94186,46.25381],[6.93763,46.24943],[6.90879,46.25783],[6.90422,46.25543],[6.90381,46.25243],[6.89822,46.25161],[6.88465,46.25878],[6.87526,46.25908],[6.86294,46.2538],[6.85444,46.2593],[6.86017,46.26624],[6.85889,46.27388],[6.86492,46.2802],[6.85921,46.29031],[6.87446,46.28816],[6.88621,46.29337],[6.88715,46.28868],[6.87644,46.27145],[6.88623,46.27077],[6.89259,46.28077],[6.89239,46.29181],[6.89666,46.29368],[6.89234,46.29713],[6.90798,46.29737],[6.91732,46.30235],[6.91535,46.30534],[6.91975,46.3069],[6.91054,46.31942],[6.93226,46.32444],[6.9318,46.31661],[6.93687,46.29779],[6.9587,46.28511],[6.96151,46.28056],[6.9617,46.27993]],[[6.91389,46.29874],[6.91055,46.29724],[6.91225,46.29205],[6.9198,46.29619],[6.91699,46.3],[6.91389,46.29874]]]}},{"type":"Feature","properties":{"name":"Collonges","cantonId":"valais","municipalityId":"collonges-6211"},"geometry":{"type":"Polygon","coordinates":[[[7.08019,46.17071],[7.06952,46.1747],[7.06332,46.17324],[7.06041,46.1665],[7.0405,46.16296],[7.04021,46.16037],[7.03293,46.15858],[7.02736,46.17544],[7.03462,46.18359],[7.03317,46.18707],[7.05186,46.19297],[7.06396,46.19944],[7.07261,46.20059],[7.07762,46.19719],[7.07741,46.19449],[7.08365,46.18617],[7.08468,46.17984],[7.08025,46.1708],[7.08019,46.17071]]]}},{"type":"Feature","properties":{"name":"Conthey","cantonId":"valais","municipalityId":"conthey-6023"},"geometry":{"type":"Polygon","coordinates":[[[7.20072,46.31302],[7.21344,46.3164],[7.22193,46.31288],[7.22468,46.30945],[7.27389,46.31277],[7.29271,46.31032],[7.30209,46.31173],[7.31722,46.30143],[7.32639,46.29932],[7.33059,46.29424],[7.3287,46.2898],[7.3302,46.28005],[7.32216,46.2717],[7.3166,46.25627],[7.31259,46.25375],[7.31071,46.24553],[7.30836,46.2439],[7.31172,46.24108],[7.30984,46.23573],[7.31299,46.22483],[7.30537,46.2173],[7.31261,46.20999],[7.30195,46.20412],[7.29831,46.20954],[7.29543,46.20982],[7.29239,46.21635],[7.29882,46.21843],[7.29394,46.22525],[7.29498,46.22842],[7.29097,46.23098],[7.28101,46.23092],[7.2799,46.23309],[7.27487,46.22857],[7.25694,46.22124],[7.25883,46.24],[7.24454,46.2588],[7.24458,46.26712],[7.23922,46.2697],[7.23174,46.26891],[7.21003,46.2569],[7.2056,46.25353],[7.20521,46.25037],[7.19699,46.24451],[7.19511,46.24032],[7.18888,46.23841],[7.16823,46.23625],[7.16004,46.24542],[7.15117,46.24445],[7.15522,46.25275],[7.16188,46.25391],[7.17814,46.26858],[7.18841,46.27067],[7.1863,46.28284],[7.19483,46.28568],[7.19387,46.28838],[7.19694,46.28913],[7.18924,46.29517],[7.18905,46.3039],[7.20072,46.31302]]]}},{"type":"Feature","properties":{"name":"Crans-Montana","cantonId":"valais","municipalityId":"crans-montana-6253"},"geometry":{"type":"Polygon","coordinates":[[[7.57205,46.37011],[7.56124,46.36719],[7.5589,46.35528],[7.57301,46.35193],[7.57418,46.3487],[7.57064,46.34562],[7.57593,46.34124],[7.57033,46.33487],[7.57067,46.33073],[7.5609,46.32907],[7.5575,46.32399],[7.54751,46.32379],[7.54463,46.31993],[7.52737,46.32001],[7.53103,46.31843],[7.53089,46.31228],[7.51187,46.3038],[7.51992,46.29245],[7.51716,46.29087],[7.51574,46.28607],[7.49593,46.27764],[7.47252,46.27217],[7.47523,46.2818],[7.46692,46.28092],[7.45876,46.29701],[7.46604,46.29786],[7.46923,46.30354],[7.46694,46.30904],[7.47246,46.30984],[7.47062,46.31911],[7.48168,46.31924],[7.48272,46.32223],[7.48955,46.32405],[7.48318,46.32861],[7.4824,46.3334],[7.47794,46.33532],[7.48629,46.34404],[7.48502,46.34628],[7.49111,46.35114],[7.48067,46.3609],[7.4826,46.36615],[7.48685,46.37072],[7.50245,46.37045],[7.5074,46.37591],[7.52695,46.37462],[7.53797,46.37722],[7.54074,46.38375],[7.55526,46.38898],[7.55847,46.38476],[7.56813,46.38167],[7.57142,46.38405],[7.58013,46.3842],[7.57934,46.38048],[7.5712,46.37585],[7.57217,46.3704],[7.57205,46.37011]]]}},{"type":"Feature","properties":{"name":"Dorénaz","cantonId":"valais","municipalityId":"dorenaz-6212"},"geometry":{"type":"Polygon","coordinates":[[[7.08019,46.17071],[7.08212,46.16341],[7.08831,46.15842],[7.0722,46.14198],[7.07321,46.12852],[7.06864,46.12075],[7.06565,46.126],[7.05141,46.13815],[7.033,46.15072],[7.03293,46.15858],[7.04021,46.16037],[7.0405,46.16296],[7.06041,46.1665],[7.06332,46.17324],[7.06952,46.1747],[7.08009,46.1709],[7.08019,46.17071]]]}},{"type":"Feature","properties":{"name":"Eggerberg","cantonId":"valais","municipalityId":"eggerberg-6004"},"geometry":{"type":"Polygon","coordinates":[[[7.88555,46.33968],[7.89296,46.32736],[7.89239,46.32392],[7.90013,46.3245],[7.90095,46.32113],[7.90484,46.32027],[7.90646,46.31423],[7.89919,46.31107],[7.90584,46.30909],[7.90269,46.30324],[7.88524,46.30237],[7.86804,46.30628],[7.8708,46.31079],[7.88072,46.31513],[7.87945,46.33839],[7.88525,46.33965],[7.88555,46.33968]]]}},{"type":"Feature","properties":{"name":"Eischoll","cantonId":"valais","municipalityId":"eischoll-6194"},"geometry":{"type":"Polygon","coordinates":[[[7.79231,46.29677],[7.79424,46.29123],[7.77863,46.27531],[7.77389,46.27308],[7.76281,46.26133],[7.74642,46.2555],[7.73962,46.2607],[7.73535,46.27249],[7.74593,46.28681],[7.74427,46.30044],[7.76479,46.30186],[7.78872,46.29728],[7.79231,46.29677]]]}},{"type":"Feature","properties":{"name":"Eisten","cantonId":"valais","municipalityId":"eisten-6282"},"geometry":{"type":"Polygon","coordinates":[[[7.88026,46.13514],[7.87501,46.13881],[7.87514,46.1413],[7.86724,46.15003],[7.86252,46.15079],[7.85862,46.15561],[7.8613,46.16636],[7.85856,46.17103],[7.8639,46.17734],[7.86266,46.18004],[7.86943,46.18361],[7.87338,46.19142],[7.8726,46.20735],[7.87737,46.2064],[7.87722,46.21267],[7.87944,46.21472],[7.88316,46.21575],[7.89381,46.20766],[7.9164,46.20128],[7.92064,46.1972],[7.95568,46.19876],[7.95997,46.1948],[7.97936,46.19155],[7.99622,46.1833],[7.99525,46.17917],[7.97929,46.18192],[7.95481,46.17483],[7.94945,46.17729],[7.92893,46.17564],[7.92152,46.16978],[7.91424,46.16836],[7.92322,46.16039],[7.8942,46.15235],[7.88764,46.14717],[7.88823,46.1442],[7.88215,46.13647],[7.88026,46.13514]]]}},{"type":"Feature","properties":{"name":"Embd","cantonId":"valais","municipalityId":"embd-6283"},"geometry":{"type":"Polygon","coordinates":[[[7.82606,46.20593],[7.80976,46.21346],[7.79078,46.21185],[7.79219,46.20481],[7.78304,46.2027],[7.76962,46.20126],[7.75442,46.20466],[7.75286,46.2075],[7.75414,46.21493],[7.76247,46.22191],[7.77497,46.21926],[7.78265,46.22103],[7.78674,46.22354],[7.78805,46.23395],[7.7941,46.23547],[7.80218,46.23228],[7.81464,46.23417],[7.8175,46.22754],[7.82366,46.22848],[7.83572,46.2243],[7.84293,46.21758],[7.82658,46.20614],[7.82606,46.20593]]]}},{"type":"Feature","properties":{"name":"Ergisch","cantonId":"valais","municipalityId":"ergisch-6104"},"geometry":{"type":"Polygon","coordinates":[[[7.70598,46.21299],[7.71139,46.22253],[7.71166,46.23457],[7.71349,46.23656],[7.70967,46.24846],[7.71373,46.25812],[7.70439,46.27579],[7.70253,46.28455],[7.69859,46.28865],[7.69864,46.29421],[7.72417,46.30106],[7.7314,46.30047],[7.74379,46.28621],[7.73868,46.27509],[7.73535,46.27249],[7.73955,46.26081],[7.74642,46.2555],[7.75109,46.24612],[7.74438,46.23785],[7.74047,46.23702],[7.74014,46.23322],[7.7546,46.22965],[7.76247,46.22191],[7.75326,46.21375],[7.75418,46.20437],[7.73351,46.20529],[7.70604,46.21297],[7.70598,46.21299]]]}},{"type":"Feature","properties":{"name":"Ernen","cantonId":"valais","municipalityId":"ernen-6056"},"geometry":{"type":"Polygon","coordinates":[[[8.1552,46.36883],[8.15161,46.37004],[8.151,46.37535],[8.14824,46.37607],[8.14661,46.38053],[8.13842,46.38285],[8.13453,46.3811],[8.13172,46.38233],[8.12445,46.37802],[8.10197,46.37608],[8.11897,46.38463],[8.12462,46.39126],[8.1389,46.40123],[8.16816,46.41874],[8.16549,46.42223],[8.17055,46.42561],[8.17291,46.43062],[8.17896,46.42614],[8.18128,46.42969],[8.18833,46.4323],[8.20282,46.42109],[8.20849,46.41002],[8.22088,46.41306],[8.22743,46.41711],[8.23693,46.41608],[8.24166,46.4216],[8.25263,46.4242],[8.25291,46.42169],[8.25661,46.42066],[8.25548,46.41961],[8.25986,46.4161],[8.26773,46.4147],[8.26992,46.41045],[8.2648,46.40852],[8.25335,46.40946],[8.24836,46.4039],[8.23467,46.39664],[8.19855,46.38492],[8.18243,46.38318],[8.17529,46.37441],[8.15984,46.37271],[8.15538,46.36919],[8.1552,46.36883]]]}},{"type":"Feature","properties":{"name":"Evionnaz","cantonId":"valais","municipalityId":"evionnaz-6213"},"geometry":{"type":"Polygon","coordinates":[[[6.842,46.13198],[6.85675,46.14156],[6.86901,46.13899],[6.88386,46.14046],[6.89327,46.15036],[6.92124,46.15939],[6.93884,46.17112],[6.94511,46.17228],[6.94576,46.17044],[6.95747,46.16752],[6.97399,46.167],[6.98879,46.17418],[6.98949,46.17677],[7.00664,46.18035],[7.01215,46.18363],[7.0329,46.18255],[7.02736,46.17544],[7.03297,46.16204],[7.03277,46.1555],[7.02785,46.15335],[6.99221,46.15198],[6.97995,46.14934],[6.98088,46.14063],[6.97786,46.13686],[6.98293,46.13099],[6.97084,46.12124],[6.95777,46.11925],[6.92452,46.12686],[6.89992,46.12388],[6.89046,46.12555],[6.88241,46.12288],[6.87363,46.12596],[6.84813,46.12724],[6.84236,46.12947],[6.84192,46.13189],[6.842,46.13198]]]}},{"type":"Feature","properties":{"name":"Evolène","cantonId":"valais","municipalityId":"evolene-6083"},"geometry":{"type":"Polygon","coordinates":[[[7.43158,45.99098],[7.44266,45.9983],[7.44128,46.00416],[7.43326,46.0083],[7.43151,46.0152],[7.43527,46.03541],[7.42635,46.04074],[7.4335,46.0524],[7.43406,46.0612],[7.4339,46.0657],[7.42739,46.06699],[7.42545,46.07135],[7.4323,46.07905],[7.42948,46.08515],[7.43139,46.08724],[7.42849,46.09491],[7.42752,46.11502],[7.4363,46.12094],[7.44577,46.12272],[7.45014,46.12875],[7.44877,46.13199],[7.45253,46.13839],[7.45714,46.1401],[7.46075,46.14524],[7.47166,46.14702],[7.46875,46.14558],[7.47372,46.13489],[7.48262,46.14177],[7.49858,46.14007],[7.51514,46.14401],[7.52283,46.14077],[7.54473,46.11789],[7.54955,46.10827],[7.55804,46.10412],[7.56131,46.09741],[7.56876,46.09444],[7.57625,46.08616],[7.57323,46.07771],[7.58609,46.07243],[7.59033,46.06797],[7.59174,46.06246],[7.5973,46.06133],[7.6,46.05677],[7.61067,46.05329],[7.61096,46.0509],[7.60613,46.0468],[7.61186,46.03323],[7.60236,46.01101],[7.6019,46.00192],[7.58981,45.99913],[7.58726,45.99524],[7.57498,45.98743],[7.55012,45.98655],[7.54579,45.98388],[7.54147,45.97616],[7.54657,45.96303],[7.54271,45.95696],[7.5385,45.95495],[7.53545,45.95686],[7.52797,45.95649],[7.51805,45.96269],[7.50752,45.95797],[7.49917,45.96242],[7.49343,45.95569],[7.48808,45.95577],[7.48628,45.96016],[7.4803,45.96365],[7.48162,45.96715],[7.47575,45.97036],[7.4684,45.98467],[7.45523,45.99145],[7.45233,45.9863],[7.44028,45.98733],[7.43324,45.98432],[7.43038,45.98824],[7.43172,45.99081],[7.43158,45.99098]]]}},{"type":"Feature","properties":{"name":"Ferden","cantonId":"valais","municipalityId":"ferden-6195"},"geometry":{"type":"Polygon","coordinates":[[[7.70663,46.3792],[7.70205,46.3832],[7.70159,46.38703],[7.69485,46.38623],[7.68884,46.39129],[7.69705,46.39602],[7.70784,46.40915],[7.70487,46.41173],[7.70486,46.41635],[7.70852,46.41389],[7.71559,46.41481],[7.72186,46.42101],[7.73138,46.42212],[7.73605,46.42489],[7.74795,46.41259],[7.74741,46.40837],[7.74208,46.4051],[7.75956,46.3985],[7.7649,46.39419],[7.76032,46.3925],[7.75615,46.38586],[7.75668,46.38366],[7.76223,46.38215],[7.76205,46.37754],[7.76679,46.3724],[7.77948,46.37562],[7.79333,46.37068],[7.79162,46.36313],[7.78727,46.36032],[7.77843,46.3643],[7.75674,46.36194],[7.75632,46.3661],[7.73471,46.36419],[7.72908,46.36836],[7.71867,46.36209],[7.7124,46.36113],[7.70727,46.3657],[7.7044,46.37209],[7.70843,46.37635],[7.7072,46.37874],[7.70663,46.3792]]]}},{"type":"Feature","properties":{"name":"Fiesch","cantonId":"valais","municipalityId":"fiesch-6057"},"geometry":{"type":"Polygon","coordinates":[[[8.14866,46.40721],[8.12544,46.39128],[8.10445,46.40832],[8.08274,46.41818],[8.08317,46.42076],[8.09472,46.42877],[8.10078,46.42741],[8.11135,46.43029],[8.11899,46.42979],[8.11706,46.4258],[8.11439,46.42539],[8.12022,46.42401],[8.12378,46.42716],[8.12763,46.42134],[8.13113,46.42126],[8.13813,46.41583],[8.14893,46.41349],[8.14608,46.41],[8.1472,46.40803],[8.14866,46.40721]]]}},{"type":"Feature","properties":{"name":"Fieschertal","cantonId":"valais","municipalityId":"fieschertal-6058"},"geometry":{"type":"Polygon","coordinates":[[[8.14893,46.41349],[8.13813,46.41583],[8.13113,46.42126],[8.12763,46.42134],[8.12378,46.42716],[8.12022,46.42401],[8.11439,46.42539],[8.11706,46.4258],[8.11899,46.42979],[8.09344,46.4281],[8.09419,46.43129],[8.08681,46.43941],[8.05903,46.45688],[8.05235,46.45372],[8.0473,46.45551],[8.02812,46.47432],[8.02044,46.47801],[8.00444,46.47586],[7.99182,46.4661],[7.97234,46.46916],[7.96554,46.46801],[7.96331,46.47527],[7.94027,46.48322],[7.94017,46.48608],[7.93293,46.49456],[7.93452,46.50328],[7.94177,46.50771],[7.95349,46.50797],[7.96759,46.51279],[7.97054,46.51628],[7.97294,46.52418],[7.96337,46.53526],[7.963,46.53939],[7.97413,46.54651],[7.98588,46.54773],[7.9973,46.5585],[8.00144,46.55795],[8.01479,46.56306],[8.03259,46.56218],[8.04313,46.55686],[8.05467,46.55571],[8.06146,46.55133],[8.0758,46.55555],[8.08697,46.55129],[8.09367,46.55143],[8.09538,46.54889],[8.11417,46.54668],[8.1264,46.53716],[8.14976,46.53164],[8.17451,46.53141],[8.17449,46.52421],[8.18072,46.52034],[8.18508,46.5205],[8.1885,46.5168],[8.18974,46.51375],[8.18508,46.5114],[8.18433,46.50643],[8.1803,46.50627],[8.16576,46.49795],[8.1669,46.49414],[8.16187,46.48762],[8.16105,46.47612],[8.14995,46.46849],[8.13864,46.4673],[8.13359,46.46423],[8.13951,46.44962],[8.13942,46.4446],[8.14479,46.43805],[8.14308,46.43312],[8.1539,46.42372],[8.14922,46.41355],[8.14893,46.41349]]]}},{"type":"Feature","properties":{"name":"Finhaut","cantonId":"valais","municipalityId":"finhaut-6214"},"geometry":{"type":"Polygon","coordinates":[[[6.9483,46.05119],[6.94313,46.05086],[6.93503,46.05597],[6.9373,46.06429],[6.93397,46.066],[6.92457,46.06525],[6.90909,46.05043],[6.89478,46.0481],[6.89125,46.0427],[6.88817,46.04267],[6.87783,46.04637],[6.87171,46.05115],[6.87656,46.06324],[6.88027,46.06929],[6.88772,46.07325],[6.90089,46.07082],[6.91286,46.07929],[6.9191,46.07556],[6.92538,46.08039],[6.94263,46.08426],[6.96151,46.08163],[6.96387,46.08374],[6.96239,46.08765],[6.97114,46.09317],[6.96431,46.09822],[6.97361,46.10142],[6.99078,46.09401],[6.9926,46.08974],[6.99087,46.08362],[6.97534,46.07841],[6.96692,46.07167],[6.96329,46.06147],[6.94836,46.05118],[6.9483,46.05119]]]}},{"type":"Feature","properties":{"name":"Fully","cantonId":"valais","municipalityId":"fully-6133"},"geometry":{"type":"Polygon","coordinates":[[[7.09461,46.19774],[7.09789,46.19172],[7.10417,46.18815],[7.12583,46.18324],[7.14469,46.18269],[7.15098,46.17104],[7.16602,46.15537],[7.15015,46.14828],[7.15196,46.14664],[7.11662,46.12437],[7.0879,46.12446],[7.06864,46.12075],[7.07321,46.12852],[7.0722,46.14198],[7.08831,46.15842],[7.08204,46.16357],[7.08008,46.17026],[7.08376,46.17614],[7.08387,46.18509],[7.07548,46.19932],[7.08842,46.20159],[7.09431,46.19795],[7.09461,46.19774]]]}},{"type":"Feature","properties":{"name":"Gampel-Bratsch","cantonId":"valais","municipalityId":"gampel-bratsch-6118"},"geometry":{"type":"Polygon","coordinates":[[[7.74468,46.30592],[7.73029,46.30745],[7.72019,46.31162],[7.71314,46.30896],[7.69728,46.30995],[7.69914,46.31915],[7.7029,46.32448],[7.70162,46.33639],[7.70366,46.34405],[7.7007,46.35168],[7.71264,46.36134],[7.71867,46.36209],[7.72908,46.36836],[7.73471,46.36419],[7.75632,46.3661],[7.75814,46.35633],[7.75105,46.33737],[7.75138,46.33085],[7.74392,46.32122],[7.74508,46.31141],[7.74298,46.30633],[7.74475,46.30662],[7.74468,46.30592]]]}},{"type":"Feature","properties":{"name":"Goms","cantonId":"valais","municipalityId":"goms-6077"},"geometry":{"type":"Polygon","coordinates":[[[8.28895,46.40826],[8.26956,46.41058],[8.26773,46.4147],[8.25986,46.4161],[8.25548,46.41961],[8.25661,46.42066],[8.25291,46.42169],[8.25263,46.4242],[8.24166,46.4216],[8.23693,46.41608],[8.22743,46.41711],[8.22088,46.41306],[8.20849,46.41002],[8.20282,46.42109],[8.18833,46.4323],[8.18128,46.42969],[8.17896,46.42614],[8.17291,46.43062],[8.17927,46.43588],[8.17584,46.43792],[8.17847,46.44258],[8.17501,46.44677],[8.18036,46.45031],[8.17765,46.45359],[8.17045,46.45123],[8.16972,46.45737],[8.16332,46.46254],[8.16087,46.46935],[8.16266,46.47489],[8.16084,46.47596],[8.16252,46.47872],[8.16126,46.48569],[8.16604,46.49114],[8.16672,46.49915],[8.18433,46.50643],[8.18508,46.5114],[8.18979,46.51392],[8.18508,46.5205],[8.19117,46.52305],[8.20545,46.52296],[8.21689,46.52629],[8.24176,46.52654],[8.25806,46.5294],[8.25939,46.52577],[8.26582,46.52272],[8.26808,46.51884],[8.29206,46.50491],[8.29376,46.4979],[8.30598,46.50289],[8.31118,46.49578],[8.31854,46.49743],[8.32969,46.49574],[8.33989,46.49798],[8.34706,46.48684],[8.35056,46.48569],[8.34831,46.48429],[8.35569,46.48144],[8.35377,46.47856],[8.33576,46.47445],[8.3338,46.47204],[8.32598,46.47294],[8.31572,46.46612],[8.31812,46.46433],[8.31731,46.4572],[8.32367,46.44804],[8.3096,46.43931],[8.312,46.43518],[8.30536,46.42863],[8.30743,46.42529],[8.29904,46.41763],[8.29895,46.41424],[8.28947,46.40841],[8.28895,46.40826]]]}},{"type":"Feature","properties":{"name":"Grächen","cantonId":"valais","municipalityId":"graechen-6285"},"geometry":{"type":"Polygon","coordinates":[[[7.82606,46.20593],[7.84753,46.22014],[7.87299,46.20787],[7.87338,46.19142],[7.86943,46.18361],[7.86266,46.18004],[7.86361,46.17696],[7.85966,46.17342],[7.84673,46.17581],[7.83653,46.17976],[7.83145,46.18508],[7.82719,46.18557],[7.82793,46.18959],[7.82034,46.19326],[7.82225,46.19667],[7.81783,46.19856],[7.82587,46.20575],[7.82606,46.20593]]]}},{"type":"Feature","properties":{"name":"Grengiols","cantonId":"valais","municipalityId":"grengiols-6177"},"geometry":{"type":"Polygon","coordinates":[[[8.20601,46.30645],[8.19875,46.30224],[8.19444,46.30344],[8.1789,46.29738],[8.16095,46.29592],[8.13089,46.30684],[8.12983,46.31124],[8.12644,46.3105],[8.11147,46.31509],[8.10315,46.31411],[8.095,46.32133],[8.09659,46.32251],[8.09225,46.32881],[8.09542,46.33294],[8.09354,46.3365],[8.09888,46.338],[8.09618,46.34517],[8.09201,46.34987],[8.08038,46.35533],[8.07514,46.36544],[8.06642,46.37214],[8.06905,46.37124],[8.07315,46.37545],[8.0806,46.37661],[8.08807,46.38524],[8.09574,46.38221],[8.10563,46.38489],[8.10602,46.37832],[8.10197,46.37608],[8.12445,46.37802],[8.13172,46.38233],[8.13453,46.3811],[8.13842,46.38285],[8.14661,46.38053],[8.14824,46.37607],[8.151,46.37535],[8.15161,46.37004],[8.15747,46.3679],[8.1616,46.36317],[8.17515,46.35901],[8.17574,46.34961],[8.17295,46.34217],[8.18546,46.33605],[8.19585,46.31722],[8.19946,46.31567],[8.19891,46.31146],[8.20446,46.3066],[8.20601,46.30645]]]}},{"type":"Feature","properties":{"name":"Grimisuat","cantonId":"valais","municipalityId":"grimisuat-6263"},"geometry":{"type":"Polygon","coordinates":[[[7.39052,46.26672],[7.39558,46.26352],[7.3965,46.25768],[7.3943,46.25398],[7.40323,46.25233],[7.36453,46.24352],[7.36343,46.24698],[7.37186,46.25939],[7.37093,46.26372],[7.37848,46.26755],[7.37862,46.26589],[7.39006,46.26672],[7.39052,46.26672]]]}},{"type":"Feature","properties":{"name":"Grône","cantonId":"valais","municipalityId":"grone-6238"},"geometry":{"type":"Polygon","coordinates":[[[7.52901,46.20439],[7.51975,46.206],[7.51041,46.20246],[7.493,46.21538],[7.48639,46.22397],[7.46416,46.2289],[7.45872,46.23287],[7.45255,46.24397],[7.42526,46.23857],[7.42257,46.24184],[7.4447,46.25232],[7.47986,46.25949],[7.48725,46.25459],[7.49162,46.25551],[7.50282,46.24947],[7.51167,46.23678],[7.51126,46.23097],[7.51549,46.22232],[7.53179,46.21571],[7.53063,46.213],[7.53291,46.20842],[7.52903,46.20442],[7.52901,46.20439]]]}},{"type":"Feature","properties":{"name":"Guttet-Feschel","cantonId":"valais","municipalityId":"guttet-feschel-6117"},"geometry":{"type":"Polygon","coordinates":[[[7.67099,46.37613],[7.68755,46.38006],[7.68838,46.38481],[7.69259,46.38734],[7.6978,46.38559],[7.70159,46.38703],[7.70205,46.3832],[7.70663,46.3792],[7.68707,46.36856],[7.68418,46.3619],[7.68485,46.35833],[7.67904,46.35193],[7.67964,46.34237],[7.68313,46.34081],[7.68617,46.34287],[7.68409,46.33754],[7.68804,46.33554],[7.68624,46.32811],[7.67521,46.31407],[7.67526,46.31729],[7.6548,46.32168],[7.66076,46.32636],[7.66359,46.33268],[7.66087,46.33316],[7.66012,46.33839],[7.65658,46.33977],[7.66874,46.34598],[7.66711,46.34833],[7.66949,46.35055],[7.66865,46.36857],[7.67097,46.37564],[7.67099,46.37613]]]}},{"type":"Feature","properties":{"name":"Hérémence","cantonId":"valais","municipalityId":"heremence-6084"},"geometry":{"type":"Polygon","coordinates":[[[7.3638,46.1602],[7.36725,46.15918],[7.38411,46.17107],[7.39238,46.18901],[7.40489,46.19214],[7.40664,46.18715],[7.41446,46.18875],[7.41892,46.18025],[7.43327,46.16942],[7.42587,46.16503],[7.41981,46.15759],[7.41888,46.15288],[7.42055,46.14022],[7.42644,46.13556],[7.42847,46.12907],[7.42542,46.11776],[7.42869,46.11351],[7.42849,46.09491],[7.43139,46.08724],[7.42948,46.08515],[7.4323,46.07905],[7.42545,46.07135],[7.42739,46.06699],[7.43368,46.06582],[7.43405,46.0635],[7.4335,46.0524],[7.42635,46.04074],[7.43527,46.03541],[7.43151,46.0152],[7.4333,46.00824],[7.44075,46.0047],[7.44243,46.00052],[7.44205,45.99675],[7.43582,45.99262],[7.43158,45.99098],[7.41734,45.99314],[7.41252,45.98941],[7.39999,45.99452],[7.3875,46.01036],[7.37843,46.01102],[7.36914,46.01624],[7.3723,46.02491],[7.36599,46.03102],[7.36849,46.03819],[7.36174,46.03989],[7.35553,46.04627],[7.35282,46.05826],[7.3567,46.06189],[7.35169,46.06987],[7.35633,46.07685],[7.36494,46.0838],[7.36168,46.08596],[7.36239,46.09057],[7.35658,46.09823],[7.36036,46.10402],[7.35741,46.10705],[7.35753,46.11342],[7.34422,46.13095],[7.35048,46.13551],[7.35699,46.1572],[7.36242,46.15948],[7.3638,46.1602]]]}},{"type":"Feature","properties":{"name":"Icogne","cantonId":"valais","municipalityId":"icogne-6239"},"geometry":{"type":"Polygon","coordinates":[[[7.42771,46.26186],[7.4283,46.26941],[7.42296,46.26989],[7.42369,46.27644],[7.43077,46.28826],[7.43107,46.29624],[7.44631,46.31426],[7.45042,46.32617],[7.44125,46.34301],[7.42224,46.35797],[7.44657,46.37205],[7.46363,46.37806],[7.46973,46.37812],[7.47329,46.38363],[7.4794,46.38527],[7.48461,46.37915],[7.48685,46.37072],[7.48427,46.36929],[7.48067,46.3609],[7.49107,46.35241],[7.47088,46.33388],[7.46097,46.32792],[7.4612,46.32229],[7.45711,46.31774],[7.46221,46.31219],[7.45503,46.30939],[7.45564,46.30663],[7.45331,46.30412],[7.44821,46.30315],[7.44572,46.29144],[7.44764,46.28727],[7.43702,46.28204],[7.43238,46.27721],[7.43056,46.27203],[7.43329,46.27173],[7.42822,46.26277],[7.42771,46.26186]]]}},{"type":"Feature","properties":{"name":"Inden","cantonId":"valais","municipalityId":"inden-6109"},"geometry":{"type":"Polygon","coordinates":[[[7.57205,46.37011],[7.5712,46.37585],[7.57934,46.38048],[7.58013,46.3842],[7.59582,46.38425],[7.59875,46.38207],[7.59514,46.37911],[7.60647,46.37064],[7.60287,46.36789],[7.60407,46.3655],[7.59511,46.36425],[7.60476,46.36132],[7.60681,46.3536],[7.61306,46.35152],[7.61382,46.35875],[7.61937,46.36361],[7.61532,46.35578],[7.6191,46.35556],[7.61826,46.35112],[7.62176,46.34918],[7.61812,46.34677],[7.62537,46.33298],[7.62389,46.33085],[7.61947,46.33238],[7.62089,46.32856],[7.60574,46.34259],[7.59399,46.34666],[7.59118,46.3497],[7.59238,46.35249],[7.58997,46.35701],[7.5827,46.36033],[7.58124,46.36357],[7.57265,46.36949],[7.57205,46.37011]]]}},{"type":"Feature","properties":{"name":"Isérables","cantonId":"valais","municipalityId":"iserables-6134"},"geometry":{"type":"Polygon","coordinates":[[[7.27706,46.11528],[7.27337,46.11904],[7.27252,46.12405],[7.26737,46.12642],[7.25984,46.1345],[7.24779,46.15425],[7.23929,46.15863],[7.23897,46.16266],[7.23013,46.16813],[7.24472,46.17454],[7.25109,46.18258],[7.25213,46.17977],[7.24994,46.17406],[7.25544,46.17437],[7.26107,46.1658],[7.26824,46.16192],[7.27734,46.16083],[7.27577,46.159],[7.2926,46.15573],[7.29346,46.14466],[7.29559,46.14246],[7.29012,46.13494],[7.29165,46.12819],[7.28755,46.11972],[7.27709,46.1153],[7.27706,46.11528]]]}},{"type":"Feature","properties":{"name":"Kippel","cantonId":"valais","municipalityId":"kippel-6197"},"geometry":{"type":"Polygon","coordinates":[[[7.8026,46.37688],[7.79602,46.37569],[7.79278,46.37093],[7.77948,46.37562],[7.76679,46.3724],[7.76182,46.3779],[7.76223,46.38215],[7.75668,46.38366],[7.75615,46.38586],[7.76032,46.3925],[7.7649,46.39419],[7.75956,46.3985],[7.74208,46.4051],[7.74741,46.40837],[7.74795,46.41259],[7.73605,46.42489],[7.74422,46.42841],[7.74803,46.4267],[7.76475,46.41646],[7.76816,46.40883],[7.77834,46.3999],[7.78095,46.40058],[7.78717,46.38909],[7.79619,46.38185],[7.80126,46.38161],[7.80198,46.37796],[7.8026,46.37688]]]}},{"type":"Feature","properties":{"name":"Lalden","cantonId":"valais","municipalityId":"lalden-6286"},"geometry":{"type":"Polygon","coordinates":[[[7.87685,46.30236],[7.87875,46.30508],[7.88539,46.30236],[7.91042,46.30309],[7.91258,46.29834],[7.89967,46.29596],[7.87817,46.3023],[7.87685,46.30236]]]}},{"type":"Feature","properties":{"name":"Lax","cantonId":"valais","municipalityId":"lax-6061"},"geometry":{"type":"Polygon","coordinates":[[[8.08274,46.41818],[8.10445,46.40832],[8.1192,46.3975],[8.12547,46.39154],[8.12242,46.38747],[8.10602,46.37832],[8.10468,46.39118],[8.09878,46.3961],[8.08942,46.39967],[8.09364,46.40426],[8.07883,46.41238],[8.08196,46.41728],[8.08274,46.41818]]]}},{"type":"Feature","properties":{"name":"Lens","cantonId":"valais","municipalityId":"lens-6240"},"geometry":{"type":"Polygon","coordinates":[[[7.44386,46.26259],[7.43534,46.2592],[7.42771,46.26186],[7.43329,46.27173],[7.43056,46.27203],[7.43238,46.27721],[7.43702,46.28204],[7.44764,46.28727],[7.44572,46.29144],[7.44821,46.30315],[7.45331,46.30412],[7.45564,46.30663],[7.45503,46.30939],[7.46221,46.31219],[7.45711,46.31774],[7.4612,46.32229],[7.46097,46.32792],[7.48502,46.34628],[7.48629,46.34404],[7.47794,46.33532],[7.4824,46.3334],[7.48318,46.32861],[7.48955,46.32405],[7.48272,46.32223],[7.48168,46.31924],[7.47062,46.31911],[7.47246,46.30984],[7.46694,46.30904],[7.46923,46.30354],[7.46604,46.29786],[7.45876,46.29701],[7.46692,46.28092],[7.47523,46.2818],[7.47315,46.27375],[7.44386,46.26277],[7.44386,46.26259]]]}},{"type":"Feature","properties":{"name":"Leuk","cantonId":"valais","municipalityId":"leuk-6110"},"geometry":{"type":"Polygon","coordinates":[[[7.5884,46.27743],[7.5813,46.29545],[7.58145,46.30337],[7.58478,46.30852],[7.6025,46.31351],[7.62214,46.31526],[7.62685,46.3247],[7.6207,46.32905],[7.61947,46.33238],[7.62389,46.33085],[7.62577,46.32744],[7.63889,46.33032],[7.64881,46.33667],[7.65897,46.33928],[7.66334,46.3312],[7.6548,46.32168],[7.67526,46.31729],[7.67521,46.31407],[7.67655,46.31506],[7.68624,46.32811],[7.68804,46.33554],[7.68409,46.33754],[7.68617,46.34287],[7.68313,46.34081],[7.67964,46.34237],[7.67904,46.35193],[7.68485,46.35833],[7.68418,46.3619],[7.68707,46.36856],[7.70663,46.3792],[7.70843,46.37635],[7.7044,46.37209],[7.70727,46.3657],[7.7124,46.36113],[7.7007,46.35168],[7.70366,46.34405],[7.70162,46.33639],[7.7029,46.32448],[7.69914,46.31915],[7.69728,46.30995],[7.6841,46.30698],[7.6854,46.30483],[7.67242,46.29875],[7.66295,46.29921],[7.66047,46.297],[7.65812,46.28354],[7.66104,46.27436],[7.66025,46.26835],[7.65605,46.25938],[7.64707,46.25348],[7.64516,46.2486],[7.63979,46.2475],[7.62311,46.25223],[7.61791,46.25677],[7.6162,46.26295],[7.59532,46.27808],[7.59239,46.27817],[7.5884,46.27743]]]}},{"type":"Feature","properties":{"name":"Leukerbad","cantonId":"valais","municipalityId":"leukerbad-6111"},"geometry":{"type":"Polygon","coordinates":[[[7.67099,46.37613],[7.6515,46.37731],[7.64285,46.37447],[7.64026,46.37117],[7.62152,46.36153],[7.61878,46.36059],[7.61824,46.36385],[7.61271,46.35639],[7.61306,46.35152],[7.60681,46.3536],[7.60417,46.36176],[7.59511,46.36425],[7.60407,46.3655],[7.60287,46.36789],[7.60647,46.37064],[7.59514,46.37911],[7.59843,46.38356],[7.57836,46.38491],[7.56813,46.38167],[7.56279,46.3827],[7.54699,46.39401],[7.5286,46.40029],[7.53354,46.4094],[7.55458,46.41367],[7.56237,46.41243],[7.58155,46.41756],[7.58644,46.4137],[7.59575,46.41121],[7.60019,46.41597],[7.59739,46.42068],[7.6075,46.42487],[7.61023,46.42858],[7.60835,46.43455],[7.60965,46.43674],[7.62115,46.43929],[7.62608,46.44508],[7.69361,46.42493],[7.70486,46.41635],[7.70487,46.41173],[7.70784,46.40915],[7.69705,46.39602],[7.68885,46.39133],[7.69259,46.38734],[7.68838,46.38481],[7.68762,46.38012],[7.6712,46.37631],[7.67099,46.37613]]]}},{"type":"Feature","properties":{"name":"Leytron","cantonId":"valais","municipalityId":"leytron-6135"},"geometry":{"type":"Polygon","coordinates":[[[7.09461,46.19774],[7.08855,46.20179],[7.09624,46.20754],[7.10842,46.21221],[7.12251,46.22348],[7.12121,46.22932],[7.12646,46.23723],[7.13036,46.23679],[7.1343,46.22995],[7.15176,46.21461],[7.15725,46.21103],[7.16346,46.21093],[7.17406,46.20622],[7.17792,46.20151],[7.18997,46.20147],[7.19984,46.19642],[7.20923,46.19655],[7.21716,46.19369],[7.22041,46.19655],[7.22336,46.19012],[7.22353,46.17848],[7.20513,46.17686],[7.19819,46.18314],[7.18991,46.18346],[7.17143,46.18244],[7.1513,46.17617],[7.14702,46.17777],[7.14195,46.19344],[7.1319,46.19808],[7.09524,46.19774],[7.09461,46.19774]]]}},{"type":"Feature","properties":{"name":"Liddes","cantonId":"valais","municipalityId":"liddes-6033"},"geometry":{"type":"MultiPolygon","coordinates":[[[[7.26205,45.96129],[7.25544,45.96353],[7.25086,45.96193],[7.23132,45.96346],[7.22196,45.96612],[7.21813,45.97303],[7.21532,45.97399],[7.21321,45.9737],[7.21566,45.9694],[7.21298,45.96868],[7.20944,45.96882],[7.20898,45.97347],[7.20223,45.97318],[7.19197,45.96772],[7.19088,45.96103],[7.1712,45.95843],[7.1649,45.94579],[7.16575,45.94069],[7.15613,45.92421],[7.13758,45.91397],[7.12936,45.91545],[7.12339,45.92673],[7.13144,45.93523],[7.13414,45.94003],[7.135,45.94894],[7.13993,45.95198],[7.13891,45.955],[7.14236,45.95835],[7.13905,45.96125],[7.14457,45.97311],[7.14938,45.99693],[7.1452,46.00646],[7.15878,46.0174],[7.16843,46.02161],[7.20076,46.01782],[7.20402,46.01416],[7.23184,46.00949],[7.24147,45.99204],[7.26501,45.98417],[7.26378,45.98199],[7.27095,45.97303],[7.27195,45.96574],[7.26275,45.9619],[7.26205,45.96129]]],[[[7.20305,45.96419],[7.20137,45.95945],[7.19886,45.9597],[7.1975,45.96784],[7.20312,45.96904],[7.20311,45.96459],[7.20305,45.96419]]]]}},{"type":"Feature","properties":{"name":"Martigny","cantonId":"valais","municipalityId":"martigny-6136"},"geometry":{"type":"Polygon","coordinates":[[[7.06268,46.07446],[7.05467,46.07419],[7.05321,46.07657],[7.05893,46.08981],[7.05618,46.09431],[7.06773,46.10521],[7.0537,46.10793],[7.05212,46.1062],[7.04849,46.10989],[7.0402,46.11157],[7.03605,46.1057],[7.0323,46.10471],[7.02843,46.10718],[7.03807,46.1175],[7.04274,46.13044],[7.05008,46.13403],[7.05141,46.13815],[7.06959,46.12039],[7.0879,46.12446],[7.11662,46.12437],[7.14182,46.14068],[7.15724,46.12477],[7.15073,46.11407],[7.13995,46.10387],[7.09282,46.08868],[7.0724,46.08465],[7.06819,46.08148],[7.06865,46.07589],[7.0629,46.07452],[7.06268,46.07446]]]}},{"type":"Feature","properties":{"name":"Martigny-Combe","cantonId":"valais","municipalityId":"martigny-combe-6137"},"geometry":{"type":"Polygon","coordinates":[[[7.04029,46.02298],[7.02733,46.03646],[7.02025,46.0404],[7.01601,46.04744],[7.00494,46.04629],[7.0078,46.05419],[7.00174,46.05822],[7.00243,46.06743],[6.98507,46.07305],[6.99196,46.07395],[6.99674,46.07844],[6.99195,46.08145],[6.99178,46.08371],[6.99993,46.09502],[7.00241,46.0942],[7.01639,46.10296],[7.01923,46.10073],[7.01986,46.10334],[7.0254,46.10658],[7.03605,46.1057],[7.0402,46.11157],[7.04849,46.10989],[7.05212,46.1062],[7.0537,46.10793],[7.06773,46.10521],[7.05618,46.09431],[7.05893,46.08981],[7.05333,46.07475],[7.0693,46.07243],[7.07593,46.06034],[7.06819,46.05095],[7.05689,46.04492],[7.05101,46.03508],[7.05151,46.02537],[7.0406,46.0231],[7.04029,46.02298]]]}},{"type":"Feature","properties":{"name":"Massongex","cantonId":"valais","municipalityId":"massongex-6215"},"geometry":{"type":"Polygon","coordinates":[[[6.95231,46.20729],[6.96075,46.21942],[6.97028,46.22466],[6.96878,46.22789],[6.97033,46.22915],[6.96764,46.23047],[6.97429,46.23422],[6.97201,46.23732],[6.97509,46.239],[6.976,46.24256],[6.97147,46.24403],[6.97553,46.24913],[6.97489,46.25352],[6.97918,46.2573],[6.98717,46.25269],[6.98953,46.24403],[7.00194,46.23311],[7.00251,46.22553],[6.99012,46.22479],[6.98136,46.22012],[6.96916,46.2218],[6.95555,46.21049],[6.95231,46.20729]]]}},{"type":"Feature","properties":{"name":"Mörel-Filet","cantonId":"valais","municipalityId":"moerel-filet-6203"},"geometry":{"type":"Polygon","coordinates":[[[8.09225,46.32881],[8.08284,46.32591],[8.0694,46.33534],[8.04327,46.33962],[8.03874,46.34273],[8.027,46.34485],[8.04102,46.35769],[8.03699,46.36114],[8.04136,46.35907],[8.04784,46.36625],[8.05167,46.36558],[8.04983,46.36774],[8.06423,46.37065],[8.06576,46.37277],[8.06854,46.36786],[8.05528,46.36186],[8.06252,46.35703],[8.06349,46.35269],[8.0864,46.33083],[8.09273,46.32929],[8.09225,46.32881]]]}},{"type":"Feature","properties":{"name":"Mont-Noble","cantonId":"valais","municipalityId":"mont-noble-6090"},"geometry":{"type":"Polygon","coordinates":[[[7.52901,46.20439],[7.52931,46.20021],[7.53397,46.19483],[7.52328,46.18748],[7.52248,46.18087],[7.51955,46.17671],[7.51952,46.16808],[7.50865,46.16242],[7.50251,46.16233],[7.4946,46.1677],[7.48862,46.17878],[7.45142,46.19204],[7.44166,46.19179],[7.4295,46.18786],[7.4134,46.19042],[7.41283,46.20062],[7.41516,46.20401],[7.41402,46.2141],[7.40788,46.21838],[7.40882,46.22262],[7.42526,46.23857],[7.45255,46.24397],[7.45872,46.23287],[7.46416,46.2289],[7.48639,46.22397],[7.493,46.21538],[7.51041,46.20246],[7.51975,46.206],[7.52838,46.20475],[7.52901,46.20439]]]}},{"type":"Feature","properties":{"name":"Monthey","cantonId":"valais","municipalityId":"monthey-6153"},"geometry":{"type":"MultiPolygon","coordinates":[[[[6.9617,46.27993],[6.96517,46.26875],[6.97918,46.2573],[6.97489,46.25352],[6.97553,46.24913],[6.97147,46.24403],[6.976,46.24256],[6.97509,46.239],[6.97201,46.23732],[6.97429,46.23422],[6.96764,46.23047],[6.97033,46.22915],[6.96878,46.22789],[6.97028,46.22466],[6.96075,46.21942],[6.95192,46.2066],[6.94395,46.20512],[6.93631,46.20926],[6.93625,46.21674],[6.93855,46.22005],[6.93627,46.22439],[6.93978,46.23439],[6.93661,46.23387],[6.93303,46.23692],[6.93703,46.2412],[6.93525,46.24284],[6.94097,46.247],[6.93814,46.24958],[6.94186,46.25381],[6.92053,46.25981],[6.91164,46.26674],[6.90392,46.26687],[6.90585,46.26985],[6.90325,46.27369],[6.89535,46.27066],[6.8959,46.27431],[6.91011,46.28237],[6.91575,46.27396],[6.91432,46.27331],[6.92015,46.27346],[6.92247,46.26847],[6.93565,46.27214],[6.94058,46.26316],[6.95142,46.2658],[6.95196,46.26391],[6.9574,46.26489],[6.95806,46.2633],[6.96226,46.26458],[6.95693,46.27414],[6.96085,46.2793],[6.9617,46.27993]]],[[[6.8208,46.22992],[6.83367,46.23032],[6.83176,46.22729],[6.8367,46.22437],[6.83595,46.22177],[6.82564,46.21193],[6.83606,46.20655],[6.8408,46.19867],[6.82316,46.19286],[6.81826,46.19888],[6.80697,46.19627],[6.80353,46.20461],[6.80986,46.21384],[6.82158,46.22312],[6.82092,46.22986],[6.8208,46.22992]]],[[[6.88621,46.29337],[6.89234,46.29713],[6.89666,46.29368],[6.89239,46.29181],[6.8924,46.28032],[6.88623,46.27077],[6.87644,46.27145],[6.88715,46.28868],[6.88623,46.29328],[6.88621,46.29337]]],[[[6.91389,46.29874],[6.91716,46.29995],[6.9198,46.29619],[6.91225,46.29205],[6.9106,46.2974],[6.91389,46.29874]]]]}},{"type":"Feature","properties":{"name":"Naters","cantonId":"valais","municipalityId":"naters-6007"},"geometry":{"type":"Polygon","coordinates":[[[8.00267,46.32294],[7.98324,46.32001],[7.94301,46.30549],[7.9416,46.30763],[7.90528,46.30275],[7.90503,46.31023],[7.89919,46.31107],[7.90646,46.31423],[7.90484,46.32027],[7.90095,46.32113],[7.90013,46.3245],[7.89239,46.32392],[7.89296,46.32736],[7.88566,46.33815],[7.88435,46.34852],[7.89837,46.35294],[7.90025,46.35591],[7.89822,46.36442],[7.91006,46.3682],[7.91418,46.37953],[7.91262,46.38458],[7.90703,46.38721],[7.90931,46.38981],[7.91172,46.40774],[7.9089,46.41178],[7.89392,46.4192],[7.9063,46.4246],[7.90856,46.42828],[7.92568,46.43965],[7.94295,46.44863],[7.96031,46.46703],[7.96988,46.46915],[7.98424,46.46791],[8.02234,46.45753],[8.06873,46.43232],[8.05992,46.424],[8.0543,46.41218],[8.01279,46.39222],[8.00203,46.3794],[8.00352,46.37401],[8.00104,46.36587],[7.99639,46.36144],[7.99635,46.34992],[8.0022,46.33532],[8.01285,46.33022],[8.01122,46.32685],[8.00726,46.32528],[8.00267,46.32294]]]}},{"type":"Feature","properties":{"name":"Nendaz","cantonId":"valais","municipalityId":"nendaz-6024"},"geometry":{"type":"Polygon","coordinates":[[[7.24949,46.18371],[7.27776,46.1974],[7.29669,46.2019],[7.31166,46.20977],[7.31804,46.20473],[7.33709,46.21122],[7.3418,46.20506],[7.33463,46.20209],[7.33566,46.19978],[7.33106,46.19753],[7.32922,46.19256],[7.3523,46.19243],[7.36794,46.17804],[7.36763,46.16491],[7.3638,46.1602],[7.35699,46.1572],[7.35048,46.13551],[7.34422,46.13095],[7.35753,46.11342],[7.35741,46.10705],[7.36036,46.10402],[7.35658,46.09823],[7.36239,46.09057],[7.36168,46.08596],[7.36494,46.0838],[7.35223,46.07138],[7.35198,46.06697],[7.3567,46.06189],[7.35416,46.0605],[7.34074,46.06245],[7.33913,46.06529],[7.3347,46.06545],[7.33138,46.07453],[7.32504,46.07525],[7.3188,46.08036],[7.31635,46.07852],[7.3051,46.08033],[7.29981,46.08531],[7.28838,46.08996],[7.28647,46.09406],[7.27912,46.09687],[7.27988,46.10634],[7.27706,46.11528],[7.28755,46.11972],[7.29165,46.12819],[7.29012,46.13494],[7.29559,46.14246],[7.29346,46.14466],[7.2926,46.15573],[7.27577,46.159],[7.27734,46.16083],[7.26824,46.16192],[7.26107,46.1658],[7.25544,46.17437],[7.24994,46.17406],[7.25213,46.17977],[7.25079,46.18278],[7.24949,46.18371]]]}},{"type":"Feature","properties":{"name":"Niedergesteln","cantonId":"valais","municipalityId":"niedergesteln-6198"},"geometry":{"type":"Polygon","coordinates":[[[7.8106,46.37863],[7.81801,46.36529],[7.81464,46.35161],[7.81565,46.34787],[7.81081,46.33891],[7.79519,46.32013],[7.79089,46.30648],[7.79431,46.30024],[7.79231,46.29677],[7.76479,46.30186],[7.74427,46.30044],[7.74466,46.30567],[7.75041,46.30538],[7.75639,46.3091],[7.7729,46.30718],[7.77296,46.31185],[7.77008,46.31193],[7.77051,46.31479],[7.76879,46.3147],[7.78438,46.33245],[7.78315,46.34359],[7.78595,46.35139],[7.78534,46.35802],[7.79162,46.36313],[7.79079,46.36526],[7.79602,46.37569],[7.81008,46.37866],[7.8106,46.37863]]]}},{"type":"Feature","properties":{"name":"Noble-Contrée","cantonId":"valais","municipalityId":"noble-contree-6254"},"geometry":{"type":"Polygon","coordinates":[[[7.51839,46.29336],[7.5153,46.30123],[7.51187,46.3038],[7.53089,46.31228],[7.53103,46.31843],[7.52737,46.32001],[7.54463,46.31993],[7.55015,46.32476],[7.55753,46.32095],[7.55605,46.31958],[7.55983,46.31366],[7.55901,46.30664],[7.54918,46.29972],[7.54277,46.29959],[7.54218,46.30241],[7.53915,46.29858],[7.52615,46.2988],[7.5186,46.29349],[7.51839,46.29336]]]}},{"type":"Feature","properties":{"name":"Oberems","cantonId":"valais","municipalityId":"oberems-6112"},"geometry":{"type":"Polygon","coordinates":[[[7.70598,46.21299],[7.69736,46.19739],[7.69721,46.18792],[7.69355,46.18203],[7.6919,46.17304],[7.69115,46.15017],[7.68566,46.13698],[7.68811,46.13169],[7.70544,46.11893],[7.71082,46.11075],[7.69021,46.11887],[7.68068,46.13007],[7.67385,46.13387],[7.66954,46.14484],[7.66281,46.15151],[7.67158,46.15782],[7.67301,46.16587],[7.66081,46.17364],[7.66201,46.17752],[7.65665,46.1818],[7.65958,46.19056],[7.65844,46.19341],[7.66208,46.19653],[7.66011,46.21752],[7.66179,46.22012],[7.66071,46.22775],[7.6537,46.23906],[7.65687,46.24359],[7.66515,46.24843],[7.66327,46.25205],[7.66872,46.25636],[7.66773,46.26061],[7.67271,46.26456],[7.6696,46.28434],[7.6763,46.28727],[7.69641,46.28769],[7.71288,46.26226],[7.71277,46.25308],[7.70967,46.24846],[7.71347,46.23604],[7.71166,46.23457],[7.71139,46.22253],[7.70607,46.21308],[7.70598,46.21299]]]}},{"type":"Feature","properties":{"name":"Obergoms","cantonId":"valais","municipalityId":"obergoms-6076"},"geometry":{"type":"Polygon","coordinates":[[[8.42236,46.62726],[8.41614,46.60682],[8.40799,46.60118],[8.41031,46.59637],[8.40614,46.58596],[8.40996,46.57747],[8.41703,46.57109],[8.41963,46.56357],[8.42326,46.56015],[8.42632,46.54732],[8.42926,46.5433],[8.4461,46.53657],[8.45816,46.53355],[8.46554,46.53548],[8.47852,46.52558],[8.47282,46.52323],[8.45867,46.51006],[8.4517,46.50779],[8.44307,46.49538],[8.43167,46.49697],[8.41968,46.49261],[8.41442,46.49473],[8.40142,46.49244],[8.39238,46.49464],[8.39429,46.4837],[8.38599,46.47567],[8.39247,46.46796],[8.38546,46.46556],[8.38574,46.46181],[8.38233,46.45991],[8.38472,46.45215],[8.36694,46.45192],[8.35576,46.44696],[8.35246,46.44164],[8.32544,46.42571],[8.30965,46.42427],[8.30536,46.42863],[8.31173,46.43421],[8.3096,46.43931],[8.32367,46.44804],[8.31731,46.4572],[8.31812,46.46433],[8.31572,46.46612],[8.32598,46.47294],[8.3338,46.47204],[8.33576,46.47445],[8.35377,46.47856],[8.35569,46.48144],[8.34831,46.48429],[8.35056,46.48569],[8.34706,46.48684],[8.33989,46.49798],[8.32969,46.49574],[8.31854,46.49743],[8.31118,46.49578],[8.30598,46.50289],[8.29376,46.4979],[8.29206,46.50491],[8.26808,46.51884],[8.26582,46.52272],[8.25939,46.52577],[8.25806,46.5294],[8.26298,46.53347],[8.27959,46.53609],[8.28738,46.54308],[8.30446,46.54627],[8.31272,46.5525],[8.31663,46.55902],[8.33661,46.56111],[8.35064,46.56835],[8.35152,46.57173],[8.36468,46.58247],[8.3606,46.58629],[8.36346,46.59248],[8.36138,46.59804],[8.3619,46.60178],[8.37052,46.61393],[8.37096,46.61886],[8.36851,46.62393],[8.37142,46.6341],[8.38015,46.63415],[8.39475,46.64605],[8.39898,46.65404],[8.41823,46.65219],[8.42199,46.64787],[8.41881,46.63591],[8.42105,46.6278],[8.42236,46.62726]]]}},{"type":"Feature","properties":{"name":"Orsières","cantonId":"valais","municipalityId":"orsieres-6034"},"geometry":{"type":"Polygon","coordinates":[[[7.04029,46.02298],[7.05151,46.02537],[7.06287,46.0309],[7.06755,46.03778],[7.08336,46.04628],[7.08485,46.05262],[7.10078,46.06039],[7.10607,46.05971],[7.111,46.05606],[7.11223,46.05192],[7.12531,46.05599],[7.1278,46.05725],[7.12678,46.05898],[7.13364,46.05787],[7.14792,46.06],[7.15498,46.05704],[7.18353,46.05282],[7.18918,46.04229],[7.19896,46.03428],[7.20076,46.01782],[7.16843,46.02161],[7.15878,46.0174],[7.1452,46.00646],[7.14938,45.99693],[7.14457,45.97311],[7.13905,45.96125],[7.14236,45.95835],[7.13891,45.955],[7.13993,45.95198],[7.135,45.94894],[7.13414,45.94003],[7.13144,45.93523],[7.12339,45.92673],[7.12936,45.91545],[7.13758,45.91397],[7.14011,45.91091],[7.14015,45.90687],[7.14582,45.8982],[7.14589,45.89356],[7.1532,45.87866],[7.13518,45.87268],[7.13226,45.86744],[7.11843,45.85944],[7.10112,45.85928],[7.09206,45.87207],[7.09541,45.87587],[7.08007,45.88514],[7.07641,45.8903],[7.07659,45.89519],[7.06418,45.90008],[7.06446,45.90928],[7.06055,45.91339],[7.05307,45.91561],[7.04371,45.92316],[7.04264,45.92968],[7.03571,45.93831],[7.03855,45.94557],[7.03742,45.95488],[7.01741,45.96043],[7.00847,45.96903],[7.01013,45.97323],[7.02259,45.97722],[7.0223,45.98058],[7.02479,45.9827],[7.03274,45.98238],[7.04519,45.98707],[7.03829,45.99445],[7.0444,45.99805],[7.0447,46.001],[7.03493,46.00706],[7.03565,46.01148],[7.04005,46.01553],[7.04018,46.02291],[7.04029,46.02298]]]}},{"type":"Feature","properties":{"name":"Port-Valais","cantonId":"valais","municipalityId":"port-valais-6154"},"geometry":{"type":"Polygon","coordinates":[[[6.85473,46.39828],[6.87405,46.38219],[6.88477,46.37607],[6.88693,46.36685],[6.88545,46.36176],[6.88181,46.3562],[6.86161,46.34926],[6.83283,46.35108],[6.82167,46.35772],[6.82897,46.36345],[6.83636,46.36441],[6.84137,46.37808],[6.84031,46.38036],[6.84818,46.38816],[6.85473,46.39828]]]}},{"type":"Feature","properties":{"name":"Randa","cantonId":"valais","municipalityId":"randa-6287"},"geometry":{"type":"Polygon","coordinates":[[[7.8572,46.08343],[7.82166,46.07318],[7.8104,46.07462],[7.79812,46.08368],[7.79102,46.08208],[7.77838,46.08466],[7.77778,46.08073],[7.7585,46.08013],[7.74471,46.07589],[7.73079,46.07557],[7.72315,46.07296],[7.71529,46.06673],[7.70065,46.06726],[7.69011,46.06481],[7.69099,46.07046],[7.69996,46.07755],[7.70509,46.08454],[7.70638,46.09082],[7.71604,46.10115],[7.71173,46.10711],[7.71161,46.11387],[7.71804,46.11873],[7.74156,46.1211],[7.7466,46.12599],[7.76592,46.11923],[7.78125,46.12268],[7.78747,46.12121],[7.78529,46.11665],[7.79716,46.11623],[7.80542,46.11232],[7.82482,46.11759],[7.84221,46.11723],[7.84827,46.11964],[7.85393,46.11247],[7.86392,46.10953],[7.86863,46.10453],[7.86613,46.09895],[7.85886,46.09392],[7.85771,46.08411],[7.8572,46.08343]]]}},{"type":"Feature","properties":{"name":"Raron","cantonId":"valais","municipalityId":"raron-6199"},"geometry":{"type":"Polygon","coordinates":[[[7.79329,46.30172],[7.79089,46.30648],[7.79519,46.32013],[7.81081,46.33891],[7.81565,46.34787],[7.81464,46.35161],[7.81801,46.36529],[7.8106,46.37863],[7.81388,46.38341],[7.82085,46.38483],[7.82969,46.39078],[7.83449,46.38912],[7.85006,46.39261],[7.85697,46.38718],[7.85939,46.37324],[7.85309,46.35916],[7.85618,46.35497],[7.84517,46.34264],[7.84624,46.3395],[7.82737,46.32824],[7.81893,46.32014],[7.82103,46.31392],[7.84228,46.30718],[7.83557,46.29142],[7.83004,46.29128],[7.83628,46.28674],[7.83163,46.28627],[7.83162,46.28787],[7.81424,46.29162],[7.81071,46.29419],[7.81316,46.29891],[7.79344,46.30176],[7.79329,46.30172]]]}},{"type":"Feature","properties":{"name":"Riddes","cantonId":"valais","municipalityId":"riddes-6139"},"geometry":{"type":"Polygon","coordinates":[[[7.22353,46.17848],[7.2302,46.17698],[7.23603,46.18123],[7.25109,46.18258],[7.24472,46.17454],[7.23013,46.16813],[7.23897,46.16266],[7.23929,46.15863],[7.24779,46.15425],[7.25984,46.1345],[7.26737,46.12642],[7.27252,46.12405],[7.27337,46.11904],[7.2789,46.11092],[7.2785,46.10324],[7.28055,46.09944],[7.27912,46.09687],[7.2678,46.09951],[7.26406,46.10616],[7.24967,46.11352],[7.24517,46.11881],[7.22392,46.12337],[7.22618,46.12969],[7.22084,46.1305],[7.22255,46.1344],[7.21935,46.13692],[7.21314,46.15051],[7.19639,46.16263],[7.20077,46.17364],[7.20408,46.17632],[7.2232,46.17846],[7.22353,46.17848]]]}},{"type":"Feature","properties":{"name":"Ried-Brig","cantonId":"valais","municipalityId":"ried-brig-6008"},"geometry":{"type":"Polygon","coordinates":[[[8.08506,46.24365],[8.0664,46.24122],[8.06122,46.24256],[8.05296,46.24974],[8.03686,46.25835],[8.0249,46.28742],[8.01661,46.29162],[8.00807,46.30158],[8.0046,46.30246],[8.00534,46.30636],[8.00159,46.30811],[8.00361,46.31017],[8.00216,46.31318],[8.00766,46.31626],[8.00117,46.31755],[8.00483,46.32088],[8.02496,46.323],[8.03729,46.32134],[8.04958,46.32502],[8.04867,46.3193],[8.04961,46.31768],[8.05198,46.31934],[8.05463,46.31462],[8.05145,46.31153],[8.04565,46.31031],[8.03827,46.30242],[8.05705,46.30469],[8.06122,46.30227],[8.06715,46.30285],[8.07255,46.30692],[8.07407,46.30065],[8.08427,46.29986],[8.10242,46.30693],[8.10104,46.31255],[8.107,46.31543],[8.12983,46.31124],[8.13089,46.30684],[8.14055,46.30298],[8.12885,46.29475],[8.12086,46.29187],[8.11356,46.28114],[8.10545,46.27964],[8.1005,46.2737],[8.08593,46.26661],[8.08606,46.26211],[8.08041,46.26062],[8.08212,46.25695],[8.08712,46.25392],[8.09881,46.25318],[8.10206,46.25074],[8.08568,46.2439],[8.08506,46.24365]]]}},{"type":"Feature","properties":{"name":"Riederalp","cantonId":"valais","municipalityId":"riederalp-6181"},"geometry":{"type":"Polygon","coordinates":[[[8.02613,46.34239],[8.01644,46.34944],[8.01122,46.36127],[8.01354,46.36896],[8.00744,46.36804],[8.00826,46.37641],[8.00328,46.37364],[8.00194,46.37924],[8.01279,46.39222],[8.0543,46.41218],[8.06462,46.40276],[8.05932,46.4001],[8.05039,46.37801],[8.05705,46.37009],[8.04983,46.36774],[8.05167,46.36558],[8.04784,46.36625],[8.04136,46.35907],[8.03699,46.36114],[8.04102,46.35769],[8.02632,46.34324],[8.02613,46.34239]]]}},{"type":"Feature","properties":{"name":"Saas-Almagell","cantonId":"valais","municipalityId":"saas-almagell-6288"},"geometry":{"type":"Polygon","coordinates":[[[7.89459,46.04607],[7.8967,46.0506],[7.90936,46.06197],[7.92177,46.06438],[7.92834,46.0711],[7.93175,46.07899],[7.94524,46.08948],[7.93894,46.09574],[7.93941,46.09899],[7.94537,46.10236],[7.93934,46.10811],[7.97191,46.11196],[7.98581,46.11923],[8.01192,46.12772],[8.01605,46.12574],[8.01866,46.11562],[8.03476,46.10083],[8.0339,46.09525],[8.02958,46.0896],[8.0291,46.08092],[8.02253,46.0747],[8.02166,46.06936],[8.02456,46.06754],[8.02387,46.06298],[8.03541,46.04404],[8.02205,46.03896],[8.01237,46.03172],[8.0175,46.0247],[8.01076,46.01885],[8.01324,46.01586],[8.01241,46.01197],[8.00108,46.01221],[7.99393,45.99987],[7.98908,45.99593],[7.97711,45.99945],[7.95733,45.99607],[7.9443,45.9976],[7.91898,45.99589],[7.90867,45.99693],[7.90605,46.00132],[7.90473,46.01271],[7.89091,46.01514],[7.88368,46.02176],[7.88578,46.03691],[7.89407,46.0451],[7.89459,46.04607]]]}},{"type":"Feature","properties":{"name":"Saas-Balen","cantonId":"valais","municipalityId":"saas-balen-6289"},"geometry":{"type":"Polygon","coordinates":[[[7.88026,46.13514],[7.88781,46.1435],[7.88764,46.14717],[7.8942,46.15235],[7.92322,46.16039],[7.91424,46.16836],[7.92152,46.16978],[7.92893,46.17564],[7.94945,46.17729],[7.95481,46.17483],[7.97929,46.18192],[7.99436,46.1798],[7.99588,46.1726],[8.00251,46.1671],[7.99757,46.16414],[7.98259,46.16188],[7.97026,46.15145],[7.94362,46.14431],[7.93567,46.14446],[7.93138,46.13773],[7.93431,46.13412],[7.93195,46.13329],[7.93534,46.1242],[7.91012,46.11812],[7.90459,46.12234],[7.89371,46.12524],[7.87956,46.12071],[7.88044,46.13502],[7.88026,46.13514]]]}},{"type":"Feature","properties":{"name":"Saas-Fee","cantonId":"valais","municipalityId":"saas-fee-6290"},"geometry":{"type":"Polygon","coordinates":[[[7.89459,46.04607],[7.87719,46.04932],[7.87449,46.05096],[7.87457,46.05404],[7.86382,46.06297],[7.8666,46.07329],[7.85982,46.07827],[7.8572,46.08343],[7.85946,46.08712],[7.85886,46.09392],[7.86742,46.10078],[7.86863,46.10453],[7.864,46.10902],[7.86493,46.11041],[7.88187,46.12201],[7.8938,46.12523],[7.90459,46.12234],[7.91012,46.11812],[7.93556,46.12395],[7.93925,46.10806],[7.94537,46.10236],[7.93941,46.09899],[7.93894,46.09574],[7.94524,46.08948],[7.93175,46.07899],[7.92834,46.0711],[7.92177,46.06438],[7.90936,46.06197],[7.89546,46.04865],[7.89459,46.04607]]]}},{"type":"Feature","properties":{"name":"Saas-Grund","cantonId":"valais","municipalityId":"saas-grund-6291"},"geometry":{"type":"Polygon","coordinates":[[[7.93934,46.10811],[7.93865,46.1164],[7.93195,46.13329],[7.93431,46.13412],[7.93138,46.13773],[7.93567,46.14446],[7.94362,46.14431],[7.97026,46.15145],[7.98259,46.16188],[7.99833,46.16436],[8.00368,46.16835],[8.01084,46.16782],[8.00458,46.16341],[8.00284,46.15769],[8.00561,46.15298],[8.00725,46.13997],[8.01235,46.13431],[8.01199,46.12764],[7.98581,46.11923],[7.97191,46.11196],[7.93944,46.10816],[7.93934,46.10811]]]}},{"type":"Feature","properties":{"name":"Saillon","cantonId":"valais","municipalityId":"saillon-6140"},"geometry":{"type":"MultiPolygon","coordinates":[[[[7.14723,46.1774],[7.15638,46.17665],[7.17143,46.18244],[7.18991,46.18346],[7.19819,46.18314],[7.20513,46.17686],[7.20067,46.17345],[7.19639,46.16263],[7.19815,46.16159],[7.18767,46.15659],[7.18378,46.15901],[7.16602,46.15537],[7.15098,46.17104],[7.14723,46.1774]]],[[[7.09461,46.19774],[7.1319,46.19808],[7.14195,46.19344],[7.14469,46.18269],[7.12583,46.18324],[7.10122,46.18941],[7.09482,46.19756],[7.09461,46.19774]]]]}},{"type":"Feature","properties":{"name":"Saint-Gingolph","cantonId":"valais","municipalityId":"saint-gingolph-6155"},"geometry":{"type":"Polygon","coordinates":[[[6.85473,46.39828],[6.84753,46.38577],[6.84031,46.38036],[6.84137,46.37808],[6.83636,46.36441],[6.82897,46.36345],[6.82167,46.35772],[6.81357,46.36016],[6.81162,46.35671],[6.81627,46.35312],[6.80214,46.35359],[6.79651,46.34896],[6.7747,46.34712],[6.77057,46.35545],[6.77143,46.36111],[6.78049,46.36653],[6.79273,46.36761],[6.80553,46.37852],[6.8065,46.38296],[6.80185,46.38584],[6.80192,46.3889],[6.82106,46.42716],[6.85479,46.39836],[6.85473,46.39828]]]}},{"type":"Feature","properties":{"name":"Saint-Léonard","cantonId":"valais","municipalityId":"saint-leonard-6246"},"geometry":{"type":"Polygon","coordinates":[[[7.44386,46.26259],[7.44762,46.25832],[7.42239,46.24172],[7.41624,46.25471],[7.4111,46.25884],[7.41346,46.2618],[7.41991,46.26788],[7.42727,46.27064],[7.42771,46.26186],[7.43534,46.2592],[7.44364,46.26254],[7.44386,46.26259]]]}},{"type":"Feature","properties":{"name":"Saint-Martin (VS)","cantonId":"valais","municipalityId":"saint-martin-vs-6087"},"geometry":{"type":"Polygon","coordinates":[[[7.42752,46.11502],[7.4254,46.11946],[7.42847,46.12907],[7.42644,46.13556],[7.42055,46.14022],[7.41888,46.15288],[7.41981,46.15759],[7.42587,46.16503],[7.43327,46.16942],[7.41892,46.18025],[7.41397,46.19022],[7.4295,46.18786],[7.44166,46.19179],[7.45142,46.19204],[7.48862,46.17878],[7.4936,46.16874],[7.50251,46.16233],[7.51068,46.16289],[7.51585,46.16622],[7.5187,46.1589],[7.52074,46.15855],[7.51726,46.15182],[7.5218,46.14636],[7.50949,46.14147],[7.49697,46.14],[7.48262,46.14177],[7.47372,46.13489],[7.46875,46.14558],[7.47166,46.14702],[7.46075,46.14524],[7.45714,46.1401],[7.45253,46.13839],[7.44877,46.13199],[7.45014,46.12875],[7.44577,46.12272],[7.4363,46.12094],[7.42761,46.11508],[7.42752,46.11502]]]}},{"type":"Feature","properties":{"name":"Saint-Maurice","cantonId":"valais","municipalityId":"saint-maurice-6217"},"geometry":{"type":"Polygon","coordinates":[[[6.94563,46.17213],[6.95795,46.17257],[6.95582,46.17456],[6.9606,46.17935],[6.96916,46.18202],[6.9734,46.18719],[6.98365,46.19099],[6.98485,46.20156],[6.99524,46.20754],[6.99723,46.21617],[7.00289,46.22073],[6.99992,46.2253],[7.00251,46.22553],[7.00789,46.22069],[7.01191,46.20543],[7.02516,46.19752],[7.03465,46.18366],[7.01102,46.18346],[7.00664,46.18035],[6.98949,46.17677],[6.98879,46.17418],[6.97399,46.167],[6.95833,46.16737],[6.9454,46.17088],[6.94563,46.17213]]]}},{"type":"Feature","properties":{"name":"Salgesch","cantonId":"valais","municipalityId":"salgesch-6113"},"geometry":{"type":"Polygon","coordinates":[[[7.5884,46.27743],[7.5806,46.2759],[7.57348,46.29164],[7.56849,46.29124],[7.56647,46.29656],[7.56046,46.29573],[7.56109,46.306],[7.55866,46.3074],[7.55993,46.31285],[7.55605,46.31958],[7.55759,46.32082],[7.5501,46.32478],[7.5575,46.32399],[7.5609,46.32907],[7.57067,46.33073],[7.57033,46.33487],[7.575,46.34017],[7.58531,46.34103],[7.59405,46.33343],[7.58376,46.31771],[7.58691,46.31188],[7.58145,46.30337],[7.58125,46.29596],[7.58612,46.28479],[7.5884,46.27743]]]}},{"type":"Feature","properties":{"name":"Salvan","cantonId":"valais","municipalityId":"salvan-6218"},"geometry":{"type":"Polygon","coordinates":[[[6.89992,46.12388],[6.92452,46.12686],[6.95777,46.11925],[6.96996,46.12083],[6.98293,46.13099],[6.97786,46.13686],[6.98088,46.14063],[6.97995,46.14934],[7.00799,46.15304],[7.01246,46.14706],[7.02712,46.14133],[7.02371,46.13738],[7.02464,46.13399],[7.03001,46.13409],[7.03851,46.12748],[7.03359,46.11913],[7.02998,46.11883],[7.02414,46.11374],[7.03169,46.10903],[7.02033,46.10366],[7.01923,46.10073],[7.01639,46.10296],[7.00241,46.0942],[6.99993,46.09502],[6.99234,46.08398],[6.99087,46.08362],[6.9926,46.08974],[6.99078,46.09401],[6.97361,46.10142],[6.96431,46.09822],[6.97114,46.09317],[6.96239,46.08765],[6.96387,46.08374],[6.96151,46.08163],[6.94263,46.08426],[6.92538,46.08039],[6.9191,46.07556],[6.91286,46.07929],[6.90034,46.07069],[6.89178,46.07374],[6.88812,46.0791],[6.89187,46.08513],[6.8822,46.09517],[6.89513,46.10815],[6.89311,46.11362],[6.89964,46.12372],[6.89992,46.12388]]]}},{"type":"Feature","properties":{"name":"Savièse","cantonId":"valais","municipalityId":"saviese-6265"},"geometry":{"type":"Polygon","coordinates":[[[7.20072,46.31302],[7.22148,46.32925],[7.23242,46.32647],[7.25348,46.33067],[7.26271,46.33865],[7.26017,46.3444],[7.26246,46.3496],[7.26017,46.35442],[7.2623,46.35824],[7.29051,46.36714],[7.29905,46.36645],[7.31028,46.37516],[7.31276,46.37088],[7.31254,46.36321],[7.30822,46.35877],[7.30999,46.35567],[7.30783,46.35209],[7.31522,46.34385],[7.33805,46.34696],[7.35894,46.35312],[7.36153,46.34844],[7.35772,46.34311],[7.35907,46.34027],[7.35629,46.33136],[7.35787,46.32704],[7.35525,46.32231],[7.35801,46.31945],[7.35022,46.29575],[7.35843,46.28146],[7.36802,46.27611],[7.37189,46.25965],[7.36375,46.24489],[7.35922,46.24535],[7.34981,46.23862],[7.33603,46.23468],[7.32303,46.23665],[7.31283,46.23299],[7.30984,46.23573],[7.31176,46.24086],[7.30836,46.2439],[7.31071,46.24553],[7.3119,46.25269],[7.3166,46.25627],[7.32216,46.2717],[7.3302,46.28005],[7.3287,46.2898],[7.33059,46.29424],[7.32627,46.29939],[7.31722,46.30143],[7.30209,46.31173],[7.29271,46.31032],[7.27389,46.31277],[7.22468,46.30945],[7.22193,46.31288],[7.21384,46.31639],[7.20382,46.31397],[7.20072,46.31302]]]}},{"type":"Feature","properties":{"name":"Saxon","cantonId":"valais","municipalityId":"saxon-6141"},"geometry":{"type":"Polygon","coordinates":[[[7.22392,46.12337],[7.21198,46.12237],[7.20912,46.11916],[7.19998,46.11815],[7.19615,46.11395],[7.19026,46.11537],[7.17239,46.11355],[7.16526,46.11637],[7.15073,46.11407],[7.15724,46.12477],[7.14224,46.14042],[7.15196,46.14664],[7.15015,46.14828],[7.16489,46.15496],[7.18378,46.15901],[7.18767,46.15659],[7.19815,46.16159],[7.21314,46.15051],[7.21935,46.13692],[7.22255,46.1344],[7.22084,46.1305],[7.22618,46.12969],[7.224,46.12391],[7.22392,46.12337]]]}},{"type":"Feature","properties":{"name":"Sembrancher","cantonId":"valais","municipalityId":"sembrancher-6035"},"geometry":{"type":"Polygon","coordinates":[[[7.18353,46.05282],[7.15498,46.05704],[7.14792,46.06],[7.13364,46.05787],[7.12678,46.05898],[7.1278,46.05725],[7.12531,46.05599],[7.11223,46.05192],[7.111,46.05606],[7.10607,46.05971],[7.10794,46.06197],[7.10384,46.0822],[7.10961,46.0879],[7.11474,46.08811],[7.12476,46.08331],[7.12475,46.07799],[7.14017,46.08009],[7.16012,46.07812],[7.18047,46.0798],[7.18846,46.0859],[7.19298,46.07474],[7.18185,46.06041],[7.18457,46.05498],[7.18359,46.05301],[7.18353,46.05282]]]}},{"type":"Feature","properties":{"name":"Sierre","cantonId":"valais","municipalityId":"sierre-6248"},"geometry":{"type":"Polygon","coordinates":[[[7.44386,46.26259],[7.45959,46.26912],[7.46491,46.26925],[7.4725,46.27399],[7.47231,46.27222],[7.47723,46.27249],[7.49593,46.27764],[7.51574,46.28607],[7.52006,46.29561],[7.52615,46.2988],[7.53915,46.29858],[7.54218,46.30241],[7.54277,46.29959],[7.54918,46.29972],[7.55913,46.30707],[7.56109,46.306],[7.56046,46.29573],[7.56647,46.29656],[7.56849,46.29124],[7.57348,46.29164],[7.5806,46.2759],[7.56456,46.27364],[7.55017,46.28438],[7.53974,46.28222],[7.50871,46.2677],[7.4447,46.25232],[7.43602,46.24712],[7.42847,46.24568],[7.44762,46.25832],[7.44384,46.26253],[7.44386,46.26259]]]}},{"type":"Feature","properties":{"name":"Simplon","cantonId":"valais","municipalityId":"simplon-6009"},"geometry":{"type":"Polygon","coordinates":[[[8.08506,46.24365],[8.08398,46.23668],[8.081,46.23383],[8.09114,46.22743],[8.09548,46.21599],[8.10687,46.21183],[8.10864,46.20573],[8.10736,46.2034],[8.11551,46.1969],[8.09216,46.18588],[8.08383,46.18625],[8.07421,46.18352],[8.07248,46.17305],[8.06548,46.16455],[8.05279,46.15441],[8.03684,46.14701],[8.03507,46.14155],[8.03872,46.13163],[8.03811,46.12441],[8.02826,46.12042],[8.02271,46.12126],[8.01146,46.12844],[8.01235,46.13431],[8.00725,46.13997],[8.00561,46.15298],[8.00284,46.15769],[8.00458,46.16341],[8.01082,46.1664],[8.01058,46.16827],[8.00322,46.16804],[7.99588,46.1726],[7.99615,46.18362],[7.99024,46.19571],[7.99521,46.20187],[7.98992,46.20378],[7.98296,46.21115],[7.98359,46.2216],[7.98077,46.22539],[7.9798,46.24212],[7.98465,46.24876],[7.98162,46.25772],[7.98328,46.26074],[7.98788,46.25954],[7.99276,46.25466],[8.00441,46.25712],[8.0069,46.25977],[8.01677,46.26052],[8.02331,46.26429],[8.03117,46.27428],[8.03686,46.25835],[8.05296,46.24974],[8.06122,46.24256],[8.0664,46.24122],[8.08435,46.24368],[8.08506,46.24365]]]}},{"type":"Feature","properties":{"name":"Sion","cantonId":"valais","municipalityId":"sion-6266"},"geometry":{"type":"Polygon","coordinates":[[[7.36794,46.17804],[7.35445,46.19107],[7.34519,46.19476],[7.34255,46.20384],[7.33709,46.21122],[7.31804,46.20473],[7.30581,46.2161],[7.30615,46.21978],[7.31299,46.22483],[7.31187,46.23293],[7.32315,46.23666],[7.33623,46.23471],[7.35193,46.23947],[7.36027,46.24574],[7.36435,46.24352],[7.37491,46.2447],[7.38569,46.24975],[7.40009,46.25108],[7.41102,46.25585],[7.41624,46.25471],[7.42526,46.23857],[7.40882,46.22262],[7.4058,46.22647],[7.40332,46.22405],[7.37911,46.21673],[7.38058,46.20332],[7.37586,46.18891],[7.3682,46.17805],[7.36794,46.17804]]]}},{"type":"Feature","properties":{"name":"St. Niklaus","cantonId":"valais","municipalityId":"st-niklaus-6292"},"geometry":{"type":"Polygon","coordinates":[[[7.82606,46.20593],[7.81783,46.19856],[7.82225,46.19667],[7.82034,46.19326],[7.82793,46.18959],[7.82719,46.18557],[7.83145,46.18508],[7.83979,46.17817],[7.85966,46.17342],[7.85856,46.17103],[7.8613,46.16636],[7.85862,46.15561],[7.86252,46.15079],[7.86724,46.15003],[7.87514,46.1413],[7.87501,46.13881],[7.88104,46.13409],[7.8788,46.12946],[7.8802,46.12267],[7.87672,46.11763],[7.864,46.10902],[7.85393,46.11247],[7.84811,46.11967],[7.84221,46.11723],[7.82482,46.11759],[7.80418,46.1124],[7.79716,46.11623],[7.78529,46.11665],[7.78747,46.12121],[7.78125,46.12268],[7.76592,46.11923],[7.74526,46.12629],[7.73659,46.13363],[7.73833,46.13943],[7.73286,46.1422],[7.7372,46.14971],[7.73387,46.15573],[7.73565,46.15661],[7.73475,46.16068],[7.73959,46.1668],[7.73694,46.17012],[7.73987,46.17215],[7.73929,46.17392],[7.73222,46.17897],[7.7353,46.18374],[7.73693,46.19694],[7.74839,46.19893],[7.75489,46.20476],[7.76962,46.20126],[7.79107,46.20449],[7.79245,46.20841],[7.79078,46.21185],[7.79747,46.21263],[7.80976,46.21346],[7.82573,46.20617],[7.82606,46.20593]]]}},{"type":"Feature","properties":{"name":"Stalden (VS)","cantonId":"valais","municipalityId":"stalden-vs-6293"},"geometry":{"type":"Polygon","coordinates":[[[7.86227,46.25749],[7.87917,46.25766],[7.87708,46.25229],[7.88345,46.25224],[7.8871,46.24582],[7.89918,46.24478],[7.89967,46.24201],[7.90883,46.23953],[7.90864,46.2373],[7.91218,46.23726],[7.91241,46.23454],[7.91639,46.23426],[7.91756,46.23022],[7.91369,46.22952],[7.90194,46.23574],[7.89944,46.23192],[7.89382,46.23106],[7.87334,46.2363],[7.87232,46.23082],[7.88265,46.21591],[7.87722,46.21267],[7.87737,46.2064],[7.86862,46.20892],[7.86132,46.21493],[7.84753,46.22014],[7.85568,46.22416],[7.85123,46.22667],[7.8603,46.23015],[7.868,46.23731],[7.86517,46.24265],[7.86553,46.25182],[7.86265,46.25562],[7.86227,46.25749]]]}},{"type":"Feature","properties":{"name":"Staldenried","cantonId":"valais","municipalityId":"staldenried-6294"},"geometry":{"type":"Polygon","coordinates":[[[7.91639,46.23426],[7.93935,46.22415],[7.94094,46.22061],[7.93492,46.21487],[7.93858,46.2116],[7.93688,46.2023],[7.94223,46.19928],[7.93491,46.19693],[7.92265,46.19696],[7.9164,46.20128],[7.89127,46.2092],[7.88249,46.21603],[7.87232,46.23082],[7.87256,46.23542],[7.89382,46.23106],[7.89944,46.23192],[7.90194,46.23574],[7.91654,46.22906],[7.91623,46.23385],[7.91639,46.23426]]]}},{"type":"Feature","properties":{"name":"Steg-Hohtenn","cantonId":"valais","municipalityId":"steg-hohtenn-6204"},"geometry":{"type":"Polygon","coordinates":[[[7.74468,46.30592],[7.74298,46.30633],[7.74508,46.31141],[7.74392,46.32122],[7.75138,46.33085],[7.75105,46.33737],[7.75814,46.35633],[7.75674,46.36194],[7.77843,46.3643],[7.78727,46.36032],[7.78315,46.34359],[7.78438,46.33245],[7.76924,46.31645],[7.77008,46.31193],[7.77296,46.31185],[7.7729,46.30718],[7.75639,46.3091],[7.75041,46.30538],[7.74466,46.30567],[7.74468,46.30592]]]}},{"type":"Feature","properties":{"name":"Täsch","cantonId":"valais","municipalityId":"taesch-6295"},"geometry":{"type":"Polygon","coordinates":[[[7.89459,46.04607],[7.88578,46.03691],[7.88371,46.02191],[7.84495,46.01542],[7.82732,46.02392],[7.81385,46.02595],[7.80373,46.03519],[7.8026,46.0428],[7.79371,46.04798],[7.77926,46.04456],[7.76865,46.04923],[7.75334,46.05138],[7.74489,46.056],[7.72628,46.05319],[7.70801,46.0606],[7.70355,46.05764],[7.6975,46.05715],[7.69042,46.06346],[7.6917,46.06541],[7.71529,46.06673],[7.72628,46.07444],[7.74471,46.07589],[7.7585,46.08013],[7.77778,46.08073],[7.77838,46.08466],[7.79102,46.08208],[7.79812,46.08368],[7.8104,46.07462],[7.82166,46.07318],[7.8572,46.08343],[7.85982,46.07827],[7.8666,46.07329],[7.86382,46.06297],[7.86699,46.05901],[7.87457,46.05404],[7.87449,46.05096],[7.87719,46.04932],[7.89093,46.04612],[7.89459,46.04607]]]}},{"type":"Feature","properties":{"name":"Termen","cantonId":"valais","municipalityId":"termen-6010"},"geometry":{"type":"Polygon","coordinates":[[[8.00267,46.32294],[8.01122,46.32685],[8.01562,46.33433],[8.02606,46.34012],[8.02659,46.34379],[8.02952,46.34556],[8.04327,46.33962],[8.0694,46.33534],[8.08284,46.32591],[8.09225,46.32881],[8.09659,46.32251],[8.095,46.32133],[8.10315,46.31411],[8.10102,46.31249],[8.10242,46.30693],[8.08306,46.29971],[8.07407,46.30065],[8.07255,46.30692],[8.0701,46.30362],[8.06212,46.3022],[8.05705,46.30469],[8.03751,46.30261],[8.0437,46.30648],[8.04565,46.31031],[8.05145,46.31153],[8.05463,46.31462],[8.05198,46.31934],[8.04961,46.31768],[8.04867,46.3193],[8.04894,46.32527],[8.03729,46.32134],[8.02496,46.323],[8.00156,46.31909],[8.004,46.32173],[8.00267,46.32294]]]}},{"type":"Feature","properties":{"name":"Törbel","cantonId":"valais","municipalityId":"toerbel-6296"},"geometry":{"type":"Polygon","coordinates":[[[7.86227,46.25749],[7.86553,46.25182],[7.86517,46.24265],[7.868,46.23731],[7.8603,46.23015],[7.85123,46.22667],[7.85568,46.22416],[7.84293,46.21758],[7.8308,46.22697],[7.8175,46.22754],[7.81464,46.23417],[7.7984,46.23312],[7.79304,46.2369],[7.79191,46.24311],[7.80293,46.24582],[7.81089,46.24489],[7.82433,46.25522],[7.82838,46.2561],[7.82975,46.259],[7.83656,46.26023],[7.84995,46.26739],[7.848,46.2712],[7.85205,46.27016],[7.853,46.26694],[7.85749,46.26463],[7.86104,46.25782],[7.86227,46.25749]]]}},{"type":"Feature","properties":{"name":"Trient","cantonId":"valais","municipalityId":"trient-6142"},"geometry":{"type":"Polygon","coordinates":[[[7.04029,46.02298],[7.04005,46.01553],[7.03565,46.01148],[7.03493,46.00706],[7.0447,46.001],[7.0444,45.99805],[7.03829,45.99445],[7.04519,45.98707],[7.03887,45.98376],[7.02747,45.98349],[7.0223,45.98058],[7.01571,45.98676],[7.01219,45.98726],[7.01064,45.99717],[7.00557,46.00119],[7.00056,45.99893],[6.98496,46.00461],[6.9813,46.01957],[6.971,46.02553],[6.96651,46.03115],[6.96287,46.03044],[6.95451,46.04168],[6.95141,46.04991],[6.9483,46.05119],[6.96329,46.06147],[6.96692,46.07167],[6.97534,46.07841],[6.99178,46.08371],[6.99195,46.08145],[6.99674,46.07844],[6.99196,46.07395],[6.98751,46.07471],[6.98519,46.07241],[7.00243,46.06743],[7.00174,46.05822],[7.0078,46.05419],[7.00494,46.04629],[7.01601,46.04744],[7.02025,46.0404],[7.02733,46.03646],[7.03964,46.02319],[7.04029,46.02298]]]}},{"type":"Feature","properties":{"name":"Troistorrents","cantonId":"valais","municipalityId":"troistorrents-6156"},"geometry":{"type":"Polygon","coordinates":[[[6.8208,46.22992],[6.82119,46.23232],[6.83326,46.23659],[6.83978,46.24822],[6.85403,46.25386],[6.85444,46.2593],[6.86294,46.2538],[6.87526,46.25908],[6.88465,46.25878],[6.89822,46.25161],[6.90526,46.25331],[6.90422,46.25543],[6.90811,46.25762],[6.91215,46.25714],[6.93994,46.24911],[6.94097,46.247],[6.93525,46.24284],[6.93703,46.2412],[6.93303,46.23692],[6.93661,46.23387],[6.93978,46.23439],[6.93627,46.22439],[6.93855,46.22005],[6.93625,46.21674],[6.93631,46.20926],[6.94395,46.20512],[6.94321,46.19876],[6.93134,46.20709],[6.90255,46.21897],[6.88726,46.21678],[6.85931,46.21677],[6.8493,46.2115],[6.84115,46.19997],[6.83606,46.20655],[6.82564,46.21193],[6.83595,46.22177],[6.8367,46.22437],[6.83176,46.22729],[6.83367,46.23032],[6.82093,46.22996],[6.8208,46.22992]]]}},{"type":"Feature","properties":{"name":"Turtmann-Unterems","cantonId":"valais","municipalityId":"turtmann-unterems-6119"},"geometry":{"type":"MultiPolygon","coordinates":[[[[7.70598,46.21299],[7.73351,46.20529],[7.75418,46.20437],[7.74839,46.19893],[7.73693,46.19694],[7.7353,46.18374],[7.73225,46.17944],[7.73993,46.17225],[7.73694,46.17012],[7.73922,46.16493],[7.7348,46.16079],[7.73565,46.15661],[7.73388,46.15587],[7.7372,46.14971],[7.73286,46.1422],[7.73833,46.13943],[7.73659,46.13363],[7.74577,46.12592],[7.74485,46.12398],[7.74156,46.1211],[7.71498,46.11793],[7.71082,46.11075],[7.70544,46.11893],[7.6862,46.13455],[7.68597,46.13942],[7.69115,46.15017],[7.6919,46.17304],[7.69355,46.18203],[7.69721,46.18792],[7.69736,46.19739],[7.70589,46.21289],[7.70598,46.21299]]],[[[7.74466,46.30567],[7.74384,46.2959],[7.74593,46.28681],[7.74379,46.28621],[7.7338,46.29889],[7.72938,46.30108],[7.69864,46.29421],[7.69845,46.28903],[7.70359,46.28232],[7.70478,46.27533],[7.70263,46.27557],[7.69641,46.28769],[7.67675,46.28816],[7.67906,46.28905],[7.67929,46.29824],[7.68489,46.30175],[7.6841,46.30698],[7.69695,46.30993],[7.71314,46.30896],[7.72019,46.31162],[7.73029,46.30745],[7.74468,46.30592],[7.74466,46.30567]]]]}},{"type":"Feature","properties":{"name":"Unterbäch","cantonId":"valais","municipalityId":"unterbaech-6201"},"geometry":{"type":"Polygon","coordinates":[[[7.79191,46.24311],[7.7941,46.23547],[7.78788,46.23386],[7.78628,46.22313],[7.77497,46.21926],[7.76442,46.2211],[7.75919,46.22336],[7.7546,46.22965],[7.74014,46.23322],[7.74047,46.23702],[7.74438,46.23785],[7.75109,46.24612],[7.74642,46.2555],[7.76281,46.26133],[7.77389,46.27308],[7.77863,46.27531],[7.79424,46.29123],[7.79221,46.29809],[7.79427,46.29981],[7.79329,46.30172],[7.79749,46.30232],[7.80191,46.29722],[7.80101,46.2935],[7.8047,46.29067],[7.80883,46.27678],[7.79914,46.26289],[7.79788,46.25489],[7.79339,46.25008],[7.79204,46.24333],[7.79191,46.24311]]]}},{"type":"Feature","properties":{"name":"Val de Bagnes","cantonId":"valais","municipalityId":"val-de-bagnes-6037"},"geometry":{"type":"Polygon","coordinates":[[[7.29442,45.92182],[7.30082,45.93488],[7.29914,45.9375],[7.27769,45.9373],[7.27743,45.94025],[7.26471,45.95007],[7.26205,45.96129],[7.27199,45.9668],[7.27095,45.97303],[7.26378,45.98199],[7.26501,45.98417],[7.24147,45.99204],[7.23184,46.00949],[7.20402,46.01416],[7.20121,46.01657],[7.19896,46.03428],[7.18975,46.04168],[7.18314,46.05067],[7.18457,46.05498],[7.18185,46.06041],[7.19298,46.07474],[7.18846,46.0859],[7.17988,46.07966],[7.16012,46.07812],[7.13877,46.08008],[7.12475,46.07799],[7.12476,46.08331],[7.11773,46.08774],[7.09282,46.08868],[7.13494,46.10158],[7.14264,46.10555],[7.15073,46.11407],[7.15766,46.11616],[7.16526,46.11637],[7.17239,46.11355],[7.19026,46.11537],[7.19615,46.11395],[7.19998,46.11815],[7.22217,46.12363],[7.24517,46.11881],[7.24967,46.11352],[7.26406,46.10616],[7.26851,46.09913],[7.2746,46.099],[7.28647,46.09406],[7.28838,46.08996],[7.30917,46.07862],[7.3188,46.08036],[7.32504,46.07525],[7.33138,46.07453],[7.3347,46.06545],[7.33913,46.06529],[7.34074,46.06245],[7.35392,46.06085],[7.35301,46.05277],[7.35561,46.04611],[7.36174,46.03989],[7.36856,46.038],[7.36599,46.03102],[7.3723,46.02491],[7.36914,46.01624],[7.37843,46.01102],[7.3875,46.01036],[7.39999,45.99452],[7.41252,45.98941],[7.41734,45.99314],[7.43142,45.99107],[7.43038,45.98824],[7.43324,45.98432],[7.44028,45.98733],[7.45233,45.9863],[7.45523,45.99145],[7.46909,45.98417],[7.47575,45.97036],[7.48162,45.96715],[7.4803,45.96365],[7.48726,45.95905],[7.48808,45.95577],[7.47727,45.95211],[7.47137,45.94719],[7.47471,45.93583],[7.46954,45.93379],[7.45871,45.93552],[7.4564,45.93241],[7.44436,45.9316],[7.43443,45.92026],[7.42712,45.91545],[7.41082,45.90864],[7.40174,45.91151],[7.39094,45.89933],[7.38464,45.89682],[7.36605,45.90414],[7.3612,45.9033],[7.35644,45.9072],[7.35645,45.91064],[7.34429,45.91524],[7.32389,45.91021],[7.31807,45.91164],[7.31628,45.91652],[7.3018,45.91715],[7.2945,45.92167],[7.29442,45.92182]]]}},{"type":"Feature","properties":{"name":"Val-d'Illiez","cantonId":"valais","municipalityId":"val-dilliez-6157"},"geometry":{"type":"Polygon","coordinates":[[[6.94563,46.17213],[6.93683,46.17032],[6.92167,46.15962],[6.91012,46.15516],[6.90062,46.1681],[6.89241,46.17163],[6.89081,46.17519],[6.87854,46.17745],[6.88803,46.18494],[6.88954,46.18863],[6.88503,46.19008],[6.85628,46.18636],[6.85685,46.18377],[6.85472,46.18208],[6.84285,46.17581],[6.835,46.17984],[6.82129,46.17857],[6.81569,46.18228],[6.81258,46.18155],[6.80697,46.19627],[6.81826,46.19888],[6.82316,46.19286],[6.83611,46.19572],[6.84319,46.20081],[6.8493,46.2115],[6.85931,46.21677],[6.90662,46.21829],[6.93134,46.20709],[6.94321,46.19876],[6.94025,46.19442],[6.94772,46.17926],[6.94805,46.17289],[6.94563,46.17224],[6.94563,46.17213]]]}},{"type":"Feature","properties":{"name":"Varen","cantonId":"valais","municipalityId":"varen-6116"},"geometry":{"type":"Polygon","coordinates":[[[7.57205,46.37011],[7.5827,46.36033],[7.58997,46.35701],[7.59238,46.35249],[7.59118,46.3497],[7.59399,46.34666],[7.60574,46.34259],[7.61965,46.32884],[7.62624,46.32608],[7.62214,46.31526],[7.6025,46.31351],[7.58478,46.30852],[7.58685,46.31365],[7.58426,46.31411],[7.58376,46.31771],[7.59405,46.33343],[7.58531,46.34103],[7.57575,46.33947],[7.57544,46.3422],[7.57064,46.34562],[7.57418,46.3487],[7.57301,46.35193],[7.5589,46.35528],[7.56124,46.36719],[7.57143,46.3699],[7.57205,46.37011]]]}},{"type":"Feature","properties":{"name":"Vernayaz","cantonId":"valais","municipalityId":"vernayaz-6219"},"geometry":{"type":"Polygon","coordinates":[[[7.03169,46.10903],[7.02414,46.11374],[7.02998,46.11883],[7.03359,46.11913],[7.03851,46.12748],[7.03001,46.13409],[7.02464,46.13399],[7.02371,46.13738],[7.02712,46.14133],[7.01246,46.14706],[7.00799,46.15304],[7.02785,46.15335],[7.03277,46.1555],[7.03469,46.1483],[7.05141,46.13815],[7.05008,46.13403],[7.04274,46.13044],[7.03807,46.1175],[7.03183,46.10924],[7.03169,46.10903]]]}},{"type":"Feature","properties":{"name":"Vérossaz","cantonId":"valais","municipalityId":"verossaz-6220"},"geometry":{"type":"Polygon","coordinates":[[[6.94321,46.19876],[6.94395,46.20512],[6.95192,46.2066],[6.96916,46.2218],[6.98136,46.22012],[6.99012,46.22479],[6.9988,46.22522],[7.00312,46.22144],[6.99723,46.21617],[6.99524,46.20754],[6.98485,46.20156],[6.98365,46.19099],[6.9734,46.18719],[6.96916,46.18202],[6.9606,46.17935],[6.95582,46.17456],[6.95795,46.17257],[6.94696,46.17343],[6.94772,46.17926],[6.94025,46.19442],[6.94316,46.19834],[6.94321,46.19876]]]}},{"type":"Feature","properties":{"name":"Vétroz","cantonId":"valais","municipalityId":"vetroz-6025"},"geometry":{"type":"Polygon","coordinates":[[[7.30195,46.20412],[7.28262,46.1992],[7.26866,46.2107],[7.25054,46.22103],[7.25373,46.23946],[7.24158,46.2609],[7.2239,46.25962],[7.21924,46.26185],[7.23174,46.26891],[7.23922,46.2697],[7.24458,46.26712],[7.24454,46.2588],[7.25883,46.24],[7.25694,46.22124],[7.27487,46.22857],[7.2799,46.23309],[7.28101,46.23092],[7.29124,46.23092],[7.29498,46.22842],[7.29394,46.22525],[7.29882,46.21843],[7.29234,46.21496],[7.29872,46.20782],[7.30195,46.20412]]]}},{"type":"Feature","properties":{"name":"Vex","cantonId":"valais","municipalityId":"vex-6089"},"geometry":{"type":"Polygon","coordinates":[[[7.36794,46.17804],[7.37586,46.18891],[7.38058,46.20332],[7.37911,46.21673],[7.40332,46.22405],[7.4058,46.22647],[7.40931,46.22159],[7.40788,46.21838],[7.41402,46.2141],[7.41516,46.20401],[7.41283,46.20062],[7.41424,46.19479],[7.41284,46.19115],[7.41465,46.18937],[7.40664,46.18715],[7.40489,46.19214],[7.39238,46.18901],[7.38991,46.18684],[7.38561,46.17271],[7.36725,46.15918],[7.36379,46.16022],[7.36803,46.16629],[7.3675,46.17435],[7.36794,46.17804]]]}},{"type":"Feature","properties":{"name":"Veysonnaz","cantonId":"valais","municipalityId":"veysonnaz-6267"},"geometry":{"type":"Polygon","coordinates":[[[7.34762,46.19342],[7.33983,46.19327],[7.33764,46.19137],[7.32922,46.19256],[7.33106,46.19753],[7.33566,46.19978],[7.33463,46.20209],[7.3418,46.20506],[7.34519,46.19476],[7.34738,46.19356],[7.34762,46.19342]]]}},{"type":"Feature","properties":{"name":"Vionnaz","cantonId":"valais","municipalityId":"vionnaz-6158"},"geometry":{"type":"Polygon","coordinates":[[[6.91054,46.31942],[6.91975,46.3069],[6.91535,46.30534],[6.91732,46.30235],[6.90798,46.29737],[6.89334,46.29773],[6.87337,46.28809],[6.85485,46.29252],[6.84691,46.29005],[6.8439,46.2943],[6.82884,46.30112],[6.83027,46.30613],[6.81983,46.31523],[6.85077,46.32249],[6.86258,46.32346],[6.88119,46.3211],[6.89301,46.32555],[6.90239,46.32179],[6.9083,46.32357],[6.90975,46.32071],[6.91054,46.31942]]]}},{"type":"Feature","properties":{"name":"Visp","cantonId":"valais","municipalityId":"visp-6297"},"geometry":{"type":"Polygon","coordinates":[[[7.83628,46.28674],[7.83004,46.29128],[7.83557,46.29142],[7.84078,46.30253],[7.8795,46.30219],[7.89967,46.29596],[7.92627,46.29819],[7.9252,46.2914],[7.93104,46.28345],[7.91412,46.27961],[7.89934,46.28746],[7.89944,46.28386],[7.89434,46.28179],[7.88118,46.28176],[7.88109,46.27091],[7.874,46.28545],[7.84763,46.28435],[7.83677,46.28681],[7.83628,46.28674]]]}},{"type":"Feature","properties":{"name":"Visperterminen","cantonId":"valais","municipalityId":"visperterminen-6298"},"geometry":{"type":"Polygon","coordinates":[[[7.87917,46.25766],[7.87761,46.26323],[7.88165,46.2733],[7.88118,46.28176],[7.89434,46.28179],[7.89944,46.28386],[7.89934,46.28746],[7.91412,46.27961],[7.9237,46.28084],[7.93443,46.28557],[7.94366,46.28413],[7.94594,46.28234],[7.94253,46.28067],[7.94311,46.27752],[7.95385,46.26143],[7.95483,46.26487],[7.95836,46.26477],[7.96136,46.2686],[7.97814,46.2642],[7.98172,46.26583],[7.98339,46.25977],[7.98178,46.25437],[7.98465,46.24876],[7.9798,46.24212],[7.97967,46.23599],[7.98077,46.22539],[7.98359,46.2216],[7.98296,46.21115],[7.98992,46.20378],[7.99521,46.20187],[7.99024,46.19571],[7.99413,46.18555],[7.96828,46.19465],[7.95997,46.1948],[7.95568,46.19876],[7.94277,46.19822],[7.93688,46.2023],[7.93858,46.2116],[7.93492,46.21487],[7.94094,46.22061],[7.93935,46.22415],[7.92408,46.23174],[7.91241,46.23454],[7.91218,46.23726],[7.89967,46.24201],[7.89918,46.24478],[7.8871,46.24582],[7.88354,46.2522],[7.87675,46.25258],[7.87928,46.25745],[7.87917,46.25766]]]}},{"type":"Feature","properties":{"name":"Vouvry","cantonId":"valais","municipalityId":"vouvry-6159"},"geometry":{"type":"Polygon","coordinates":[[[6.91054,46.31942],[6.9083,46.32357],[6.90239,46.32179],[6.89301,46.32555],[6.88119,46.3211],[6.86258,46.32346],[6.85077,46.32249],[6.81924,46.31553],[6.80703,46.32075],[6.80106,46.31964],[6.79638,46.33301],[6.78458,46.3326],[6.78451,46.33684],[6.77514,46.34715],[6.79651,46.34896],[6.80214,46.35359],[6.81404,46.35233],[6.81627,46.35312],[6.81162,46.35671],[6.81357,46.36016],[6.82559,46.35616],[6.83283,46.35108],[6.86161,46.34926],[6.88181,46.3562],[6.8827,46.3529],[6.89615,46.3404],[6.90243,46.33852],[6.91835,46.33927],[6.93022,46.32983],[6.93226,46.32444],[6.9107,46.31946],[6.91054,46.31942]]]}},{"type":"Feature","properties":{"name":"Wiler (Lötschen)","cantonId":"valais","municipalityId":"wiler-loetschen-6202"},"geometry":{"type":"Polygon","coordinates":[[[7.8106,46.37863],[7.8026,46.37688],[7.80126,46.38161],[7.79619,46.38185],[7.78717,46.38909],[7.78095,46.40058],[7.77834,46.3999],[7.76816,46.40883],[7.76475,46.41646],[7.74422,46.42841],[7.76596,46.43996],[7.77849,46.42883],[7.79145,46.42403],[7.78969,46.4176],[7.79434,46.41265],[7.81561,46.39768],[7.82969,46.39078],[7.82085,46.38483],[7.81388,46.38341],[7.81073,46.37879],[7.8106,46.37863]]]}},{"type":"Feature","properties":{"name":"Zeneggen","cantonId":"valais","municipalityId":"zeneggen-6299"},"geometry":{"type":"Polygon","coordinates":[[[7.86227,46.25749],[7.85205,46.27016],[7.848,46.2712],[7.84692,46.27481],[7.8383,46.27529],[7.83285,46.28282],[7.83567,46.28414],[7.83386,46.28614],[7.84192,46.2868],[7.84763,46.28435],[7.874,46.28545],[7.88109,46.27091],[7.87769,46.26381],[7.87917,46.25766],[7.8685,46.25695],[7.86227,46.25749]]]}},{"type":"Feature","properties":{"name":"Zermatt","cantonId":"valais","municipalityId":"zermatt-6300"},"geometry":{"type":"Polygon","coordinates":[[[7.69005,46.06433],[7.6975,46.05715],[7.70355,46.05764],[7.70801,46.0606],[7.72628,46.05319],[7.74489,46.056],[7.75334,46.05138],[7.76865,46.04923],[7.77926,46.04456],[7.79371,46.04798],[7.8026,46.0428],[7.80373,46.03519],[7.81385,46.02595],[7.82732,46.02392],[7.84495,46.01542],[7.88371,46.02191],[7.89091,46.01514],[7.90453,46.01287],[7.90646,46.00895],[7.90605,46.00132],[7.90867,45.997],[7.90482,45.99015],[7.89227,45.9775],[7.87742,45.97386],[7.88181,45.964],[7.87494,45.95807],[7.87889,45.95428],[7.87713,45.94904],[7.87037,45.94736],[7.8684,45.93671],[7.87705,45.92719],[7.87213,45.91978],[7.86633,45.91957],[7.86407,45.91675],[7.85849,45.92087],[7.83671,45.92172],[7.83144,45.92496],[7.82038,45.92696],[7.79951,45.91712],[7.79398,45.92],[7.79081,45.92494],[7.77655,45.93106],[7.76926,45.93711],[7.74774,45.941],[7.74582,45.93487],[7.73686,45.9283],[7.73509,45.92397],[7.72123,45.92363],[7.71267,45.92822],[7.71127,45.93291],[7.70731,45.93489],[7.70987,45.94809],[7.69881,45.9545],[7.68112,45.95693],[7.67831,45.95883],[7.67704,45.96508],[7.66427,45.97566],[7.65699,45.97656],[7.63953,45.97011],[7.61957,45.97237],[7.60953,45.96934],[7.58351,45.97232],[7.5786,45.98601],[7.57498,45.98743],[7.58726,45.99524],[7.58981,45.99913],[7.6019,46.00192],[7.60236,46.01101],[7.61193,46.03429],[7.62016,46.03537],[7.63057,46.02729],[7.64969,46.03276],[7.65216,46.0353],[7.67777,46.04152],[7.67722,46.04958],[7.68432,46.05498],[7.68548,46.06012],[7.6899,46.06423],[7.69005,46.06433]]]}},{"type":"Feature","properties":{"name":"Zwischbergen","cantonId":"valais","municipalityId":"zwischbergen-6011"},"geometry":{"type":"Polygon","coordinates":[[[8.08506,46.24365],[8.1007,46.24926],[8.11015,46.2495],[8.11152,46.24114],[8.11533,46.236],[8.12048,46.23603],[8.12732,46.22827],[8.13888,46.22614],[8.14352,46.21159],[8.15139,46.20282],[8.15329,46.1911],[8.16504,46.18287],[8.16532,46.177],[8.15858,46.17406],[8.1557,46.16798],[8.15073,46.16475],[8.14965,46.15721],[8.15311,46.15396],[8.1532,46.14847],[8.15534,46.14763],[8.15,46.14068],[8.14223,46.13604],[8.12519,46.13527],[8.11541,46.13034],[8.11381,46.11743],[8.10823,46.11162],[8.0818,46.10544],[8.06922,46.10599],[8.05472,46.10136],[8.03882,46.10001],[8.03476,46.10083],[8.01866,46.11562],[8.01605,46.12574],[8.02558,46.12055],[8.03769,46.12356],[8.03872,46.13163],[8.03572,46.13614],[8.03617,46.14595],[8.04217,46.15064],[8.05279,46.15441],[8.06548,46.16455],[8.07248,46.17305],[8.07421,46.18352],[8.08383,46.18625],[8.09216,46.18588],[8.11551,46.1969],[8.10736,46.2034],[8.10864,46.20573],[8.10687,46.21183],[8.09548,46.21599],[8.09114,46.22743],[8.081,46.23383],[8.08398,46.23668],[8.0857,46.24359],[8.08506,46.24365]]]}}]}
