{"type":"FeatureCollection","features":[{"type":"Feature","properties":{"name":"Baar","cantonId":"zug","municipalityId":"baar-1701"},"geometry":{"type":"Polygon","coordinates":[[[8.57437,47.21707],[8.57776,47.21501],[8.57614,47.21203],[8.56155,47.20388],[8.55783,47.19688],[8.5574,47.18647],[8.55442,47.1819],[8.56079,47.17391],[8.55913,47.16586],[8.56134,47.1604],[8.56027,47.15485],[8.56382,47.15382],[8.56139,47.15112],[8.55785,47.15133],[8.55536,47.15781],[8.55135,47.15627],[8.54151,47.15916],[8.53596,47.16494],[8.5363,47.16804],[8.53974,47.16906],[8.53908,47.17137],[8.5356,47.17466],[8.53056,47.17368],[8.52936,47.17629],[8.52336,47.1789],[8.5276,47.18333],[8.52527,47.18585],[8.51663,47.18206],[8.50721,47.18659],[8.50714,47.18845],[8.50056,47.18416],[8.49738,47.18636],[8.50012,47.18771],[8.49957,47.19316],[8.50385,47.19773],[8.49618,47.20014],[8.49648,47.20366],[8.50272,47.20877],[8.4984,47.21207],[8.51234,47.21552],[8.51257,47.21941],[8.52122,47.22018],[8.53109,47.21756],[8.53255,47.22213],[8.53637,47.2206],[8.53934,47.22308],[8.54589,47.2214],[8.55385,47.22324],[8.56036,47.21954],[8.57434,47.21709],[8.57437,47.21707]]]}},{"type":"Feature","properties":{"name":"Cham","cantonId":"zug","municipalityId":"cham-1702"},"geometry":{"type":"Polygon","coordinates":[[[8.4616,47.17129],[8.44848,47.17583],[8.44739,47.1801],[8.43502,47.18276],[8.42559,47.19031],[8.42297,47.19919],[8.4255,47.20225],[8.41578,47.21596],[8.41484,47.22449],[8.41704,47.23377],[8.41819,47.22662],[8.4217,47.22332],[8.44113,47.22521],[8.44381,47.22264],[8.44665,47.22338],[8.44781,47.22002],[8.45256,47.21789],[8.45669,47.21857],[8.46141,47.21363],[8.4701,47.2134],[8.47385,47.21062],[8.47331,47.20852],[8.47623,47.21002],[8.47991,47.20862],[8.47393,47.20738],[8.47681,47.20558],[8.469,47.19886],[8.47397,47.19702],[8.47338,47.19313],[8.47834,47.18866],[8.47527,47.18228],[8.47384,47.16743],[8.4616,47.17129]]]}},{"type":"Feature","properties":{"name":"Hünenberg","cantonId":"zug","municipalityId":"huenenberg-1703"},"geometry":{"type":"Polygon","coordinates":[[[8.4616,47.17129],[8.45299,47.1647],[8.44929,47.16439],[8.44673,47.15884],[8.43007,47.15797],[8.42988,47.15573],[8.41622,47.15418],[8.41422,47.15705],[8.41531,47.16413],[8.41189,47.17326],[8.40253,47.17669],[8.40044,47.18271],[8.40102,47.18856],[8.4053,47.19573],[8.4005,47.20833],[8.40083,47.2151],[8.39683,47.21917],[8.39485,47.22573],[8.39752,47.23094],[8.40583,47.23671],[8.41051,47.24824],[8.4165,47.24132],[8.41421,47.23915],[8.41704,47.23377],[8.41484,47.22449],[8.41578,47.21596],[8.4255,47.20225],[8.42297,47.19919],[8.42559,47.19031],[8.43502,47.18276],[8.44739,47.1801],[8.44848,47.17583],[8.45413,47.17365],[8.4616,47.17129]]]}},{"type":"Feature","properties":{"name":"Menzingen","cantonId":"zug","municipalityId":"menzingen-1704"},"geometry":{"type":"Polygon","coordinates":[[[8.59452,47.1505],[8.58731,47.15344],[8.58024,47.15089],[8.56971,47.1511],[8.56425,47.14826],[8.56382,47.15382],[8.56027,47.15485],[8.56134,47.1604],[8.55913,47.16586],[8.56079,47.17391],[8.55442,47.1819],[8.55724,47.18624],[8.56812,47.18744],[8.57597,47.1935],[8.58551,47.19132],[8.59255,47.18706],[8.60055,47.18998],[8.60925,47.18747],[8.61119,47.18898],[8.60728,47.19252],[8.60735,47.20146],[8.60316,47.20304],[8.60555,47.20513],[8.61546,47.19903],[8.6174,47.19229],[8.62088,47.19037],[8.62064,47.18774],[8.62806,47.17965],[8.62442,47.17294],[8.63913,47.17154],[8.64168,47.16893],[8.66074,47.17031],[8.66124,47.16095],[8.66575,47.15948],[8.6602,47.15798],[8.66178,47.15494],[8.65708,47.15132],[8.62567,47.1518],[8.62258,47.15343],[8.61783,47.15169],[8.61214,47.15437],[8.59988,47.15348],[8.59488,47.15059],[8.59452,47.1505]]]}},{"type":"Feature","properties":{"name":"Neuheim","cantonId":"zug","municipalityId":"neuheim-1705"},"geometry":{"type":"Polygon","coordinates":[[[8.57437,47.21707],[8.57667,47.21873],[8.58319,47.21771],[8.58102,47.21457],[8.58285,47.21054],[8.58825,47.21261],[8.59485,47.21167],[8.5977,47.20894],[8.59634,47.20489],[8.59859,47.20158],[8.60709,47.20203],[8.60728,47.19252],[8.611,47.18873],[8.60822,47.18752],[8.60055,47.18998],[8.59255,47.18706],[8.58551,47.19132],[8.57597,47.1935],[8.56812,47.18744],[8.55803,47.18559],[8.55783,47.19688],[8.56155,47.20388],[8.56488,47.20456],[8.56485,47.20702],[8.57107,47.20815],[8.57614,47.21203],[8.57776,47.21501],[8.57428,47.21696],[8.57437,47.21707]]]}},{"type":"Feature","properties":{"name":"Oberägeri","cantonId":"zug","municipalityId":"oberaegeri-1706"},"geometry":{"type":"Polygon","coordinates":[[[8.59452,47.1505],[8.59988,47.15348],[8.61214,47.15437],[8.61783,47.15169],[8.62258,47.15343],[8.62567,47.1518],[8.65708,47.15132],[8.66178,47.15494],[8.66053,47.15812],[8.69583,47.16294],[8.69877,47.15286],[8.70117,47.15094],[8.69058,47.14782],[8.68478,47.14193],[8.68752,47.13455],[8.68438,47.1331],[8.68605,47.13127],[8.68183,47.12506],[8.67073,47.11912],[8.67183,47.11568],[8.65981,47.11468],[8.66056,47.11183],[8.64549,47.09963],[8.64492,47.09586],[8.63725,47.09333],[8.61179,47.09497],[8.60746,47.092],[8.60572,47.10532],[8.61065,47.10418],[8.61824,47.10608],[8.61547,47.10726],[8.61531,47.10976],[8.61052,47.10886],[8.61058,47.11371],[8.62157,47.1143],[8.611,47.11829],[8.60907,47.11499],[8.59924,47.11508],[8.60437,47.12778],[8.59744,47.13771],[8.59832,47.14525],[8.59626,47.14807],[8.59452,47.1505]]]}},{"type":"Feature","properties":{"name":"Risch","cantonId":"zug","municipalityId":"risch-1707"},"geometry":{"type":"Polygon","coordinates":[[[8.4616,47.17129],[8.47384,47.16743],[8.4894,47.1443],[8.48038,47.12633],[8.46586,47.11706],[8.45561,47.11345],[8.44956,47.13101],[8.44162,47.12947],[8.4304,47.12332],[8.41785,47.12239],[8.41485,47.1253],[8.41677,47.13056],[8.41222,47.14057],[8.41493,47.14616],[8.41196,47.15361],[8.41422,47.15705],[8.41622,47.15418],[8.42988,47.15573],[8.43007,47.15797],[8.44673,47.15884],[8.44929,47.16439],[8.45598,47.1674],[8.4616,47.17129]]]}},{"type":"Feature","properties":{"name":"Steinhausen","cantonId":"zug","municipalityId":"steinhausen-1708"},"geometry":{"type":"Polygon","coordinates":[[[8.4984,47.21207],[8.50272,47.20877],[8.49648,47.20366],[8.49618,47.20014],[8.50385,47.19773],[8.49957,47.19316],[8.49989,47.18972],[8.48867,47.18513],[8.48472,47.18681],[8.4771,47.18532],[8.47812,47.1899],[8.47336,47.19321],[8.47508,47.19579],[8.469,47.19886],[8.47681,47.20558],[8.47393,47.20738],[8.49812,47.21235],[8.4984,47.21207]]]}},{"type":"Feature","properties":{"name":"Unterägeri","cantonId":"zug","municipalityId":"unteraegeri-1709"},"geometry":{"type":"Polygon","coordinates":[[[8.56285,47.15295],[8.56491,47.14806],[8.56902,47.15094],[8.58024,47.15089],[8.58731,47.15344],[8.59452,47.1505],[8.59832,47.14525],[8.59744,47.13771],[8.60437,47.12778],[8.59924,47.11508],[8.60907,47.11499],[8.611,47.11829],[8.62157,47.1143],[8.61058,47.11371],[8.61052,47.10886],[8.61531,47.10976],[8.61547,47.10726],[8.61824,47.10608],[8.61065,47.10418],[8.60572,47.10532],[8.60746,47.092],[8.5955,47.09129],[8.59011,47.0864],[8.58173,47.08412],[8.57655,47.08484],[8.56742,47.09371],[8.56468,47.09949],[8.56098,47.10137],[8.55903,47.10658],[8.56162,47.10897],[8.55991,47.11446],[8.5478,47.11833],[8.54168,47.13384],[8.54492,47.14327],[8.5627,47.15291],[8.56285,47.15295]]]}},{"type":"Feature","properties":{"name":"Walchwil","cantonId":"zug","municipalityId":"walchwil-1710"},"geometry":{"type":"Polygon","coordinates":[[[8.49374,47.11373],[8.50254,47.1157],[8.51073,47.12556],[8.53081,47.12736],[8.53426,47.12043],[8.54511,47.12296],[8.5492,47.11724],[8.55991,47.11446],[8.56162,47.10897],[8.55903,47.10658],[8.56635,47.09587],[8.56329,47.09261],[8.54421,47.09446],[8.53988,47.092],[8.52194,47.08986],[8.49305,47.10018],[8.49374,47.11373]]]}},{"type":"Feature","properties":{"name":"Zug","cantonId":"zug","municipalityId":"zug-1711"},"geometry":{"type":"MultiPolygon","coordinates":[[[[8.49374,47.11373],[8.48038,47.12633],[8.4894,47.1443],[8.47384,47.16743],[8.4771,47.18532],[8.48472,47.18681],[8.48867,47.18513],[8.50001,47.18985],[8.49738,47.18636],[8.50056,47.18416],[8.50714,47.18845],[8.50721,47.18659],[8.51663,47.18206],[8.52527,47.18585],[8.5276,47.18333],[8.52336,47.1789],[8.52936,47.17629],[8.53056,47.17368],[8.5356,47.17466],[8.53908,47.17137],[8.53974,47.16906],[8.5363,47.16804],[8.53596,47.16494],[8.54369,47.15746],[8.55135,47.15627],[8.55536,47.15781],[8.55856,47.15087],[8.54348,47.14123],[8.54168,47.13384],[8.5456,47.12694],[8.54511,47.12296],[8.53426,47.12043],[8.53081,47.12736],[8.51781,47.12738],[8.50912,47.12493],[8.50679,47.11977],[8.50016,47.11447],[8.49374,47.11373]]],[[[8.56329,47.09261],[8.56673,47.09576],[8.5776,47.08448],[8.56955,47.08121],[8.56343,47.08163],[8.5636,47.09195],[8.56329,47.09261]]]]}}]}
